<?xml version="1.0" encoding="UTF-8"?>
<gpx creator="https://gpx.studio" version="1.1" xmlns="http://www.topografix.com/GPX/1/1" xmlns:xsi="http://www.w3.org/2001/XMLSchema-instance" xsi:schemaLocation="http://www.topografix.com/GPX/1/1 http://www.topografix.com/GPX/1/1/gpx.xsd http://www.garmin.com/xmlschemas/GpxExtensions/v3 http://www.garmin.com/xmlschemas/GpxExtensionsv3.xsd http://www.garmin.com/xmlschemas/TrackPointExtension/v1 http://www.garmin.com/xmlschemas/TrackPointExtensionv1.xsd http://www.garmin.com/xmlschemas/PowerExtension/v1 http://www.garmin.com/xmlschemas/PowerExtensionv1.xsd http://www.topografix.com/GPX/gpx_style/0/2 http://www.topografix.com/GPX/gpx_style/0/2/gpx_style.xsd" xmlns:gpxtpx="http://www.garmin.com/xmlschemas/TrackPointExtension/v1" xmlns:gpxx="http://www.garmin.com/xmlschemas/GpxExtensions/v3" xmlns:gpxpx="http://www.garmin.com/xmlschemas/PowerExtension/v1" xmlns:gpx_style="http://www.topografix.com/GPX/gpx_style/0/2">
  <metadata>
    <name>妙高山トレイル</name>
    <author>
      <name>gpx.studio</name>
      <link href="https://gpx.studio"/>
    </author>
  </metadata>
  <trk>
    <name>妙高山トレイル</name>
    <extensions>
      <gpx_style:line>
        <gpx_style:color>bd0000</gpx_style:color>
        <gpx_style:opacity>1</gpx_style:opacity>
        <gpx_style:width>6</gpx_style:width>
      </gpx_style:line>
    </extensions>
    <trkseg>
      <trkpt lat="36.902237" lon="138.145482">
        <ele>1115.0873403455007</ele>
      </trkpt>
      <trkpt lat="36.902301" lon="138.14536">
        <ele>1115.8165593394108</ele>
      </trkpt>
      <trkpt lat="36.902364" lon="138.145261">
        <ele>1116.142664512713</ele>
      </trkpt>
      <trkpt lat="36.90239" lon="138.145202">
        <ele>1116.7219556829898</ele>
      </trkpt>
      <trkpt lat="36.902387" lon="138.144897">
        <ele>1125.2419262596845</ele>
      </trkpt>
      <trkpt lat="36.902419" lon="138.144793">
        <ele>1127.5370526794327</ele>
      </trkpt>
      <trkpt lat="36.902474" lon="138.144731">
        <ele>1128.0796936129902</ele>
      </trkpt>
      <trkpt lat="36.902504" lon="138.144716">
        <ele>1127.5460803648562</ele>
      </trkpt>
      <trkpt lat="36.902562" lon="138.144695">
        <ele>1126.1380155805768</ele>
      </trkpt>
      <trkpt lat="36.902634" lon="138.144689">
        <ele>1123.275094754796</ele>
      </trkpt>
      <trkpt lat="36.902684" lon="138.144657">
        <ele>1122.1937560638667</ele>
      </trkpt>
      <trkpt lat="36.902684" lon="138.144633">
        <ele>1123.1985887292753</ele>
      </trkpt>
      <trkpt lat="36.902674" lon="138.14461">
        <ele>1124.5998984159048</ele>
      </trkpt>
      <trkpt lat="36.902645" lon="138.144576">
        <ele>1127.2202488511007</ele>
      </trkpt>
      <trkpt lat="36.902627" lon="138.144533">
        <ele>1129.5534136641058</ele>
      </trkpt>
      <trkpt lat="36.902605" lon="138.144429">
        <ele>1133.9512363739054</ele>
      </trkpt>
      <trkpt lat="36.902599" lon="138.144317">
        <ele>1137.7240563591902</ele>
      </trkpt>
      <trkpt lat="36.90261" lon="138.144283">
        <ele>1138.6413365768503</ele>
      </trkpt>
      <trkpt lat="36.902631" lon="138.14425">
        <ele>1139.4241353907275</ele>
      </trkpt>
      <trkpt lat="36.902659" lon="138.144218">
        <ele>1140.1688400965986</ele>
      </trkpt>
      <trkpt lat="36.902689" lon="138.144205">
        <ele>1140.3365321480603</ele>
      </trkpt>
      <trkpt lat="36.902756" lon="138.144204">
        <ele>1139.605588894769</ele>
      </trkpt>
      <trkpt lat="36.902843" lon="138.144241">
        <ele>1136.1610563682927</ele>
      </trkpt>
      <trkpt lat="36.902904" lon="138.14423">
        <ele>1135.3703852921044</ele>
      </trkpt>
      <trkpt lat="36.903005" lon="138.144191">
        <ele>1135.0119231416497</ele>
      </trkpt>
      <trkpt lat="36.903061" lon="138.144122">
        <ele>1137.7560511404909</ele>
      </trkpt>
      <trkpt lat="36.903253" lon="138.143962">
        <ele>1141.4132550123152</ele>
      </trkpt>
      <trkpt lat="36.903401" lon="138.143772">
        <ele>1144.091112336323</ele>
      </trkpt>
      <trkpt lat="36.9035" lon="138.14373">
        <ele>1139.0287586429429</ele>
      </trkpt>
      <trkpt lat="36.903556" lon="138.143674">
        <ele>1136.1041987811811</ele>
      </trkpt>
      <trkpt lat="36.903592" lon="138.143624">
        <ele>1133.9248059436886</ele>
      </trkpt>
      <trkpt lat="36.903623" lon="138.143524">
        <ele>1131.8843848580932</ele>
      </trkpt>
      <trkpt lat="36.903636" lon="138.143445">
        <ele>1130.859931448696</ele>
      </trkpt>
      <trkpt lat="36.903671" lon="138.143338">
        <ele>1126.8760947395585</ele>
      </trkpt>
      <trkpt lat="36.903673" lon="138.143271">
        <ele>1126.1000891278295</ele>
      </trkpt>
      <trkpt lat="36.903653" lon="138.143227">
        <ele>1127.6011484066228</ele>
      </trkpt>
      <trkpt lat="36.903609" lon="138.143168">
        <ele>1131.3222556882386</ele>
      </trkpt>
      <trkpt lat="36.903607" lon="138.143072">
        <ele>1129.6179265247038</ele>
      </trkpt>
      <trkpt lat="36.903591" lon="138.143021">
        <ele>1130.1219903766112</ele>
      </trkpt>
      <trkpt lat="36.903477" lon="138.142803">
        <ele>1135.9608358495411</ele>
      </trkpt>
      <trkpt lat="36.903437" lon="138.142667">
        <ele>1136.4509969021665</ele>
      </trkpt>
      <trkpt lat="36.903433" lon="138.142611">
        <ele>1135.4293995673304</ele>
      </trkpt>
      <trkpt lat="36.903399" lon="138.142528">
        <ele>1136.8359701779773</ele>
      </trkpt>
      <trkpt lat="36.903399" lon="138.142477">
        <ele>1135.6673310125454</ele>
      </trkpt>
      <trkpt lat="36.903423" lon="138.142402">
        <ele>1131.7605793188884</ele>
      </trkpt>
      <trkpt lat="36.903434" lon="138.142318">
        <ele>1129.1233884781411</ele>
      </trkpt>
      <trkpt lat="36.903428" lon="138.142263">
        <ele>1128.581650988594</ele>
      </trkpt>
      <trkpt lat="36.903394" lon="138.142184">
        <ele>1129.8850982198235</ele>
      </trkpt>
      <trkpt lat="36.903362" lon="138.14213">
        <ele>1131.2236733945226</ele>
      </trkpt>
      <trkpt lat="36.903278" lon="138.142033">
        <ele>1135.9186231169433</ele>
      </trkpt>
      <trkpt lat="36.903225" lon="138.14195">
        <ele>1138.6841313364084</ele>
      </trkpt>
      <trkpt lat="36.903205" lon="138.141903">
        <ele>1139.5764525179636</ele>
      </trkpt>
      <trkpt lat="36.903197" lon="138.141729">
        <ele>1137.2204035496256</ele>
      </trkpt>
      <trkpt lat="36.903207" lon="138.141651">
        <ele>1135.3537534827144</ele>
      </trkpt>
      <trkpt lat="36.903209" lon="138.141458">
        <ele>1133.9902003743696</ele>
      </trkpt>
      <trkpt lat="36.903282" lon="138.141162">
        <ele>1133.6391028403225</ele>
      </trkpt>
      <trkpt lat="36.903397" lon="138.140907">
        <ele>1139.2734511929348</ele>
      </trkpt>
      <trkpt lat="36.903421" lon="138.140726">
        <ele>1147.9629103508064</ele>
      </trkpt>
      <trkpt lat="36.903497" lon="138.140483">
        <ele>1162.7745136342855</ele>
      </trkpt>
      <trkpt lat="36.903372" lon="138.140468">
        <ele>1164.446089584465</ele>
      </trkpt>
      <trkpt lat="36.903245" lon="138.140404">
        <ele>1170.8214167458032</ele>
      </trkpt>
      <trkpt lat="36.903225" lon="138.140263">
        <ele>1178.585413681481</ele>
      </trkpt>
      <trkpt lat="36.903251" lon="138.140183">
        <ele>1182.149672578252</ele>
      </trkpt>
      <trkpt lat="36.903257" lon="138.140085">
        <ele>1186.4356383322042</ele>
      </trkpt>
      <trkpt lat="36.903193" lon="138.140088">
        <ele>1187.3771435064573</ele>
      </trkpt>
      <trkpt lat="36.903125" lon="138.140114">
        <ele>1187.4906948563541</ele>
      </trkpt>
      <trkpt lat="36.903027" lon="138.140218">
        <ele>1184.2669290567676</ele>
      </trkpt>
      <trkpt lat="36.90295" lon="138.140271">
        <ele>1183.1921256604146</ele>
      </trkpt>
      <trkpt lat="36.902889" lon="138.140289">
        <ele>1183.4743073305565</ele>
      </trkpt>
      <trkpt lat="36.9027" lon="138.140292">
        <ele>1186.4516726619443</ele>
      </trkpt>
      <trkpt lat="36.902648" lon="138.140232">
        <ele>1190.634501719256</ele>
      </trkpt>
      <trkpt lat="36.902497" lon="138.140132">
        <ele>1197.1974197912966</ele>
      </trkpt>
      <trkpt lat="36.902426" lon="138.140075">
        <ele>1199.0820205663335</ele>
      </trkpt>
      <trkpt lat="36.902379" lon="138.139976">
        <ele>1202.8934221005075</ele>
      </trkpt>
      <trkpt lat="36.902317" lon="138.139872">
        <ele>1205.479589591921</ele>
      </trkpt>
      <trkpt lat="36.902362" lon="138.139764">
        <ele>1212.1249882830766</ele>
      </trkpt>
      <trkpt lat="36.902536" lon="138.139637">
        <ele>1220.252197396247</ele>
      </trkpt>
      <trkpt lat="36.902703" lon="138.139546">
        <ele>1223.1387003572895</ele>
      </trkpt>
      <trkpt lat="36.90289" lon="138.139424">
        <ele>1225.9631705379622</ele>
      </trkpt>
      <trkpt lat="36.902936" lon="138.139312">
        <ele>1234.1386921282694</ele>
      </trkpt>
      <trkpt lat="36.902924" lon="138.139142">
        <ele>1252.374944272486</ele>
      </trkpt>
      <trkpt lat="36.902847" lon="138.139092">
        <ele>1259.5565484325464</ele>
      </trkpt>
      <trkpt lat="36.902756" lon="138.139071">
        <ele>1262.6707663807524</ele>
      </trkpt>
      <trkpt lat="36.902687" lon="138.13902">
        <ele>1267.7065321201633</ele>
      </trkpt>
      <trkpt lat="36.90255" lon="138.138942">
        <ele>1273.1780173868176</ele>
      </trkpt>
      <trkpt lat="36.902092" lon="138.138804">
        <ele>1267.0951245485658</ele>
      </trkpt>
      <trkpt lat="36.90204" lon="138.138684">
        <ele>1275.2934790714069</ele>
      </trkpt>
      <trkpt lat="36.902033" lon="138.138542">
        <ele>1286.7193577030584</ele>
      </trkpt>
      <trkpt lat="36.90205" lon="138.138491">
        <ele>1291.4301716735242</ele>
      </trkpt>
      <trkpt lat="36.902409" lon="138.138407">
        <ele>1310.2433450480592</ele>
      </trkpt>
      <trkpt lat="36.902462" lon="138.138356">
        <ele>1313.2672219620101</ele>
      </trkpt>
      <trkpt lat="36.90248" lon="138.138249">
        <ele>1317.7728874942036</ele>
      </trkpt>
      <trkpt lat="36.902468" lon="138.138138">
        <ele>1321.569352656376</ele>
      </trkpt>
      <trkpt lat="36.902552" lon="138.138072">
        <ele>1323.4892666949177</ele>
      </trkpt>
      <trkpt lat="36.902621" lon="138.137991">
        <ele>1325.2215027979757</ele>
      </trkpt>
      <trkpt lat="36.902632" lon="138.137874">
        <ele>1328.0440557933068</ele>
      </trkpt>
      <trkpt lat="36.902636" lon="138.137336">
        <ele>1340.30999888517</ele>
      </trkpt>
      <trkpt lat="36.902757" lon="138.137002">
        <ele>1344.3922565327211</ele>
      </trkpt>
      <trkpt lat="36.902882" lon="138.136925">
        <ele>1346.9057825772406</ele>
      </trkpt>
      <trkpt lat="36.902967" lon="138.136895">
        <ele>1349.941044119047</ele>
      </trkpt>
      <trkpt lat="36.903117" lon="138.136972">
        <ele>1353.0140283471442</ele>
      </trkpt>
      <trkpt lat="36.903226" lon="138.137117">
        <ele>1353.1820709390647</ele>
      </trkpt>
      <trkpt lat="36.903351" lon="138.137066">
        <ele>1357.5914182562212</ele>
      </trkpt>
      <trkpt lat="36.903462" lon="138.13693">
        <ele>1360.9047070275806</ele>
      </trkpt>
      <trkpt lat="36.90353" lon="138.136723">
        <ele>1363.8388294436945</ele>
      </trkpt>
      <trkpt lat="36.903522" lon="138.136598">
        <ele>1366.1514863435468</ele>
      </trkpt>
      <trkpt lat="36.903567" lon="138.136494">
        <ele>1367.3368354383165</ele>
      </trkpt>
      <trkpt lat="36.903666" lon="138.136443">
        <ele>1366.1859505142556</ele>
      </trkpt>
      <trkpt lat="36.903879" lon="138.136113">
        <ele>1366.860491085548</ele>
      </trkpt>
      <trkpt lat="36.903985" lon="138.135999">
        <ele>1364.6287665990221</ele>
      </trkpt>
      <trkpt lat="36.904085" lon="138.135746">
        <ele>1365.4881173128094</ele>
      </trkpt>
      <trkpt lat="36.90417" lon="138.135607">
        <ele>1366.3972885105309</ele>
      </trkpt>
      <trkpt lat="36.904292" lon="138.135686">
        <ele>1366.6338118837211</ele>
      </trkpt>
      <trkpt lat="36.904391" lon="138.135944">
        <ele>1363.713089167281</ele>
      </trkpt>
      <trkpt lat="36.904593" lon="138.135987">
        <ele>1363.282770101122</ele>
      </trkpt>
      <trkpt lat="36.904688" lon="138.135814">
        <ele>1365.721877823743</ele>
      </trkpt>
      <trkpt lat="36.904923" lon="138.13561">
        <ele>1363.0669591633346</ele>
      </trkpt>
      <trkpt lat="36.905026" lon="138.135496">
        <ele>1361.3513362172575</ele>
      </trkpt>
      <trkpt lat="36.905075" lon="138.135379">
        <ele>1361.8637839332894</ele>
      </trkpt>
      <trkpt lat="36.905096" lon="138.135096">
        <ele>1367.8369703714247</ele>
      </trkpt>
      <trkpt lat="36.905134" lon="138.134953">
        <ele>1369.0772721597195</ele>
      </trkpt>
      <trkpt lat="36.905271" lon="138.134554">
        <ele>1369.0750957093667</ele>
      </trkpt>
      <trkpt lat="36.905535" lon="138.133633">
        <ele>1375.7214526277526</ele>
      </trkpt>
      <trkpt lat="36.905569" lon="138.13342">
        <ele>1380.318390427278</ele>
      </trkpt>
      <trkpt lat="36.905624" lon="138.133224">
        <ele>1382.9559718171595</ele>
      </trkpt>
      <trkpt lat="36.905632" lon="138.133159">
        <ele>1383.3495599567566</ele>
      </trkpt>
      <trkpt lat="36.905629" lon="138.133031">
        <ele>1384.3744674971356</ele>
      </trkpt>
      <trkpt lat="36.905602" lon="138.132911">
        <ele>1386.1760535930575</ele>
      </trkpt>
      <trkpt lat="36.905594" lon="138.132513">
        <ele>1387.8034118392325</ele>
      </trkpt>
      <trkpt lat="36.905583" lon="138.132404">
        <ele>1388.4642183872504</ele>
      </trkpt>
      <trkpt lat="36.90555" lon="138.132222">
        <ele>1390.4659237273752</ele>
      </trkpt>
      <trkpt lat="36.905536" lon="138.131999">
        <ele>1394.350974667544</ele>
      </trkpt>
      <trkpt lat="36.905481" lon="138.131843">
        <ele>1396.737978335553</ele>
      </trkpt>
      <trkpt lat="36.905475" lon="138.131621">
        <ele>1400.7815182132993</ele>
      </trkpt>
      <trkpt lat="36.905555" lon="138.131462">
        <ele>1407.5329921677312</ele>
      </trkpt>
      <trkpt lat="36.905753" lon="138.131239">
        <ele>1423.8651972547182</ele>
      </trkpt>
      <trkpt lat="36.905853" lon="138.131205">
        <ele>1430.7527826622347</ele>
      </trkpt>
      <trkpt lat="36.905924" lon="138.131074">
        <ele>1438.7042200904461</ele>
      </trkpt>
      <trkpt lat="36.905994" lon="138.131031">
        <ele>1444.7897565277929</ele>
      </trkpt>
      <trkpt lat="36.906115" lon="138.130904">
        <ele>1455.9746600575206</ele>
      </trkpt>
      <trkpt lat="36.906239" lon="138.13087">
        <ele>1463.8336406935562</ele>
      </trkpt>
      <trkpt lat="36.906369" lon="138.130787">
        <ele>1471.9110556717333</ele>
      </trkpt>
      <trkpt lat="36.9065" lon="138.130767">
        <ele>1477.9243894318643</ele>
      </trkpt>
      <trkpt lat="36.906705" lon="138.130776">
        <ele>1486.2416388272213</ele>
      </trkpt>
      <trkpt lat="36.906768" lon="138.130612">
        <ele>1493.2887316326983</ele>
      </trkpt>
      <trkpt lat="36.906859" lon="138.130412">
        <ele>1501.7543823004476</ele>
      </trkpt>
      <trkpt lat="36.907089" lon="138.130039">
        <ele>1519.1604446143022</ele>
      </trkpt>
      <trkpt lat="36.90728" lon="138.1297">
        <ele>1534.5879712492228</ele>
      </trkpt>
      <trkpt lat="36.907332" lon="138.129509">
        <ele>1541.6135944221849</ele>
      </trkpt>
      <trkpt lat="36.907375" lon="138.129384">
        <ele>1546.917679010146</ele>
      </trkpt>
      <trkpt lat="36.907519" lon="138.128841">
        <ele>1564.6232983373507</ele>
      </trkpt>
      <trkpt lat="36.907571" lon="138.128676">
        <ele>1569.086631677952</ele>
      </trkpt>
      <trkpt lat="36.907631" lon="138.128316">
        <ele>1574.3555192030972</ele>
      </trkpt>
      <trkpt lat="36.90767" lon="138.12816">
        <ele>1576.1026309575655</ele>
      </trkpt>
      <trkpt lat="36.907778" lon="138.128082">
        <ele>1581.3736234558323</ele>
      </trkpt>
      <trkpt lat="36.9079" lon="138.128077">
        <ele>1587.9113146521388</ele>
      </trkpt>
      <trkpt lat="36.908038" lon="138.128055">
        <ele>1595.5462566829765</ele>
      </trkpt>
      <trkpt lat="36.908099" lon="138.12799">
        <ele>1598.879949694873</ele>
      </trkpt>
      <trkpt lat="36.908177" lon="138.127647">
        <ele>1604.6451948331376</ele>
      </trkpt>
      <trkpt lat="36.908238" lon="138.127439">
        <ele>1610.1518527245623</ele>
      </trkpt>
      <trkpt lat="36.90836" lon="138.126754">
        <ele>1624.9435621624523</ele>
      </trkpt>
      <trkpt lat="36.908372" lon="138.126485">
        <ele>1631.028045526706</ele>
      </trkpt>
      <trkpt lat="36.908342" lon="138.126219">
        <ele>1636.1624656771385</ele>
      </trkpt>
      <trkpt lat="36.90829" lon="138.126054">
        <ele>1639.0521174162407</ele>
      </trkpt>
      <trkpt lat="36.908282" lon="138.125935">
        <ele>1643.295572469303</ele>
      </trkpt>
      <trkpt lat="36.908189" lon="138.125847">
        <ele>1644.6194291753168</ele>
      </trkpt>
      <trkpt lat="36.90804" lon="138.125739">
        <ele>1645.9834217419389</ele>
      </trkpt>
      <trkpt lat="36.907982" lon="138.12562">
        <ele>1649.3275363256234</ele>
      </trkpt>
      <trkpt lat="36.907938" lon="138.125472">
        <ele>1654.2079219502025</ele>
      </trkpt>
      <trkpt lat="36.907934" lon="138.125392">
        <ele>1657.5449637887195</ele>
      </trkpt>
      <trkpt lat="36.907832" lon="138.12528">
        <ele>1660.3079115459914</ele>
      </trkpt>
      <trkpt lat="36.907724" lon="138.125212">
        <ele>1661.3106029687733</ele>
      </trkpt>
      <trkpt lat="36.907708" lon="138.125096">
        <ele>1665.9076551452567</ele>
      </trkpt>
      <trkpt lat="36.907652" lon="138.12497">
        <ele>1669.8921203095606</ele>
      </trkpt>
      <trkpt lat="36.9076" lon="138.124901">
        <ele>1671.495565206465</ele>
      </trkpt>
      <trkpt lat="36.907465" lon="138.124775">
        <ele>1673.496418539838</ele>
      </trkpt>
      <trkpt lat="36.90728" lon="138.124579">
        <ele>1679.576370128169</ele>
      </trkpt>
      <trkpt lat="36.907002" lon="138.124405">
        <ele>1680.6064850722425</ele>
      </trkpt>
      <trkpt lat="36.906871" lon="138.124254">
        <ele>1682.054544164499</ele>
      </trkpt>
      <trkpt lat="36.906811" lon="138.124147">
        <ele>1682.2097154585574</ele>
      </trkpt>
      <trkpt lat="36.906811" lon="138.123993">
        <ele>1684.1995273907316</ele>
      </trkpt>
      <trkpt lat="36.906909" lon="138.123725">
        <ele>1691.9476912227374</ele>
      </trkpt>
      <trkpt lat="36.906941" lon="138.123424">
        <ele>1692.945763856936</ele>
      </trkpt>
      <trkpt lat="36.906988" lon="138.123295">
        <ele>1694.2933460114582</ele>
      </trkpt>
      <trkpt lat="36.90707" lon="138.123174">
        <ele>1696.234445540215</ele>
      </trkpt>
      <trkpt lat="36.90744" lon="138.122878">
        <ele>1704.7463465797955</ele>
      </trkpt>
      <trkpt lat="36.907529" lon="138.122845">
        <ele>1706.5954083792753</ele>
      </trkpt>
      <trkpt lat="36.907797" lon="138.122605">
        <ele>1706.7242952015145</ele>
      </trkpt>
      <trkpt lat="36.907908" lon="138.122444">
        <ele>1708.3678458829118</ele>
      </trkpt>
      <trkpt lat="36.907964" lon="138.122346">
        <ele>1710.2307054117332</ele>
      </trkpt>
      <trkpt lat="36.908052" lon="138.122264">
        <ele>1712.994093651496</ele>
      </trkpt>
      <trkpt lat="36.908074" lon="138.122073">
        <ele>1716.8487105264858</ele>
      </trkpt>
      <trkpt lat="36.908159" lon="138.121904">
        <ele>1722.3016970179387</ele>
      </trkpt>
      <trkpt lat="36.908293" lon="138.12177">
        <ele>1728.5954122435396</ele>
      </trkpt>
      <trkpt lat="36.908373" lon="138.121715">
        <ele>1731.8207104423207</ele>
      </trkpt>
      <trkpt lat="36.908491" lon="138.121575">
        <ele>1738.6540229334178</ele>
      </trkpt>
      <trkpt lat="36.908539" lon="138.121472">
        <ele>1743.0871847276585</ele>
      </trkpt>
      <trkpt lat="36.908635" lon="138.121395">
        <ele>1747.3756647333964</ele>
      </trkpt>
      <trkpt lat="36.908683" lon="138.121339">
        <ele>1750.239928267008</ele>
      </trkpt>
      <trkpt lat="36.908688" lon="138.121195">
        <ele>1754.7970865745024</ele>
      </trkpt>
      <trkpt lat="36.908714" lon="138.121066">
        <ele>1759.1000382216207</ele>
      </trkpt>
      <trkpt lat="36.90884" lon="138.120914">
        <ele>1765.6167914753908</ele>
      </trkpt>
      <trkpt lat="36.908872" lon="138.120826">
        <ele>1768.1884064179042</ele>
      </trkpt>
      <trkpt lat="36.908865" lon="138.120503">
        <ele>1772.5755872435097</ele>
      </trkpt>
      <trkpt lat="36.90883" lon="138.120309">
        <ele>1774.0225441368304</ele>
      </trkpt>
      <trkpt lat="36.908829" lon="138.120152">
        <ele>1775.923188127991</ele>
      </trkpt>
      <trkpt lat="36.90878" lon="138.119957">
        <ele>1777.728375246932</ele>
      </trkpt>
      <trkpt lat="36.908697" lon="138.1198">
        <ele>1778.2736075018897</ele>
      </trkpt>
      <trkpt lat="36.908402" lon="138.119436">
        <ele>1777.56492848117</ele>
      </trkpt>
      <trkpt lat="36.908323" lon="138.11938">
        <ele>1777.7763565448422</ele>
      </trkpt>
      <trkpt lat="36.908086" lon="138.119313">
        <ele>1776.5613569611821</ele>
      </trkpt>
      <trkpt lat="36.907948" lon="138.119237">
        <ele>1777.1544954287656</ele>
      </trkpt>
      <trkpt lat="36.907883" lon="138.119231">
        <ele>1776.5822001564475</ele>
      </trkpt>
      <trkpt lat="36.907827" lon="138.119185">
        <ele>1777.0497992756514</ele>
      </trkpt>
      <trkpt lat="36.907675" lon="138.119011">
        <ele>1778.4772782781206</ele>
      </trkpt>
      <trkpt lat="36.90756" lon="138.118727">
        <ele>1782.8806223500533</ele>
      </trkpt>
      <trkpt lat="36.907523" lon="138.118665">
        <ele>1784.054033122786</ele>
      </trkpt>
      <trkpt lat="36.90743" lon="138.118585">
        <ele>1785.5056550475504</ele>
      </trkpt>
      <trkpt lat="36.907188" lon="138.118488">
        <ele>1787.8119567492058</ele>
      </trkpt>
      <trkpt lat="36.906964" lon="138.118349">
        <ele>1792.2687246826483</ele>
      </trkpt>
      <trkpt lat="36.906909" lon="138.118241">
        <ele>1795.8724968066163</ele>
      </trkpt>
      <trkpt lat="36.906904" lon="138.118184">
        <ele>1797.6383332761607</ele>
      </trkpt>
      <trkpt lat="36.906923" lon="138.118022">
        <ele>1802.6770884332748</ele>
      </trkpt>
      <trkpt lat="36.906909" lon="138.117994">
        <ele>1803.502798113064</ele>
      </trkpt>
      <trkpt lat="36.906828" lon="138.117945">
        <ele>1804.4900696966702</ele>
      </trkpt>
      <trkpt lat="36.90677" lon="138.117887">
        <ele>1805.71834585834</ele>
      </trkpt>
      <trkpt lat="36.906586" lon="138.117542">
        <ele>1815.3743098612879</ele>
      </trkpt>
      <trkpt lat="36.906602" lon="138.11745">
        <ele>1818.181188829476</ele>
      </trkpt>
      <trkpt lat="36.906669" lon="138.117269">
        <ele>1822.389157540817</ele>
      </trkpt>
      <trkpt lat="36.906681" lon="138.117196">
        <ele>1823.6920802452603</ele>
      </trkpt>
      <trkpt lat="36.906651" lon="138.117033">
        <ele>1825.918136812654</ele>
      </trkpt>
      <trkpt lat="36.90657" lon="138.116887">
        <ele>1828.4358357175488</ele>
      </trkpt>
      <trkpt lat="36.906353" lon="138.116763">
        <ele>1831.412272235959</ele>
      </trkpt>
      <trkpt lat="36.905485" lon="138.116045">
        <ele>1848.735041170979</ele>
      </trkpt>
      <trkpt lat="36.905392" lon="138.115953">
        <ele>1850.7276603706655</ele>
      </trkpt>
      <trkpt lat="36.905236" lon="138.115739">
        <ele>1856.2582882574093</ele>
      </trkpt>
      <trkpt lat="36.905088" lon="138.115636">
        <ele>1859.187423370779</ele>
      </trkpt>
      <trkpt lat="36.905042" lon="138.115574">
        <ele>1861.1475128325974</ele>
      </trkpt>
      <trkpt lat="36.904871" lon="138.115299">
        <ele>1870.1078145758054</ele>
      </trkpt>
      <trkpt lat="36.90476" lon="138.115177">
        <ele>1874.027449214622</ele>
      </trkpt>
      <trkpt lat="36.904563" lon="138.115066">
        <ele>1877.152789621195</ele>
      </trkpt>
      <trkpt lat="36.904421" lon="138.115037">
        <ele>1877.439306373385</ele>
      </trkpt>
      <trkpt lat="36.904205" lon="138.114966">
        <ele>1878.7365112224709</ele>
      </trkpt>
      <trkpt lat="36.90411" lon="138.114891">
        <ele>1881.0628939289875</ele>
      </trkpt>
      <trkpt lat="36.904035" lon="138.114707">
        <ele>1886.8640476340618</ele>
      </trkpt>
      <trkpt lat="36.904035" lon="138.114632">
        <ele>1889.3686175137252</ele>
      </trkpt>
      <trkpt lat="36.903988" lon="138.114527">
        <ele>1893.4392425923143</ele>
      </trkpt>
      <trkpt lat="36.903938" lon="138.11449">
        <ele>1895.153211802478</ele>
      </trkpt>
      <trkpt lat="36.903661" lon="138.114479">
        <ele>1898.0615372261104</ele>
      </trkpt>
      <trkpt lat="36.903125" lon="138.114173">
        <ele>1911.696733796573</ele>
      </trkpt>
      <trkpt lat="36.902973" lon="138.114055">
        <ele>1916.9358528809153</ele>
      </trkpt>
      <trkpt lat="36.902737" lon="138.113809">
        <ele>1924.8230996433629</ele>
      </trkpt>
      <trkpt lat="36.90254" lon="138.11357">
        <ele>1930.968486661911</ele>
      </trkpt>
      <trkpt lat="36.90234" lon="138.113292">
        <ele>1938.8714984322858</ele>
      </trkpt>
      <trkpt lat="36.902201" lon="138.113031">
        <ele>1942.9520169192726</ele>
      </trkpt>
      <trkpt lat="36.90208" lon="138.112867">
        <ele>1945.9641890009766</ele>
      </trkpt>
      <trkpt lat="36.901984" lon="138.112576">
        <ele>1949.3158620120628</ele>
      </trkpt>
      <trkpt lat="36.901944" lon="138.112363">
        <ele>1950.8865588039532</ele>
      </trkpt>
      <trkpt lat="36.901962" lon="138.112245">
        <ele>1950.408811490083</ele>
      </trkpt>
      <trkpt lat="36.901964" lon="138.112134">
        <ele>1950.1121554140013</ele>
      </trkpt>
      <trkpt lat="36.901995" lon="138.111839">
        <ele>1947.321298442479</ele>
      </trkpt>
      <trkpt lat="36.902062" lon="138.111726">
        <ele>1945.5864631769025</ele>
      </trkpt>
      <trkpt lat="36.90211" lon="138.111493">
        <ele>1944.5122805240424</ele>
      </trkpt>
      <trkpt lat="36.90211" lon="138.111336">
        <ele>1944.5153503537656</ele>
      </trkpt>
      <trkpt lat="36.902126" lon="138.111244">
        <ele>1944.4719193241235</ele>
      </trkpt>
      <trkpt lat="36.902064" lon="138.111108">
        <ele>1944.7132632506377</ele>
      </trkpt>
      <trkpt lat="36.901913" lon="138.110853">
        <ele>1945.5018914519821</ele>
      </trkpt>
      <trkpt lat="36.901722" lon="138.110826">
        <ele>1947.1624768308839</ele>
      </trkpt>
      <trkpt lat="36.901647" lon="138.110743">
        <ele>1947.9970084986335</ele>
      </trkpt>
      <trkpt lat="36.901623" lon="138.110675">
        <ele>1948.1785233912983</ele>
      </trkpt>
      <trkpt lat="36.901459" lon="138.110228">
        <ele>1949.5678987734827</ele>
      </trkpt>
      <trkpt lat="36.90121" lon="138.109965">
        <ele>1951.4912882554913</ele>
      </trkpt>
      <trkpt lat="36.901092" lon="138.109804">
        <ele>1952.6095496646496</ele>
      </trkpt>
      <trkpt lat="36.900843" lon="138.109584">
        <ele>1955.590768411619</ele>
      </trkpt>
      <trkpt lat="36.900712" lon="138.109313">
        <ele>1956.42058674547</ele>
      </trkpt>
      <trkpt lat="36.900671" lon="138.109254">
        <ele>1957.0218531704274</ele>
      </trkpt>
      <trkpt lat="36.900607" lon="138.10905">
        <ele>1958.478189197416</ele>
      </trkpt>
      <trkpt lat="36.900523" lon="138.108895">
        <ele>1960.8855500913978</ele>
      </trkpt>
      <trkpt lat="36.900446" lon="138.108694">
        <ele>1963.6049214467916</ele>
      </trkpt>
      <trkpt lat="36.900384" lon="138.108592">
        <ele>1965.4860100636422</ele>
      </trkpt>
      <trkpt lat="36.90011" lon="138.108589">
        <ele>1971.7899306462082</ele>
      </trkpt>
      <trkpt lat="36.900002" lon="138.108538">
        <ele>1974.0349462838858</ele>
      </trkpt>
      <trkpt lat="36.899906" lon="138.108517">
        <ele>1975.8355448866037</ele>
      </trkpt>
      <trkpt lat="36.899788" lon="138.10845">
        <ele>1978.6186107325846</ele>
      </trkpt>
      <trkpt lat="36.899702" lon="138.108434">
        <ele>1980.6095495167497</ele>
      </trkpt>
      <trkpt lat="36.899569" lon="138.108329">
        <ele>1986.321068919774</ele>
      </trkpt>
      <trkpt lat="36.89946" lon="138.108329">
        <ele>1989.4138737802386</ele>
      </trkpt>
      <trkpt lat="36.899376" lon="138.108377">
        <ele>1990.5435098217863</ele>
      </trkpt>
      <trkpt lat="36.899215" lon="138.108546">
        <ele>1990.3201250988097</ele>
      </trkpt>
      <trkpt lat="36.899136" lon="138.108589">
        <ele>1991.237244220963</ele>
      </trkpt>
      <trkpt lat="36.899056" lon="138.108613">
        <ele>1992.488758301516</ele>
      </trkpt>
      <trkpt lat="36.898466" lon="138.108608">
        <ele>2005.161166003108</ele>
      </trkpt>
      <trkpt lat="36.898318" lon="138.108544">
        <ele>2009.798300513208</ele>
      </trkpt>
      <trkpt lat="36.898158" lon="138.108503">
        <ele>2013.8176338546677</ele>
      </trkpt>
      <trkpt lat="36.897982" lon="138.108482">
        <ele>2018.564986719833</ele>
      </trkpt>
      <trkpt lat="36.897378" lon="138.108495">
        <ele>2040.7449054870315</ele>
      </trkpt>
      <trkpt lat="36.89725" lon="138.10849">
        <ele>2045.867263496551</ele>
      </trkpt>
      <trkpt lat="36.897022" lon="138.108446">
        <ele>2055.6530302626084</ele>
      </trkpt>
      <trkpt lat="36.896678" lon="138.108476">
        <ele>2071.865994091019</ele>
      </trkpt>
      <trkpt lat="36.896592" lon="138.108495">
        <ele>2076.14744874665</ele>
      </trkpt>
      <trkpt lat="36.896409" lon="138.108664">
        <ele>2086.341575695053</ele>
      </trkpt>
      <trkpt lat="36.896297" lon="138.108694">
        <ele>2091.843234522175</ele>
      </trkpt>
      <trkpt lat="36.896145" lon="138.108824">
        <ele>2101.0630004481463</ele>
      </trkpt>
      <trkpt lat="36.896029" lon="138.108888">
        <ele>2107.4154573927503</ele>
      </trkpt>
      <trkpt lat="36.895933" lon="138.108963">
        <ele>2112.98551354257</ele>
      </trkpt>
      <trkpt lat="36.895868" lon="138.108997">
        <ele>2116.252463739398</ele>
      </trkpt>
      <trkpt lat="36.895791" lon="138.109018">
        <ele>2119.442102720589</ele>
      </trkpt>
      <trkpt lat="36.895698" lon="138.109156">
        <ele>2126.10720483243</ele>
      </trkpt>
      <trkpt lat="36.895631" lon="138.109218">
        <ele>2130.052241691544</ele>
      </trkpt>
      <trkpt lat="36.895604" lon="138.109288">
        <ele>2133.1050766607295</ele>
      </trkpt>
      <trkpt lat="36.895452" lon="138.109553">
        <ele>2147.207351168282</ele>
      </trkpt>
      <trkpt lat="36.895396" lon="138.109576">
        <ele>2149.764636537382</ele>
      </trkpt>
      <trkpt lat="36.895341" lon="138.109729">
        <ele>2157.395586631877</ele>
      </trkpt>
      <trkpt lat="36.895224" lon="138.109875">
        <ele>2166.741319985824</ele>
      </trkpt>
      <trkpt lat="36.895165" lon="138.109917">
        <ele>2170.1156000916562</ele>
      </trkpt>
      <trkpt lat="36.89506" lon="138.110032">
        <ele>2178.028996826675</ele>
      </trkpt>
      <trkpt lat="36.894929" lon="138.110106">
        <ele>2184.981351625897</ele>
      </trkpt>
      <trkpt lat="36.894877" lon="138.110154">
        <ele>2188.5458162067935</ele>
      </trkpt>
      <trkpt lat="36.894834" lon="138.11022">
        <ele>2192.84688988899</ele>
      </trkpt>
      <trkpt lat="36.894757" lon="138.110453">
        <ele>2206.1956409084296</ele>
      </trkpt>
      <trkpt lat="36.894645" lon="138.110662">
        <ele>2220.0034619301255</ele>
      </trkpt>
      <trkpt lat="36.894629" lon="138.110754">
        <ele>2225.5557766882757</ele>
      </trkpt>
      <trkpt lat="36.894628" lon="138.11097">
        <ele>2238.418285256779</ele>
      </trkpt>
      <trkpt lat="36.894615" lon="138.111046">
        <ele>2243.141191030313</ele>
      </trkpt>
      <trkpt lat="36.89462" lon="138.111305">
        <ele>2258.769194577489</ele>
      </trkpt>
      <trkpt lat="36.894615" lon="138.111389">
        <ele>2263.6834316057784</ele>
      </trkpt>
      <trkpt lat="36.894582" lon="138.111625">
        <ele>2276.6640961863022</ele>
      </trkpt>
      <trkpt lat="36.894511" lon="138.111704">
        <ele>2280.620433137657</ele>
      </trkpt>
      <trkpt lat="36.894456" lon="138.111741">
        <ele>2282.5950468230535</ele>
      </trkpt>
      <trkpt lat="36.89441" lon="138.111801">
        <ele>2285.968852906406</ele>
      </trkpt>
      <trkpt lat="36.894347" lon="138.111982">
        <ele>2296.574840257047</ele>
      </trkpt>
      <trkpt lat="36.894308" lon="138.112055">
        <ele>2301.657192261645</ele>
      </trkpt>
      <trkpt lat="36.894265" lon="138.112073">
        <ele>2303.2175290761006</ele>
      </trkpt>
      <trkpt lat="36.894223" lon="138.112126">
        <ele>2307.058954212386</ele>
      </trkpt>
      <trkpt lat="36.894191" lon="138.112244">
        <ele>2315.5493686192176</ele>
      </trkpt>
      <trkpt lat="36.894128" lon="138.112406">
        <ele>2326.679873319458</ele>
      </trkpt>
      <trkpt lat="36.894094" lon="138.112464">
        <ele>2330.035919115706</ele>
      </trkpt>
      <trkpt lat="36.89398" lon="138.112859">
        <ele>2351.8562659311647</ele>
      </trkpt>
      <trkpt lat="36.893967" lon="138.11296">
        <ele>2357.55417503338</ele>
      </trkpt>
      <trkpt lat="36.893893" lon="138.113319">
        <ele>2376.5272422446633</ele>
      </trkpt>
      <trkpt lat="36.893755" lon="138.113369">
        <ele>2378.878368896001</ele>
      </trkpt>
      <trkpt lat="36.893721" lon="138.1134">
        <ele>2381.0490377006126</ele>
      </trkpt>
      <trkpt lat="36.893658" lon="138.113413">
        <ele>2382.803777157888</ele>
      </trkpt>
      <trkpt lat="36.893522" lon="138.113574">
        <ele>2394.9730420533</ele>
      </trkpt>
      <trkpt lat="36.89342" lon="138.113644">
        <ele>2401.195454793452</ele>
      </trkpt>
      <trkpt lat="36.893283" lon="138.113663">
        <ele>2405.7751727827017</ele>
      </trkpt>
      <trkpt lat="36.893232" lon="138.113645">
        <ele>2406.74314043516</ele>
      </trkpt>
      <trkpt lat="36.893197" lon="138.113601">
        <ele>2407.237852643532</ele>
      </trkpt>
      <trkpt lat="36.893071" lon="138.113488">
        <ele>2411.918852770435</ele>
      </trkpt>
      <trkpt lat="36.89298" lon="138.113373">
        <ele>2418.3590097995084</ele>
      </trkpt>
      <trkpt lat="36.892853" lon="138.113255">
        <ele>2428.8655111076964</ele>
      </trkpt>
      <trkpt lat="36.892564" lon="138.113081">
        <ele>2441.243627268164</ele>
      </trkpt>
      <trkpt lat="36.892353" lon="138.112882">
        <ele>2442.9958842002843</ele>
      </trkpt>
      <trkpt lat="36.892158" lon="138.112769">
        <ele>2442.268921154147</ele>
      </trkpt>
      <trkpt lat="36.892086" lon="138.112792">
        <ele>2441.902363076389</ele>
      </trkpt>
      <trkpt lat="36.892056" lon="138.112861">
        <ele>2441.9625430170217</ele>
      </trkpt>
      <trkpt lat="36.891898" lon="138.11306">
        <ele>2440.993210016213</ele>
      </trkpt>
      <trkpt lat="36.891825" lon="138.113115">
        <ele>2440.818667461985</ele>
      </trkpt>
      <trkpt lat="36.891801" lon="138.113148">
        <ele>2440.9041585611653</ele>
      </trkpt>
      <trkpt lat="36.891673" lon="138.113268">
        <ele>2441.1547804137444</ele>
      </trkpt>
      <trkpt lat="36.89171" lon="138.113271">
        <ele>2441.073443847121</ele>
      </trkpt>
      <trkpt lat="36.891493" lon="138.113441">
        <ele>2439.425887418426</ele>
      </trkpt>
      <trkpt lat="36.891415" lon="138.113437">
        <ele>2439.0668508835365</ele>
      </trkpt>
      <trkpt lat="36.891415" lon="138.113437">
        <ele>2439.0668508835365</ele>
      </trkpt>
      <trkpt lat="36.891493" lon="138.113441">
        <ele>2439.425887418426</ele>
      </trkpt>
      <trkpt lat="36.89171" lon="138.113271">
        <ele>2441.073443847121</ele>
      </trkpt>
      <trkpt lat="36.891673" lon="138.113268">
        <ele>2441.1547804137444</ele>
      </trkpt>
      <trkpt lat="36.891801" lon="138.113148">
        <ele>2440.9041585611653</ele>
      </trkpt>
      <trkpt lat="36.891825" lon="138.113115">
        <ele>2440.818667461985</ele>
      </trkpt>
      <trkpt lat="36.891898" lon="138.11306">
        <ele>2440.993210016213</ele>
      </trkpt>
      <trkpt lat="36.892056" lon="138.112861">
        <ele>2441.9625430170217</ele>
      </trkpt>
      <trkpt lat="36.892086" lon="138.112792">
        <ele>2441.902363076389</ele>
      </trkpt>
      <trkpt lat="36.892158" lon="138.112769">
        <ele>2442.268921154147</ele>
      </trkpt>
      <trkpt lat="36.892353" lon="138.112882">
        <ele>2442.9958842002843</ele>
      </trkpt>
      <trkpt lat="36.892564" lon="138.113081">
        <ele>2441.243627268164</ele>
      </trkpt>
      <trkpt lat="36.892853" lon="138.113255">
        <ele>2428.8655111076964</ele>
      </trkpt>
      <trkpt lat="36.89298" lon="138.113373">
        <ele>2418.3590097995084</ele>
      </trkpt>
      <trkpt lat="36.893071" lon="138.113488">
        <ele>2411.918852770435</ele>
      </trkpt>
      <trkpt lat="36.893197" lon="138.113601">
        <ele>2407.237852643532</ele>
      </trkpt>
      <trkpt lat="36.893232" lon="138.113645">
        <ele>2406.74314043516</ele>
      </trkpt>
      <trkpt lat="36.893283" lon="138.113663">
        <ele>2405.7751727827017</ele>
      </trkpt>
      <trkpt lat="36.89342" lon="138.113644">
        <ele>2401.195454793452</ele>
      </trkpt>
      <trkpt lat="36.893522" lon="138.113574">
        <ele>2394.9730420533</ele>
      </trkpt>
      <trkpt lat="36.893658" lon="138.113413">
        <ele>2382.803777157888</ele>
      </trkpt>
      <trkpt lat="36.893721" lon="138.1134">
        <ele>2381.0490377006126</ele>
      </trkpt>
      <trkpt lat="36.893755" lon="138.113369">
        <ele>2378.878368896001</ele>
      </trkpt>
      <trkpt lat="36.893893" lon="138.113319">
        <ele>2376.5272422446633</ele>
      </trkpt>
      <trkpt lat="36.893967" lon="138.11296">
        <ele>2357.55417503338</ele>
      </trkpt>
      <trkpt lat="36.89398" lon="138.112859">
        <ele>2351.8562659311647</ele>
      </trkpt>
      <trkpt lat="36.894094" lon="138.112464">
        <ele>2330.035919115706</ele>
      </trkpt>
      <trkpt lat="36.894128" lon="138.112406">
        <ele>2326.679873319458</ele>
      </trkpt>
      <trkpt lat="36.894191" lon="138.112244">
        <ele>2315.5493686192176</ele>
      </trkpt>
      <trkpt lat="36.894223" lon="138.112126">
        <ele>2307.058954212386</ele>
      </trkpt>
      <trkpt lat="36.894265" lon="138.112073">
        <ele>2303.2175290761006</ele>
      </trkpt>
      <trkpt lat="36.894308" lon="138.112055">
        <ele>2301.657192261645</ele>
      </trkpt>
      <trkpt lat="36.894347" lon="138.111982">
        <ele>2296.574840257047</ele>
      </trkpt>
      <trkpt lat="36.89441" lon="138.111801">
        <ele>2285.968852906406</ele>
      </trkpt>
      <trkpt lat="36.894456" lon="138.111741">
        <ele>2282.5950468230535</ele>
      </trkpt>
      <trkpt lat="36.894511" lon="138.111704">
        <ele>2280.620433137657</ele>
      </trkpt>
      <trkpt lat="36.894582" lon="138.111625">
        <ele>2276.6640961863022</ele>
      </trkpt>
      <trkpt lat="36.894615" lon="138.111389">
        <ele>2263.6834316057784</ele>
      </trkpt>
      <trkpt lat="36.89462" lon="138.111305">
        <ele>2258.769194577489</ele>
      </trkpt>
      <trkpt lat="36.894615" lon="138.111046">
        <ele>2243.141191030313</ele>
      </trkpt>
      <trkpt lat="36.894628" lon="138.11097">
        <ele>2238.418285256779</ele>
      </trkpt>
      <trkpt lat="36.894629" lon="138.110754">
        <ele>2225.5557766882757</ele>
      </trkpt>
      <trkpt lat="36.894645" lon="138.110662">
        <ele>2220.0034619301255</ele>
      </trkpt>
      <trkpt lat="36.894757" lon="138.110453">
        <ele>2206.1956409084296</ele>
      </trkpt>
      <trkpt lat="36.894834" lon="138.11022">
        <ele>2192.84688988899</ele>
      </trkpt>
      <trkpt lat="36.894877" lon="138.110154">
        <ele>2188.5458162067935</ele>
      </trkpt>
      <trkpt lat="36.894929" lon="138.110106">
        <ele>2184.981351625897</ele>
      </trkpt>
      <trkpt lat="36.89506" lon="138.110032">
        <ele>2178.028996826675</ele>
      </trkpt>
      <trkpt lat="36.895165" lon="138.109917">
        <ele>2170.1156000916562</ele>
      </trkpt>
      <trkpt lat="36.895224" lon="138.109875">
        <ele>2166.741319985824</ele>
      </trkpt>
      <trkpt lat="36.895341" lon="138.109729">
        <ele>2157.395586631877</ele>
      </trkpt>
      <trkpt lat="36.895396" lon="138.109576">
        <ele>2149.764636537382</ele>
      </trkpt>
      <trkpt lat="36.895452" lon="138.109553">
        <ele>2147.207351168282</ele>
      </trkpt>
      <trkpt lat="36.895604" lon="138.109288">
        <ele>2133.1050766607295</ele>
      </trkpt>
      <trkpt lat="36.895631" lon="138.109218">
        <ele>2130.052241691544</ele>
      </trkpt>
      <trkpt lat="36.895698" lon="138.109156">
        <ele>2126.10720483243</ele>
      </trkpt>
      <trkpt lat="36.895791" lon="138.109018">
        <ele>2119.442102720589</ele>
      </trkpt>
      <trkpt lat="36.895868" lon="138.108997">
        <ele>2116.252463739398</ele>
      </trkpt>
      <trkpt lat="36.895933" lon="138.108963">
        <ele>2112.98551354257</ele>
      </trkpt>
      <trkpt lat="36.896029" lon="138.108888">
        <ele>2107.4154573927503</ele>
      </trkpt>
      <trkpt lat="36.896145" lon="138.108824">
        <ele>2101.0630004481463</ele>
      </trkpt>
      <trkpt lat="36.896297" lon="138.108694">
        <ele>2091.843234522175</ele>
      </trkpt>
      <trkpt lat="36.896409" lon="138.108664">
        <ele>2086.341575695053</ele>
      </trkpt>
      <trkpt lat="36.896592" lon="138.108495">
        <ele>2076.14744874665</ele>
      </trkpt>
      <trkpt lat="36.896678" lon="138.108476">
        <ele>2071.865994091019</ele>
      </trkpt>
      <trkpt lat="36.897022" lon="138.108446">
        <ele>2055.6530302626084</ele>
      </trkpt>
      <trkpt lat="36.89725" lon="138.10849">
        <ele>2045.867263496551</ele>
      </trkpt>
      <trkpt lat="36.897378" lon="138.108495">
        <ele>2040.7449054870315</ele>
      </trkpt>
      <trkpt lat="36.897982" lon="138.108482">
        <ele>2018.564986719833</ele>
      </trkpt>
      <trkpt lat="36.898158" lon="138.108503">
        <ele>2013.8176338546677</ele>
      </trkpt>
      <trkpt lat="36.898318" lon="138.108544">
        <ele>2009.798300513208</ele>
      </trkpt>
      <trkpt lat="36.898466" lon="138.108608">
        <ele>2005.161166003108</ele>
      </trkpt>
      <trkpt lat="36.899056" lon="138.108613">
        <ele>1992.488758301516</ele>
      </trkpt>
      <trkpt lat="36.899136" lon="138.108589">
        <ele>1991.237244220963</ele>
      </trkpt>
      <trkpt lat="36.899215" lon="138.108546">
        <ele>1990.3201250988097</ele>
      </trkpt>
      <trkpt lat="36.899376" lon="138.108377">
        <ele>1990.5435098217863</ele>
      </trkpt>
      <trkpt lat="36.89946" lon="138.108329">
        <ele>1989.4138737802386</ele>
      </trkpt>
      <trkpt lat="36.899569" lon="138.108329">
        <ele>1986.321068919774</ele>
      </trkpt>
      <trkpt lat="36.899702" lon="138.108434">
        <ele>1980.6095495167497</ele>
      </trkpt>
      <trkpt lat="36.899788" lon="138.10845">
        <ele>1978.6186107325846</ele>
      </trkpt>
      <trkpt lat="36.899906" lon="138.108517">
        <ele>1975.8355448866037</ele>
      </trkpt>
      <trkpt lat="36.900002" lon="138.108538">
        <ele>1974.0349462838858</ele>
      </trkpt>
      <trkpt lat="36.90011" lon="138.108589">
        <ele>1971.7899306462082</ele>
      </trkpt>
      <trkpt lat="36.900384" lon="138.108592">
        <ele>1965.4860100636422</ele>
      </trkpt>
      <trkpt lat="36.900446" lon="138.108694">
        <ele>1963.6049214467916</ele>
      </trkpt>
      <trkpt lat="36.900523" lon="138.108895">
        <ele>1960.8855500913978</ele>
      </trkpt>
      <trkpt lat="36.900607" lon="138.10905">
        <ele>1958.478189197416</ele>
      </trkpt>
      <trkpt lat="36.900671" lon="138.109254">
        <ele>1957.0218531704274</ele>
      </trkpt>
      <trkpt lat="36.900712" lon="138.109313">
        <ele>1956.42058674547</ele>
      </trkpt>
      <trkpt lat="36.900843" lon="138.109584">
        <ele>1955.590768411619</ele>
      </trkpt>
      <trkpt lat="36.901092" lon="138.109804">
        <ele>1952.6095496646496</ele>
      </trkpt>
      <trkpt lat="36.90121" lon="138.109965">
        <ele>1951.4912882554913</ele>
      </trkpt>
      <trkpt lat="36.901459" lon="138.110228">
        <ele>1949.5678987734827</ele>
      </trkpt>
      <trkpt lat="36.901623" lon="138.110675">
        <ele>1948.1785233912983</ele>
      </trkpt>
      <trkpt lat="36.901647" lon="138.110743">
        <ele>1947.9970084986335</ele>
      </trkpt>
      <trkpt lat="36.901722" lon="138.110826">
        <ele>1947.1624768308839</ele>
      </trkpt>
      <trkpt lat="36.901913" lon="138.110853">
        <ele>1945.5018914519821</ele>
      </trkpt>
      <trkpt lat="36.902064" lon="138.111108">
        <ele>1944.7132632506377</ele>
      </trkpt>
      <trkpt lat="36.902126" lon="138.111244">
        <ele>1944.4719193241235</ele>
      </trkpt>
      <trkpt lat="36.90211" lon="138.111336">
        <ele>1944.5153503537656</ele>
      </trkpt>
      <trkpt lat="36.90211" lon="138.111493">
        <ele>1944.5122805240424</ele>
      </trkpt>
      <trkpt lat="36.902062" lon="138.111726">
        <ele>1945.5864631769025</ele>
      </trkpt>
      <trkpt lat="36.901995" lon="138.111839">
        <ele>1947.321298442479</ele>
      </trkpt>
      <trkpt lat="36.901964" lon="138.112134">
        <ele>1950.1121554140013</ele>
      </trkpt>
      <trkpt lat="36.901962" lon="138.112245">
        <ele>1950.408811490083</ele>
      </trkpt>
      <trkpt lat="36.901944" lon="138.112363">
        <ele>1950.8865588039532</ele>
      </trkpt>
      <trkpt lat="36.901984" lon="138.112576">
        <ele>1949.3158620120628</ele>
      </trkpt>
      <trkpt lat="36.90208" lon="138.112867">
        <ele>1945.9641890009766</ele>
      </trkpt>
      <trkpt lat="36.902201" lon="138.113031">
        <ele>1942.9520169192726</ele>
      </trkpt>
      <trkpt lat="36.90234" lon="138.113292">
        <ele>1938.8714984322858</ele>
      </trkpt>
      <trkpt lat="36.90254" lon="138.11357">
        <ele>1930.968486661911</ele>
      </trkpt>
      <trkpt lat="36.902737" lon="138.113809">
        <ele>1924.8230996433629</ele>
      </trkpt>
      <trkpt lat="36.902973" lon="138.114055">
        <ele>1916.9358528809153</ele>
      </trkpt>
      <trkpt lat="36.903125" lon="138.114173">
        <ele>1911.696733796573</ele>
      </trkpt>
      <trkpt lat="36.903661" lon="138.114479">
        <ele>1898.0615372261104</ele>
      </trkpt>
      <trkpt lat="36.903938" lon="138.11449">
        <ele>1895.153211802478</ele>
      </trkpt>
      <trkpt lat="36.903988" lon="138.114527">
        <ele>1893.4392425923143</ele>
      </trkpt>
      <trkpt lat="36.904035" lon="138.114632">
        <ele>1889.3686175137252</ele>
      </trkpt>
      <trkpt lat="36.904035" lon="138.114707">
        <ele>1886.8640476340618</ele>
      </trkpt>
      <trkpt lat="36.90411" lon="138.114891">
        <ele>1881.0628939289875</ele>
      </trkpt>
      <trkpt lat="36.904205" lon="138.114966">
        <ele>1878.7365112224709</ele>
      </trkpt>
      <trkpt lat="36.904421" lon="138.115037">
        <ele>1877.439306373385</ele>
      </trkpt>
      <trkpt lat="36.904563" lon="138.115066">
        <ele>1877.152789621195</ele>
      </trkpt>
      <trkpt lat="36.90476" lon="138.115177">
        <ele>1874.027449214622</ele>
      </trkpt>
      <trkpt lat="36.904871" lon="138.115299">
        <ele>1870.1078145758054</ele>
      </trkpt>
      <trkpt lat="36.905042" lon="138.115574">
        <ele>1861.1475128325974</ele>
      </trkpt>
      <trkpt lat="36.905088" lon="138.115636">
        <ele>1859.187423370779</ele>
      </trkpt>
      <trkpt lat="36.905236" lon="138.115739">
        <ele>1856.2582882574093</ele>
      </trkpt>
      <trkpt lat="36.905392" lon="138.115953">
        <ele>1850.7276603706655</ele>
      </trkpt>
      <trkpt lat="36.905485" lon="138.116045">
        <ele>1848.735041170979</ele>
      </trkpt>
      <trkpt lat="36.906353" lon="138.116763">
        <ele>1831.412272235959</ele>
      </trkpt>
      <trkpt lat="36.90657" lon="138.116887">
        <ele>1828.4358357175488</ele>
      </trkpt>
      <trkpt lat="36.906651" lon="138.117033">
        <ele>1825.918136812654</ele>
      </trkpt>
      <trkpt lat="36.906681" lon="138.117196">
        <ele>1823.6920802452603</ele>
      </trkpt>
      <trkpt lat="36.906669" lon="138.117269">
        <ele>1822.389157540817</ele>
      </trkpt>
      <trkpt lat="36.906602" lon="138.11745">
        <ele>1818.181188829476</ele>
      </trkpt>
      <trkpt lat="36.906586" lon="138.117542">
        <ele>1815.3743098612879</ele>
      </trkpt>
      <trkpt lat="36.90677" lon="138.117887">
        <ele>1805.71834585834</ele>
      </trkpt>
      <trkpt lat="36.906828" lon="138.117945">
        <ele>1804.4900696966702</ele>
      </trkpt>
      <trkpt lat="36.906909" lon="138.117994">
        <ele>1803.502798113064</ele>
      </trkpt>
      <trkpt lat="36.906923" lon="138.118022">
        <ele>1802.6770884332748</ele>
      </trkpt>
      <trkpt lat="36.906904" lon="138.118184">
        <ele>1797.6383332761607</ele>
      </trkpt>
      <trkpt lat="36.906909" lon="138.118241">
        <ele>1795.8724968066163</ele>
      </trkpt>
      <trkpt lat="36.906964" lon="138.118349">
        <ele>1792.2687246826483</ele>
      </trkpt>
      <trkpt lat="36.907188" lon="138.118488">
        <ele>1787.8119567492058</ele>
      </trkpt>
      <trkpt lat="36.90743" lon="138.118585">
        <ele>1785.5056550475504</ele>
      </trkpt>
      <trkpt lat="36.907523" lon="138.118665">
        <ele>1784.054033122786</ele>
      </trkpt>
      <trkpt lat="36.90756" lon="138.118727">
        <ele>1782.8806223500533</ele>
      </trkpt>
      <trkpt lat="36.907675" lon="138.119011">
        <ele>1778.4772782781206</ele>
      </trkpt>
      <trkpt lat="36.907827" lon="138.119185">
        <ele>1777.0497992756514</ele>
      </trkpt>
      <trkpt lat="36.907883" lon="138.119231">
        <ele>1776.5822001564475</ele>
      </trkpt>
      <trkpt lat="36.907948" lon="138.119237">
        <ele>1777.1544954287656</ele>
      </trkpt>
      <trkpt lat="36.908086" lon="138.119313">
        <ele>1776.5613569611821</ele>
      </trkpt>
      <trkpt lat="36.908323" lon="138.11938">
        <ele>1777.7763565448422</ele>
      </trkpt>
      <trkpt lat="36.908402" lon="138.119436">
        <ele>1777.56492848117</ele>
      </trkpt>
      <trkpt lat="36.908697" lon="138.1198">
        <ele>1778.2736075018897</ele>
      </trkpt>
      <trkpt lat="36.90878" lon="138.119957">
        <ele>1777.728375246932</ele>
      </trkpt>
      <trkpt lat="36.908829" lon="138.120152">
        <ele>1775.923188127991</ele>
      </trkpt>
      <trkpt lat="36.90883" lon="138.120309">
        <ele>1774.0225441368304</ele>
      </trkpt>
      <trkpt lat="36.908865" lon="138.120503">
        <ele>1772.5755872435097</ele>
      </trkpt>
      <trkpt lat="36.908872" lon="138.120826">
        <ele>1768.1884064179042</ele>
      </trkpt>
      <trkpt lat="36.90884" lon="138.120914">
        <ele>1765.6167914753908</ele>
      </trkpt>
      <trkpt lat="36.908714" lon="138.121066">
        <ele>1759.1000382216207</ele>
      </trkpt>
      <trkpt lat="36.908688" lon="138.121195">
        <ele>1754.7970865745024</ele>
      </trkpt>
      <trkpt lat="36.908683" lon="138.121339">
        <ele>1750.239928267008</ele>
      </trkpt>
      <trkpt lat="36.908635" lon="138.121395">
        <ele>1747.3756647333964</ele>
      </trkpt>
      <trkpt lat="36.908539" lon="138.121472">
        <ele>1743.0871847276585</ele>
      </trkpt>
      <trkpt lat="36.908491" lon="138.121575">
        <ele>1738.6540229334178</ele>
      </trkpt>
      <trkpt lat="36.908373" lon="138.121715">
        <ele>1731.8207104423207</ele>
      </trkpt>
      <trkpt lat="36.908293" lon="138.12177">
        <ele>1728.5954122435396</ele>
      </trkpt>
      <trkpt lat="36.908159" lon="138.121904">
        <ele>1722.3016970179387</ele>
      </trkpt>
      <trkpt lat="36.908074" lon="138.122073">
        <ele>1716.8487105264858</ele>
      </trkpt>
      <trkpt lat="36.908052" lon="138.122264">
        <ele>1712.994093651496</ele>
      </trkpt>
      <trkpt lat="36.907964" lon="138.122346">
        <ele>1710.2307054117332</ele>
      </trkpt>
      <trkpt lat="36.907908" lon="138.122444">
        <ele>1708.3678458829118</ele>
      </trkpt>
      <trkpt lat="36.907797" lon="138.122605">
        <ele>1706.7242952015145</ele>
      </trkpt>
      <trkpt lat="36.907529" lon="138.122845">
        <ele>1706.5954083792753</ele>
      </trkpt>
      <trkpt lat="36.90744" lon="138.122878">
        <ele>1704.7463465797955</ele>
      </trkpt>
      <trkpt lat="36.90707" lon="138.123174">
        <ele>1696.234445540215</ele>
      </trkpt>
      <trkpt lat="36.906988" lon="138.123295">
        <ele>1694.2933460114582</ele>
      </trkpt>
      <trkpt lat="36.906941" lon="138.123424">
        <ele>1692.945763856936</ele>
      </trkpt>
      <trkpt lat="36.906909" lon="138.123725">
        <ele>1691.9476912227374</ele>
      </trkpt>
      <trkpt lat="36.906811" lon="138.123993">
        <ele>1684.1995273907316</ele>
      </trkpt>
      <trkpt lat="36.906811" lon="138.124147">
        <ele>1682.2097154585574</ele>
      </trkpt>
      <trkpt lat="36.906871" lon="138.124254">
        <ele>1682.054544164499</ele>
      </trkpt>
      <trkpt lat="36.907002" lon="138.124405">
        <ele>1680.6064850722425</ele>
      </trkpt>
      <trkpt lat="36.90728" lon="138.124579">
        <ele>1679.576370128169</ele>
      </trkpt>
      <trkpt lat="36.907465" lon="138.124775">
        <ele>1673.496418539838</ele>
      </trkpt>
      <trkpt lat="36.9076" lon="138.124901">
        <ele>1671.495565206465</ele>
      </trkpt>
      <trkpt lat="36.907652" lon="138.12497">
        <ele>1669.8921203095606</ele>
      </trkpt>
      <trkpt lat="36.907708" lon="138.125096">
        <ele>1665.9076551452567</ele>
      </trkpt>
      <trkpt lat="36.907724" lon="138.125212">
        <ele>1661.3106029687733</ele>
      </trkpt>
      <trkpt lat="36.907832" lon="138.12528">
        <ele>1660.3079115459914</ele>
      </trkpt>
      <trkpt lat="36.907934" lon="138.125392">
        <ele>1657.5449637887195</ele>
      </trkpt>
      <trkpt lat="36.907938" lon="138.125472">
        <ele>1654.2079219502025</ele>
      </trkpt>
      <trkpt lat="36.907982" lon="138.12562">
        <ele>1649.3275363256234</ele>
      </trkpt>
      <trkpt lat="36.90804" lon="138.125739">
        <ele>1645.9834217419389</ele>
      </trkpt>
      <trkpt lat="36.908189" lon="138.125847">
        <ele>1644.6194291753168</ele>
      </trkpt>
      <trkpt lat="36.908282" lon="138.125935">
        <ele>1643.295572469303</ele>
      </trkpt>
      <trkpt lat="36.90829" lon="138.126054">
        <ele>1639.0521174162407</ele>
      </trkpt>
      <trkpt lat="36.908342" lon="138.126219">
        <ele>1636.1624656771385</ele>
      </trkpt>
      <trkpt lat="36.908372" lon="138.126485">
        <ele>1631.028045526706</ele>
      </trkpt>
      <trkpt lat="36.90836" lon="138.126754">
        <ele>1624.9435621624523</ele>
      </trkpt>
      <trkpt lat="36.908238" lon="138.127439">
        <ele>1610.1518527245623</ele>
      </trkpt>
      <trkpt lat="36.908177" lon="138.127647">
        <ele>1604.6451948331376</ele>
      </trkpt>
      <trkpt lat="36.908099" lon="138.12799">
        <ele>1598.879949694873</ele>
      </trkpt>
      <trkpt lat="36.908038" lon="138.128055">
        <ele>1595.5462566829765</ele>
      </trkpt>
      <trkpt lat="36.9079" lon="138.128077">
        <ele>1587.9113146521388</ele>
      </trkpt>
      <trkpt lat="36.907778" lon="138.128082">
        <ele>1581.3736234558323</ele>
      </trkpt>
      <trkpt lat="36.90767" lon="138.12816">
        <ele>1576.1026309575655</ele>
      </trkpt>
      <trkpt lat="36.907631" lon="138.128316">
        <ele>1574.3555192030972</ele>
      </trkpt>
      <trkpt lat="36.907571" lon="138.128676">
        <ele>1569.086631677952</ele>
      </trkpt>
      <trkpt lat="36.907519" lon="138.128841">
        <ele>1564.6232983373507</ele>
      </trkpt>
      <trkpt lat="36.907375" lon="138.129384">
        <ele>1546.917679010146</ele>
      </trkpt>
      <trkpt lat="36.907332" lon="138.129509">
        <ele>1541.6135944221849</ele>
      </trkpt>
      <trkpt lat="36.90728" lon="138.1297">
        <ele>1534.5879712492228</ele>
      </trkpt>
      <trkpt lat="36.907089" lon="138.130039">
        <ele>1519.1604446143022</ele>
      </trkpt>
      <trkpt lat="36.906859" lon="138.130412">
        <ele>1501.7543823004476</ele>
      </trkpt>
      <trkpt lat="36.906768" lon="138.130612">
        <ele>1493.2887316326983</ele>
      </trkpt>
      <trkpt lat="36.906705" lon="138.130776">
        <ele>1486.2416388272213</ele>
      </trkpt>
      <trkpt lat="36.9065" lon="138.130767">
        <ele>1477.9243894318643</ele>
      </trkpt>
      <trkpt lat="36.906369" lon="138.130787">
        <ele>1471.9110556717333</ele>
      </trkpt>
      <trkpt lat="36.906239" lon="138.13087">
        <ele>1463.8336406935562</ele>
      </trkpt>
      <trkpt lat="36.906115" lon="138.130904">
        <ele>1455.9746600575206</ele>
      </trkpt>
      <trkpt lat="36.905994" lon="138.131031">
        <ele>1444.7897565277929</ele>
      </trkpt>
      <trkpt lat="36.905924" lon="138.131074">
        <ele>1438.7042200904461</ele>
      </trkpt>
      <trkpt lat="36.905853" lon="138.131205">
        <ele>1430.7527826622347</ele>
      </trkpt>
      <trkpt lat="36.905753" lon="138.131239">
        <ele>1423.8651972547182</ele>
      </trkpt>
      <trkpt lat="36.905555" lon="138.131462">
        <ele>1407.5329921677312</ele>
      </trkpt>
      <trkpt lat="36.905475" lon="138.131621">
        <ele>1400.7815182132993</ele>
      </trkpt>
      <trkpt lat="36.905481" lon="138.131843">
        <ele>1396.737978335553</ele>
      </trkpt>
      <trkpt lat="36.905536" lon="138.131999">
        <ele>1394.350974667544</ele>
      </trkpt>
      <trkpt lat="36.90555" lon="138.132222">
        <ele>1390.4659237273752</ele>
      </trkpt>
      <trkpt lat="36.905583" lon="138.132404">
        <ele>1388.4642183872504</ele>
      </trkpt>
      <trkpt lat="36.905594" lon="138.132513">
        <ele>1387.8034118392325</ele>
      </trkpt>
      <trkpt lat="36.905602" lon="138.132911">
        <ele>1386.1760535930575</ele>
      </trkpt>
      <trkpt lat="36.905629" lon="138.133031">
        <ele>1384.3744674971356</ele>
      </trkpt>
      <trkpt lat="36.905632" lon="138.133159">
        <ele>1383.3495599567566</ele>
      </trkpt>
      <trkpt lat="36.905624" lon="138.133224">
        <ele>1382.9559718171595</ele>
      </trkpt>
      <trkpt lat="36.905569" lon="138.13342">
        <ele>1380.318390427278</ele>
      </trkpt>
      <trkpt lat="36.905535" lon="138.133633">
        <ele>1375.7214526277526</ele>
      </trkpt>
      <trkpt lat="36.905271" lon="138.134554">
        <ele>1369.0750957093667</ele>
      </trkpt>
      <trkpt lat="36.905134" lon="138.134953">
        <ele>1369.0772721597195</ele>
      </trkpt>
      <trkpt lat="36.905096" lon="138.135096">
        <ele>1367.8369703714247</ele>
      </trkpt>
      <trkpt lat="36.905075" lon="138.135379">
        <ele>1361.8637839332894</ele>
      </trkpt>
      <trkpt lat="36.905026" lon="138.135496">
        <ele>1361.3513362172575</ele>
      </trkpt>
      <trkpt lat="36.904923" lon="138.13561">
        <ele>1363.0669591633346</ele>
      </trkpt>
      <trkpt lat="36.904688" lon="138.135814">
        <ele>1365.721877823743</ele>
      </trkpt>
      <trkpt lat="36.904593" lon="138.135987">
        <ele>1363.282770101122</ele>
      </trkpt>
      <trkpt lat="36.904391" lon="138.135944">
        <ele>1363.713089167281</ele>
      </trkpt>
      <trkpt lat="36.904292" lon="138.135686">
        <ele>1366.6338118837211</ele>
      </trkpt>
      <trkpt lat="36.90417" lon="138.135607">
        <ele>1366.3972885105309</ele>
      </trkpt>
      <trkpt lat="36.904085" lon="138.135746">
        <ele>1365.4881173128094</ele>
      </trkpt>
      <trkpt lat="36.903985" lon="138.135999">
        <ele>1364.6287665990221</ele>
      </trkpt>
      <trkpt lat="36.903879" lon="138.136113">
        <ele>1366.860491085548</ele>
      </trkpt>
      <trkpt lat="36.903666" lon="138.136443">
        <ele>1366.1859505142556</ele>
      </trkpt>
      <trkpt lat="36.903567" lon="138.136494">
        <ele>1367.3368354383165</ele>
      </trkpt>
      <trkpt lat="36.903522" lon="138.136598">
        <ele>1366.1514863435468</ele>
      </trkpt>
      <trkpt lat="36.90353" lon="138.136723">
        <ele>1363.8388294436945</ele>
      </trkpt>
      <trkpt lat="36.903462" lon="138.13693">
        <ele>1360.9047070275806</ele>
      </trkpt>
      <trkpt lat="36.903351" lon="138.137066">
        <ele>1357.5914182562212</ele>
      </trkpt>
      <trkpt lat="36.903226" lon="138.137117">
        <ele>1353.1820709390647</ele>
      </trkpt>
      <trkpt lat="36.903117" lon="138.136972">
        <ele>1353.0140283471442</ele>
      </trkpt>
      <trkpt lat="36.902967" lon="138.136895">
        <ele>1349.941044119047</ele>
      </trkpt>
      <trkpt lat="36.902882" lon="138.136925">
        <ele>1346.9057825772406</ele>
      </trkpt>
      <trkpt lat="36.902757" lon="138.137002">
        <ele>1344.3922565327211</ele>
      </trkpt>
      <trkpt lat="36.902636" lon="138.137336">
        <ele>1340.30999888517</ele>
      </trkpt>
      <trkpt lat="36.902632" lon="138.137874">
        <ele>1328.0440557933068</ele>
      </trkpt>
      <trkpt lat="36.902621" lon="138.137991">
        <ele>1325.2215027979757</ele>
      </trkpt>
      <trkpt lat="36.902552" lon="138.138072">
        <ele>1323.4892666949177</ele>
      </trkpt>
      <trkpt lat="36.902468" lon="138.138138">
        <ele>1321.569352656376</ele>
      </trkpt>
      <trkpt lat="36.90248" lon="138.138249">
        <ele>1317.7728874942036</ele>
      </trkpt>
      <trkpt lat="36.902462" lon="138.138356">
        <ele>1313.2672219620101</ele>
      </trkpt>
      <trkpt lat="36.902409" lon="138.138407">
        <ele>1310.2433450480592</ele>
      </trkpt>
      <trkpt lat="36.90205" lon="138.138491">
        <ele>1291.4301716735242</ele>
      </trkpt>
      <trkpt lat="36.902033" lon="138.138542">
        <ele>1286.7193577030584</ele>
      </trkpt>
      <trkpt lat="36.90204" lon="138.138684">
        <ele>1275.2934790714069</ele>
      </trkpt>
      <trkpt lat="36.902092" lon="138.138804">
        <ele>1267.0951245485658</ele>
      </trkpt>
      <trkpt lat="36.90255" lon="138.138942">
        <ele>1273.1780173868176</ele>
      </trkpt>
      <trkpt lat="36.902687" lon="138.13902">
        <ele>1267.7065321201633</ele>
      </trkpt>
      <trkpt lat="36.902756" lon="138.139071">
        <ele>1262.6707663807524</ele>
      </trkpt>
      <trkpt lat="36.902847" lon="138.139092">
        <ele>1259.5565484325464</ele>
      </trkpt>
      <trkpt lat="36.902924" lon="138.139142">
        <ele>1252.374944272486</ele>
      </trkpt>
      <trkpt lat="36.902936" lon="138.139312">
        <ele>1234.1386921282694</ele>
      </trkpt>
      <trkpt lat="36.90289" lon="138.139424">
        <ele>1225.9631705379622</ele>
      </trkpt>
      <trkpt lat="36.902703" lon="138.139546">
        <ele>1223.1387003572895</ele>
      </trkpt>
      <trkpt lat="36.902536" lon="138.139637">
        <ele>1220.252197396247</ele>
      </trkpt>
      <trkpt lat="36.902362" lon="138.139764">
        <ele>1212.1249882830766</ele>
      </trkpt>
      <trkpt lat="36.902317" lon="138.139872">
        <ele>1205.479589591921</ele>
      </trkpt>
      <trkpt lat="36.902379" lon="138.139976">
        <ele>1202.8934221005075</ele>
      </trkpt>
      <trkpt lat="36.902426" lon="138.140075">
        <ele>1199.0820205663335</ele>
      </trkpt>
      <trkpt lat="36.902497" lon="138.140132">
        <ele>1197.1974197912966</ele>
      </trkpt>
      <trkpt lat="36.902648" lon="138.140232">
        <ele>1190.634501719256</ele>
      </trkpt>
      <trkpt lat="36.9027" lon="138.140292">
        <ele>1186.4516726619443</ele>
      </trkpt>
      <trkpt lat="36.902889" lon="138.140289">
        <ele>1183.4743073305565</ele>
      </trkpt>
      <trkpt lat="36.90295" lon="138.140271">
        <ele>1183.1921256604146</ele>
      </trkpt>
      <trkpt lat="36.903027" lon="138.140218">
        <ele>1184.2669290567676</ele>
      </trkpt>
      <trkpt lat="36.903125" lon="138.140114">
        <ele>1187.4906948563541</ele>
      </trkpt>
      <trkpt lat="36.903193" lon="138.140088">
        <ele>1187.3771435064573</ele>
      </trkpt>
      <trkpt lat="36.903257" lon="138.140085">
        <ele>1186.4356383322042</ele>
      </trkpt>
      <trkpt lat="36.903251" lon="138.140183">
        <ele>1182.149672578252</ele>
      </trkpt>
      <trkpt lat="36.903225" lon="138.140263">
        <ele>1178.585413681481</ele>
      </trkpt>
      <trkpt lat="36.903245" lon="138.140404">
        <ele>1170.8214167458032</ele>
      </trkpt>
      <trkpt lat="36.903372" lon="138.140468">
        <ele>1164.446089584465</ele>
      </trkpt>
      <trkpt lat="36.903497" lon="138.140483">
        <ele>1162.7745136342855</ele>
      </trkpt>
      <trkpt lat="36.903421" lon="138.140726">
        <ele>1147.9629103508064</ele>
      </trkpt>
      <trkpt lat="36.903397" lon="138.140907">
        <ele>1139.2734511929348</ele>
      </trkpt>
      <trkpt lat="36.903282" lon="138.141162">
        <ele>1133.6391028403225</ele>
      </trkpt>
      <trkpt lat="36.903209" lon="138.141458">
        <ele>1133.9902003743696</ele>
      </trkpt>
      <trkpt lat="36.903207" lon="138.141651">
        <ele>1135.3537534827144</ele>
      </trkpt>
      <trkpt lat="36.903197" lon="138.141729">
        <ele>1137.2204035496256</ele>
      </trkpt>
      <trkpt lat="36.903205" lon="138.141903">
        <ele>1139.5764525179636</ele>
      </trkpt>
      <trkpt lat="36.903225" lon="138.14195">
        <ele>1138.6841313364084</ele>
      </trkpt>
      <trkpt lat="36.903278" lon="138.142033">
        <ele>1135.9186231169433</ele>
      </trkpt>
      <trkpt lat="36.903362" lon="138.14213">
        <ele>1131.2236733945226</ele>
      </trkpt>
      <trkpt lat="36.903394" lon="138.142184">
        <ele>1129.8850982198235</ele>
      </trkpt>
      <trkpt lat="36.903428" lon="138.142263">
        <ele>1128.581650988594</ele>
      </trkpt>
      <trkpt lat="36.903434" lon="138.142318">
        <ele>1129.1233884781411</ele>
      </trkpt>
      <trkpt lat="36.903423" lon="138.142402">
        <ele>1131.7605793188884</ele>
      </trkpt>
      <trkpt lat="36.903399" lon="138.142477">
        <ele>1135.6673310125454</ele>
      </trkpt>
      <trkpt lat="36.903399" lon="138.142528">
        <ele>1136.8359701779773</ele>
      </trkpt>
      <trkpt lat="36.903433" lon="138.142611">
        <ele>1135.4293995673304</ele>
      </trkpt>
      <trkpt lat="36.903437" lon="138.142667">
        <ele>1136.4509969021665</ele>
      </trkpt>
      <trkpt lat="36.903477" lon="138.142803">
        <ele>1135.9608358495411</ele>
      </trkpt>
      <trkpt lat="36.903591" lon="138.143021">
        <ele>1130.1219903766112</ele>
      </trkpt>
      <trkpt lat="36.903607" lon="138.143072">
        <ele>1129.6179265247038</ele>
      </trkpt>
      <trkpt lat="36.903609" lon="138.143168">
        <ele>1131.3222556882386</ele>
      </trkpt>
      <trkpt lat="36.903653" lon="138.143227">
        <ele>1127.6011484066228</ele>
      </trkpt>
      <trkpt lat="36.903673" lon="138.143271">
        <ele>1126.1000891278295</ele>
      </trkpt>
      <trkpt lat="36.903671" lon="138.143338">
        <ele>1126.8760947395585</ele>
      </trkpt>
      <trkpt lat="36.903636" lon="138.143445">
        <ele>1130.859931448696</ele>
      </trkpt>
      <trkpt lat="36.903623" lon="138.143524">
        <ele>1131.8843848580932</ele>
      </trkpt>
      <trkpt lat="36.903592" lon="138.143624">
        <ele>1133.9248059436886</ele>
      </trkpt>
      <trkpt lat="36.903556" lon="138.143674">
        <ele>1136.1041987811811</ele>
      </trkpt>
      <trkpt lat="36.9035" lon="138.14373">
        <ele>1139.0287586429429</ele>
      </trkpt>
      <trkpt lat="36.903401" lon="138.143772">
        <ele>1144.091112336323</ele>
      </trkpt>
      <trkpt lat="36.903253" lon="138.143962">
        <ele>1141.4132550123152</ele>
      </trkpt>
      <trkpt lat="36.903061" lon="138.144122">
        <ele>1137.7560511404909</ele>
      </trkpt>
      <trkpt lat="36.903005" lon="138.144191">
        <ele>1135.0119231416497</ele>
      </trkpt>
      <trkpt lat="36.902904" lon="138.14423">
        <ele>1135.3703852921044</ele>
      </trkpt>
      <trkpt lat="36.902843" lon="138.144241">
        <ele>1136.1610563682927</ele>
      </trkpt>
      <trkpt lat="36.902756" lon="138.144204">
        <ele>1139.605588894769</ele>
      </trkpt>
      <trkpt lat="36.902689" lon="138.144205">
        <ele>1140.3365321480603</ele>
      </trkpt>
      <trkpt lat="36.902659" lon="138.144218">
        <ele>1140.1688400965986</ele>
      </trkpt>
      <trkpt lat="36.902631" lon="138.14425">
        <ele>1139.4241353907275</ele>
      </trkpt>
      <trkpt lat="36.90261" lon="138.144283">
        <ele>1138.6413365768503</ele>
      </trkpt>
      <trkpt lat="36.902599" lon="138.144317">
        <ele>1137.7240563591902</ele>
      </trkpt>
      <trkpt lat="36.902605" lon="138.144429">
        <ele>1133.9512363739054</ele>
      </trkpt>
      <trkpt lat="36.902627" lon="138.144533">
        <ele>1129.5534136641058</ele>
      </trkpt>
      <trkpt lat="36.902645" lon="138.144576">
        <ele>1127.2202488511007</ele>
      </trkpt>
      <trkpt lat="36.902674" lon="138.14461">
        <ele>1124.5998984159048</ele>
      </trkpt>
      <trkpt lat="36.902684" lon="138.144633">
        <ele>1123.1985887292753</ele>
      </trkpt>
      <trkpt lat="36.902684" lon="138.144657">
        <ele>1122.1937560638667</ele>
      </trkpt>
      <trkpt lat="36.902634" lon="138.144689">
        <ele>1123.275094754796</ele>
      </trkpt>
      <trkpt lat="36.902562" lon="138.144695">
        <ele>1126.1380155805768</ele>
      </trkpt>
      <trkpt lat="36.902504" lon="138.144716">
        <ele>1127.5460803648562</ele>
      </trkpt>
      <trkpt lat="36.902474" lon="138.144731">
        <ele>1128.0796936129902</ele>
      </trkpt>
      <trkpt lat="36.902419" lon="138.144793">
        <ele>1127.5370526794327</ele>
      </trkpt>
      <trkpt lat="36.902387" lon="138.144897">
        <ele>1125.2419262596845</ele>
      </trkpt>
      <trkpt lat="36.90239" lon="138.145202">
        <ele>1116.7219556829898</ele>
      </trkpt>
      <trkpt lat="36.902364" lon="138.145261">
        <ele>1116.142664512713</ele>
      </trkpt>
      <trkpt lat="36.902301" lon="138.14536">
        <ele>1115.8165593394108</ele>
      </trkpt>
      <trkpt lat="36.902237" lon="138.145482">
        <ele>1115.0873403455007</ele>
      </trkpt>
    </trkseg>
  </trk>
</gpx>
