<?xml version="1.0" encoding="UTF-8"?>
<gpx creator="https://gpx.studio" version="1.1" xmlns="http://www.topografix.com/GPX/1/1" xmlns:xsi="http://www.w3.org/2001/XMLSchema-instance" xsi:schemaLocation="http://www.topografix.com/GPX/1/1 http://www.topografix.com/GPX/1/1/gpx.xsd http://www.garmin.com/xmlschemas/GpxExtensions/v3 http://www.garmin.com/xmlschemas/GpxExtensionsv3.xsd http://www.garmin.com/xmlschemas/TrackPointExtension/v1 http://www.garmin.com/xmlschemas/TrackPointExtensionv1.xsd http://www.garmin.com/xmlschemas/PowerExtension/v1 http://www.garmin.com/xmlschemas/PowerExtensionv1.xsd http://www.topografix.com/GPX/gpx_style/0/2 http://www.topografix.com/GPX/gpx_style/0/2/gpx_style.xsd" xmlns:gpxtpx="http://www.garmin.com/xmlschemas/TrackPointExtension/v1" xmlns:gpxx="http://www.garmin.com/xmlschemas/GpxExtensions/v3" xmlns:gpxpx="http://www.garmin.com/xmlschemas/PowerExtension/v1" xmlns:gpx_style="http://www.topografix.com/GPX/gpx_style/0/2">
  <metadata>
    <name>杉野沢ロード</name>
    <author>
      <name>gpx.studio</name>
      <link href="https://gpx.studio"/>
    </author>
  </metadata>
  <trk>
    <name>杉野沢ロード</name>
    <extensions>
      <gpx_style:line>
        <gpx_style:opacity>1</gpx_style:opacity>
        <gpx_style:width>6</gpx_style:width>
      </gpx_style:line>
    </extensions>
    <trkseg>
      <trkpt lat="36.850377" lon="138.165135">
        <ele>721.6341687188453</ele>
      </trkpt>
      <trkpt lat="36.850311" lon="138.164942">
        <ele>721.4790751733957</ele>
      </trkpt>
      <trkpt lat="36.850262" lon="138.164747">
        <ele>721.1206556569159</ele>
      </trkpt>
      <trkpt lat="36.850199" lon="138.164383">
        <ele>720.4658442315734</ele>
      </trkpt>
      <trkpt lat="36.850148" lon="138.164172">
        <ele>719.8483096104702</ele>
      </trkpt>
      <trkpt lat="36.850033" lon="138.163923">
        <ele>719.7250585599811</ele>
      </trkpt>
      <trkpt lat="36.84985" lon="138.163649">
        <ele>720.1941002589442</ele>
      </trkpt>
      <trkpt lat="36.849644" lon="138.163379">
        <ele>721.5851868374743</ele>
      </trkpt>
      <trkpt lat="36.849512" lon="138.163205">
        <ele>722.8494445369548</ele>
      </trkpt>
      <trkpt lat="36.84947" lon="138.163126">
        <ele>723.1373178724344</ele>
      </trkpt>
      <trkpt lat="36.849337" lon="138.16273">
        <ele>723.8006925340289</ele>
      </trkpt>
      <trkpt lat="36.849294" lon="138.162639">
        <ele>723.5747636017168</ele>
      </trkpt>
      <trkpt lat="36.849242" lon="138.162564">
        <ele>723.2373964593934</ele>
      </trkpt>
      <trkpt lat="36.848834" lon="138.162147">
        <ele>721.5820282599053</ele>
      </trkpt>
      <trkpt lat="36.848776" lon="138.16206">
        <ele>721.4528291830686</ele>
      </trkpt>
      <trkpt lat="36.848727" lon="138.161928">
        <ele>721.2852234419897</ele>
      </trkpt>
      <trkpt lat="36.8487" lon="138.161819">
        <ele>720.518619645783</ele>
      </trkpt>
      <trkpt lat="36.84869" lon="138.161544">
        <ele>719.1239027923034</ele>
      </trkpt>
      <trkpt lat="36.848706" lon="138.161541">
        <ele>719.5147382671843</ele>
      </trkpt>
      <trkpt lat="36.84869" lon="138.161544">
        <ele>719.1239027923034</ele>
      </trkpt>
      <trkpt lat="36.848738" lon="138.160307">
        <ele>722.5939670828183</ele>
      </trkpt>
      <trkpt lat="36.848626" lon="138.159843">
        <ele>722.7627774698736</ele>
      </trkpt>
      <trkpt lat="36.848621" lon="138.159809">
        <ele>722.9176071317218</ele>
      </trkpt>
      <trkpt lat="36.848671" lon="138.159401">
        <ele>726.6949018097662</ele>
      </trkpt>
      <trkpt lat="36.848672" lon="138.159352">
        <ele>727.290537570499</ele>
      </trkpt>
      <trkpt lat="36.848657" lon="138.159215">
        <ele>728.9225831681102</ele>
      </trkpt>
      <trkpt lat="36.848607" lon="138.158928">
        <ele>733.7049877785834</ele>
      </trkpt>
      <trkpt lat="36.848585" lon="138.158832">
        <ele>734.820165669343</ele>
      </trkpt>
      <trkpt lat="36.848493" lon="138.158559">
        <ele>734.6661606422591</ele>
      </trkpt>
      <trkpt lat="36.848468" lon="138.158432">
        <ele>735.4704822201512</ele>
      </trkpt>
      <trkpt lat="36.848407" lon="138.157829">
        <ele>744.4004739812051</ele>
      </trkpt>
      <trkpt lat="36.848404" lon="138.157718">
        <ele>746.4916677589931</ele>
      </trkpt>
      <trkpt lat="36.848443" lon="138.157294">
        <ele>750.0940390177115</ele>
      </trkpt>
      <trkpt lat="36.848454" lon="138.157171">
        <ele>750.0522047627853</ele>
      </trkpt>
      <trkpt lat="36.848488" lon="138.157004">
        <ele>749.4746470614849</ele>
      </trkpt>
      <trkpt lat="36.84855" lon="138.156823">
        <ele>748.4562061234436</ele>
      </trkpt>
      <trkpt lat="36.848645" lon="138.156626">
        <ele>748.6175139918647</ele>
      </trkpt>
      <trkpt lat="36.848771" lon="138.156451">
        <ele>752.6712050739914</ele>
      </trkpt>
      <trkpt lat="36.849196" lon="138.155948">
        <ele>758.6678306095937</ele>
      </trkpt>
      <trkpt lat="36.849594" lon="138.155576">
        <ele>763.9311869182171</ele>
      </trkpt>
      <trkpt lat="36.849803" lon="138.155291">
        <ele>765.3818618789188</ele>
      </trkpt>
      <trkpt lat="36.849876" lon="138.155192">
        <ele>766.6206116307458</ele>
      </trkpt>
      <trkpt lat="36.850012" lon="138.154832">
        <ele>767.2554487127014</ele>
      </trkpt>
      <trkpt lat="36.850064" lon="138.15443">
        <ele>767.0687856567617</ele>
      </trkpt>
      <trkpt lat="36.850558" lon="138.154023">
        <ele>787.7295870944484</ele>
      </trkpt>
      <trkpt lat="36.850627" lon="138.153894">
        <ele>792.335698976822</ele>
      </trkpt>
      <trkpt lat="36.850621" lon="138.153852">
        <ele>792.3830768363089</ele>
      </trkpt>
      <trkpt lat="36.850551" lon="138.153319">
        <ele>795.9975390280805</ele>
      </trkpt>
      <trkpt lat="36.850421" lon="138.153019">
        <ele>792.6105858352021</ele>
      </trkpt>
      <trkpt lat="36.850384" lon="138.152823">
        <ele>791.678937749345</ele>
      </trkpt>
      <trkpt lat="36.85051" lon="138.152493">
        <ele>793.0360881584659</ele>
      </trkpt>
      <trkpt lat="36.850463" lon="138.152286">
        <ele>794.4217782168982</ele>
      </trkpt>
      <trkpt lat="36.850293" lon="138.152103">
        <ele>803.9674289200929</ele>
      </trkpt>
      <trkpt lat="36.850088" lon="138.152162">
        <ele>810.9294672180372</ele>
      </trkpt>
      <trkpt lat="36.849628" lon="138.152405">
        <ele>814.5502036744715</ele>
      </trkpt>
      <trkpt lat="36.849515" lon="138.152378">
        <ele>813.3103585342757</ele>
      </trkpt>
      <trkpt lat="36.84944" lon="138.15226">
        <ele>810.8284872925262</ele>
      </trkpt>
      <trkpt lat="36.849418" lon="138.152141">
        <ele>808.9082185336938</ele>
      </trkpt>
      <trkpt lat="36.849439" lon="138.152068">
        <ele>809.3228050655791</ele>
      </trkpt>
      <trkpt lat="36.849528" lon="138.151756">
        <ele>811.6886390136759</ele>
      </trkpt>
      <trkpt lat="36.84975" lon="138.15107">
        <ele>816.7406153646341</ele>
      </trkpt>
      <trkpt lat="36.849972" lon="138.150343">
        <ele>823.4968606170014</ele>
      </trkpt>
      <trkpt lat="36.850633" lon="138.149281">
        <ele>839.6084554336712</ele>
      </trkpt>
      <trkpt lat="36.851174" lon="138.148734">
        <ele>850.1160366027161</ele>
      </trkpt>
      <trkpt lat="36.851269" lon="138.14853">
        <ele>851.0458340933654</ele>
      </trkpt>
      <trkpt lat="36.85133" lon="138.148323">
        <ele>851.9189731920815</ele>
      </trkpt>
      <trkpt lat="36.85132" lon="138.148133">
        <ele>851.9947032185803</ele>
      </trkpt>
      <trkpt lat="36.851245" lon="138.147838">
        <ele>851.6033838650221</ele>
      </trkpt>
      <trkpt lat="36.851354" lon="138.147715">
        <ele>857.4347469112843</ele>
      </trkpt>
      <trkpt lat="36.851493" lon="138.147787">
        <ele>860.3320667082182</ele>
      </trkpt>
      <trkpt lat="36.851536" lon="138.148119">
        <ele>858.1443599828932</ele>
      </trkpt>
      <trkpt lat="36.851552" lon="138.148702">
        <ele>854.3566110590731</ele>
      </trkpt>
      <trkpt lat="36.851622" lon="138.148881">
        <ele>853.337229702293</ele>
      </trkpt>
      <trkpt lat="36.851647" lon="138.148945">
        <ele>852.8004100922042</ele>
      </trkpt>
      <trkpt lat="36.85174" lon="138.149084">
        <ele>851.9499994168502</ele>
      </trkpt>
      <trkpt lat="36.852005" lon="138.149104">
        <ele>858.6132336428642</ele>
      </trkpt>
      <trkpt lat="36.8523" lon="138.149094">
        <ele>867.6180495319732</ele>
      </trkpt>
      <trkpt lat="36.852532" lon="138.149044">
        <ele>869.927024589215</ele>
      </trkpt>
      <trkpt lat="36.852846" lon="138.148905">
        <ele>867.6556777333524</ele>
      </trkpt>
      <trkpt lat="36.852999" lon="138.148855">
        <ele>869.1443679104681</ele>
      </trkpt>
      <trkpt lat="36.852912" lon="138.148368">
        <ele>877.3253922744975</ele>
      </trkpt>
      <trkpt lat="36.852797" lon="138.148197">
        <ele>877.2862705060155</ele>
      </trkpt>
      <trkpt lat="36.852513" lon="138.147908">
        <ele>875.0257030296196</ele>
      </trkpt>
      <trkpt lat="36.852351" lon="138.147593">
        <ele>873.0421382776906</ele>
      </trkpt>
      <trkpt lat="36.852196" lon="138.14676">
        <ele>890.7102184263518</ele>
      </trkpt>
      <trkpt lat="36.852101" lon="138.146427">
        <ele>898.5607360869205</ele>
      </trkpt>
      <trkpt lat="36.851888" lon="138.146242">
        <ele>903.1237902453414</ele>
      </trkpt>
      <trkpt lat="36.851647" lon="138.146065">
        <ele>902.3214249123165</ele>
      </trkpt>
      <trkpt lat="36.851629" lon="138.146052">
        <ele>901.806555988178</ele>
      </trkpt>
      <trkpt lat="36.851544" lon="138.145802">
        <ele>900.3925759735298</ele>
      </trkpt>
      <trkpt lat="36.851589" lon="138.145543">
        <ele>905.1698379597632</ele>
      </trkpt>
      <trkpt lat="36.851567" lon="138.145086">
        <ele>909.4679835833489</ele>
      </trkpt>
      <trkpt lat="36.851547" lon="138.144942">
        <ele>911.3894934200907</ele>
      </trkpt>
      <trkpt lat="36.851441" lon="138.144772">
        <ele>910.4580262661245</ele>
      </trkpt>
      <trkpt lat="36.851354" lon="138.14455">
        <ele>910.6974121002954</ele>
      </trkpt>
      <trkpt lat="36.85145" lon="138.144353">
        <ele>917.7199831381358</ele>
      </trkpt>
      <trkpt lat="36.851681" lon="138.144314">
        <ele>924.7408117878776</ele>
      </trkpt>
      <trkpt lat="36.851818" lon="138.144378">
        <ele>925.890505848356</ele>
      </trkpt>
      <trkpt lat="36.85199" lon="138.144775">
        <ele>927.4743138985918</ele>
      </trkpt>
      <trkpt lat="36.852162" lon="138.144858">
        <ele>930.2254259688789</ele>
      </trkpt>
      <trkpt lat="36.852977" lon="138.144995">
        <ele>918.9995726933482</ele>
      </trkpt>
      <trkpt lat="36.853097" lon="138.144882">
        <ele>919.4518936916501</ele>
      </trkpt>
      <trkpt lat="36.853038" lon="138.14475">
        <ele>920.1399113306315</ele>
      </trkpt>
      <trkpt lat="36.85284" lon="138.144593">
        <ele>923.5210539695457</ele>
      </trkpt>
      <trkpt lat="36.852461" lon="138.14405">
        <ele>932.5983424937001</ele>
      </trkpt>
      <trkpt lat="36.852186" lon="138.14385">
        <ele>931.615727866395</ele>
      </trkpt>
      <trkpt lat="36.852032" lon="138.143595">
        <ele>933.2727223847071</ele>
      </trkpt>
      <trkpt lat="36.851845" lon="138.143463">
        <ele>937.6852804595612</ele>
      </trkpt>
      <trkpt lat="36.851655" lon="138.143284">
        <ele>943.6122872204982</ele>
      </trkpt>
      <trkpt lat="36.851484" lon="138.143044">
        <ele>944.6900418460372</ele>
      </trkpt>
      <trkpt lat="36.851467" lon="138.142873">
        <ele>944.0530711540971</ele>
      </trkpt>
      <trkpt lat="36.85181" lon="138.141499">
        <ele>953.2787803380849</ele>
      </trkpt>
      <trkpt lat="36.851981" lon="138.141149">
        <ele>960.4662517907573</ele>
      </trkpt>
      <trkpt lat="36.852048" lon="138.140987">
        <ele>963.098778971844</ele>
      </trkpt>
      <trkpt lat="36.852085" lon="138.140899">
        <ele>964.1153194795093</ele>
      </trkpt>
      <trkpt lat="36.85236" lon="138.140373">
        <ele>966.3156035405684</ele>
      </trkpt>
      <trkpt lat="36.852626" lon="138.139826">
        <ele>971.7376778063041</ele>
      </trkpt>
      <trkpt lat="36.852755" lon="138.139279">
        <ele>977.0750042952081</ele>
      </trkpt>
      <trkpt lat="36.852754" lon="138.139046">
        <ele>978.5337719563508</ele>
      </trkpt>
      <trkpt lat="36.852669" lon="138.138828">
        <ele>978.959372623237</ele>
      </trkpt>
      <trkpt lat="36.852523" lon="138.138603">
        <ele>978.4167687997697</ele>
      </trkpt>
      <trkpt lat="36.852454" lon="138.138377">
        <ele>979.030183219957</ele>
      </trkpt>
      <trkpt lat="36.852506" lon="138.138195">
        <ele>980.8398208540691</ele>
      </trkpt>
      <trkpt lat="36.852651" lon="138.138198">
        <ele>983.0550224960155</ele>
      </trkpt>
      <trkpt lat="36.852969" lon="138.138388">
        <ele>989.4181860001628</ele>
      </trkpt>
      <trkpt lat="36.853064" lon="138.138495">
        <ele>990.941937193787</ele>
      </trkpt>
      <trkpt lat="36.853141" lon="138.138903">
        <ele>990.1680086904305</ele>
      </trkpt>
      <trkpt lat="36.85316" lon="138.139204">
        <ele>990.2958862807577</ele>
      </trkpt>
      <trkpt lat="36.853218" lon="138.1395">
        <ele>990.7799631412236</ele>
      </trkpt>
      <trkpt lat="36.853231" lon="138.139597">
        <ele>990.3763207479016</ele>
      </trkpt>
      <trkpt lat="36.853209" lon="138.139813">
        <ele>988.389520925678</ele>
      </trkpt>
      <trkpt lat="36.853212" lon="138.139846">
        <ele>988.085783617344</ele>
      </trkpt>
      <trkpt lat="36.853257" lon="138.139928">
        <ele>987.4151246629663</ele>
      </trkpt>
      <trkpt lat="36.853296" lon="138.13997">
        <ele>987.1034767126644</ele>
      </trkpt>
      <trkpt lat="36.853335" lon="138.139988">
        <ele>987.1195650068337</ele>
      </trkpt>
      <trkpt lat="36.853372" lon="138.139985">
        <ele>987.5097180565697</ele>
      </trkpt>
      <trkpt lat="36.85342" lon="138.139967">
        <ele>988.3048189235624</ele>
      </trkpt>
      <trkpt lat="36.853445" lon="138.139946">
        <ele>988.9015628342986</ele>
      </trkpt>
      <trkpt lat="36.853467" lon="138.139896">
        <ele>989.774642417487</ele>
      </trkpt>
      <trkpt lat="36.853453" lon="138.139409">
        <ele>994.063418058469</ele>
      </trkpt>
      <trkpt lat="36.853501" lon="138.139142">
        <ele>996.0802942136772</ele>
      </trkpt>
      <trkpt lat="36.85357" lon="138.138964">
        <ele>997.9692784458408</ele>
      </trkpt>
      <trkpt lat="36.853587" lon="138.138796">
        <ele>999.4333717323972</ele>
      </trkpt>
      <trkpt lat="36.853561" lon="138.138613">
        <ele>1000.8048982511282</ele>
      </trkpt>
      <trkpt lat="36.853387" lon="138.138271">
        <ele>1003.0991665108336</ele>
      </trkpt>
      <trkpt lat="36.85337" lon="138.138193">
        <ele>1004.1171537490574</ele>
      </trkpt>
      <trkpt lat="36.853302" lon="138.137881">
        <ele>1007.9200745045218</ele>
      </trkpt>
      <trkpt lat="36.853265" lon="138.137523">
        <ele>1009.2128411519934</ele>
      </trkpt>
      <trkpt lat="36.853297" lon="138.137178">
        <ele>1010.5959206292418</ele>
      </trkpt>
      <trkpt lat="36.853483" lon="138.136388">
        <ele>1026.5043132026685</ele>
      </trkpt>
      <trkpt lat="36.853466" lon="138.136202">
        <ele>1028.4974883470175</ele>
      </trkpt>
      <trkpt lat="36.853433" lon="138.135989">
        <ele>1030.2398773892787</ele>
      </trkpt>
      <trkpt lat="36.853338" lon="138.13576">
        <ele>1030.4017831811323</ele>
      </trkpt>
      <trkpt lat="36.853233" lon="138.135592">
        <ele>1029.8589519180416</ele>
      </trkpt>
      <trkpt lat="36.853007" lon="138.135458">
        <ele>1027.5522708531341</ele>
      </trkpt>
      <trkpt lat="36.852995" lon="138.135352">
        <ele>1029.7575592919727</ele>
      </trkpt>
      <trkpt lat="36.853032" lon="138.13527">
        <ele>1031.7874871111485</ele>
      </trkpt>
      <trkpt lat="36.853167" lon="138.135245">
        <ele>1034.4027241271342</ele>
      </trkpt>
      <trkpt lat="36.853375" lon="138.135334">
        <ele>1037.406182882004</ele>
      </trkpt>
      <trkpt lat="36.854137" lon="138.136006">
        <ele>1046.5663996699295</ele>
      </trkpt>
      <trkpt lat="36.854224" lon="138.136126">
        <ele>1047.55573079526</ele>
      </trkpt>
      <trkpt lat="36.854396" lon="138.136461">
        <ele>1048.1690248040486</ele>
      </trkpt>
      <trkpt lat="36.854721" lon="138.136614">
        <ele>1053.6722339789562</ele>
      </trkpt>
      <trkpt lat="36.854888" lon="138.136693">
        <ele>1055.300032593699</ele>
      </trkpt>
      <trkpt lat="36.85521" lon="138.13709">
        <ele>1053.832543729386</ele>
      </trkpt>
      <trkpt lat="36.855711" lon="138.137466">
        <ele>1046.358199798294</ele>
      </trkpt>
      <trkpt lat="36.855803" lon="138.137476">
        <ele>1046.0043895418776</ele>
      </trkpt>
      <trkpt lat="36.855919" lon="138.137424">
        <ele>1047.0569046118308</ele>
      </trkpt>
      <trkpt lat="36.855985" lon="138.137251">
        <ele>1049.2799808017996</ele>
      </trkpt>
      <trkpt lat="36.855965" lon="138.137135">
        <ele>1050.71006642797</ele>
      </trkpt>
      <trkpt lat="36.855876" lon="138.136924">
        <ele>1054.6844298866101</ele>
      </trkpt>
      <trkpt lat="36.855855" lon="138.136773">
        <ele>1058.9631921083474</ele>
      </trkpt>
      <trkpt lat="36.85587" lon="138.136416">
        <ele>1067.2654781080323</ele>
      </trkpt>
      <trkpt lat="36.855849" lon="138.135883">
        <ele>1073.371915570088</ele>
      </trkpt>
      <trkpt lat="36.8557" lon="138.135517">
        <ele>1076.837566242595</ele>
      </trkpt>
      <trkpt lat="36.855671" lon="138.135096">
        <ele>1077.8507416185791</ele>
      </trkpt>
      <trkpt lat="36.855597" lon="138.134806">
        <ele>1079.8427678045182</ele>
      </trkpt>
      <trkpt lat="36.855541" lon="138.134651">
        <ele>1081.6612717049977</ele>
      </trkpt>
      <trkpt lat="36.855456" lon="138.134418">
        <ele>1084.9492622815683</ele>
      </trkpt>
      <trkpt lat="36.855481" lon="138.1343">
        <ele>1086.8229236174193</ele>
      </trkpt>
      <trkpt lat="36.85553" lon="138.13424">
        <ele>1088.2373366534769</ele>
      </trkpt>
      <trkpt lat="36.85561" lon="138.134249">
        <ele>1088.8458393358665</ele>
      </trkpt>
      <trkpt lat="36.855839" lon="138.13458">
        <ele>1083.7903957694393</ele>
      </trkpt>
      <trkpt lat="36.856225" lon="138.134906">
        <ele>1085.0857596908663</ele>
      </trkpt>
      <trkpt lat="36.856346" lon="138.134968">
        <ele>1087.060850726798</ele>
      </trkpt>
      <trkpt lat="36.85652" lon="138.135116">
        <ele>1089.3838417427228</ele>
      </trkpt>
      <trkpt lat="36.856601" lon="138.135267">
        <ele>1087.5178454441234</ele>
      </trkpt>
      <trkpt lat="36.856732" lon="138.135356">
        <ele>1085.9195086532188</ele>
      </trkpt>
      <trkpt lat="36.856857" lon="138.135332">
        <ele>1086.5876490482838</ele>
      </trkpt>
      <trkpt lat="36.856992" lon="138.135264">
        <ele>1087.9043367528025</ele>
      </trkpt>
      <trkpt lat="36.857232" lon="138.13509">
        <ele>1090.831597527461</ele>
      </trkpt>
      <trkpt lat="36.857302" lon="138.13509">
        <ele>1090.5505100218295</ele>
      </trkpt>
      <trkpt lat="36.857418" lon="138.135169">
        <ele>1089.3957303978145</ele>
      </trkpt>
      <trkpt lat="36.857471" lon="138.135183">
        <ele>1089.4832109288318</ele>
      </trkpt>
      <trkpt lat="36.857525" lon="138.135151">
        <ele>1090.307275501218</ele>
      </trkpt>
      <trkpt lat="36.857564" lon="138.135032">
        <ele>1092.3349321556282</ele>
      </trkpt>
      <trkpt lat="36.857525" lon="138.134913">
        <ele>1094.0355575671902</ele>
      </trkpt>
      <trkpt lat="36.857472" lon="138.134831">
        <ele>1095.3654681724558</ele>
      </trkpt>
      <trkpt lat="36.857405" lon="138.134761">
        <ele>1096.9240738858866</ele>
      </trkpt>
      <trkpt lat="36.85717" lon="138.134702">
        <ele>1100.5009040046864</ele>
      </trkpt>
      <trkpt lat="36.857079" lon="138.134639">
        <ele>1102.9510079982929</ele>
      </trkpt>
      <trkpt lat="36.857047" lon="138.134536">
        <ele>1105.1601232766648</ele>
      </trkpt>
      <trkpt lat="36.857037" lon="138.134333">
        <ele>1108.4681615716493</ele>
      </trkpt>
      <trkpt lat="36.857113" lon="138.13378">
        <ele>1117.4559327425438</ele>
      </trkpt>
      <trkpt lat="36.857116" lon="138.133764">
        <ele>1117.7374239053788</ele>
      </trkpt>
      <trkpt lat="36.856755" lon="138.133249">
        <ele>1123.7047687180525</ele>
      </trkpt>
      <trkpt lat="36.856802" lon="138.133083">
        <ele>1126.6366520519323</ele>
      </trkpt>
      <trkpt lat="36.856927" lon="138.13312">
        <ele>1128.0207047056633</ele>
      </trkpt>
      <trkpt lat="36.857229" lon="138.133182">
        <ele>1129.9122039859649</ele>
      </trkpt>
      <trkpt lat="36.857439" lon="138.133108">
        <ele>1132.585900150867</ele>
      </trkpt>
      <trkpt lat="36.857569" lon="138.133284">
        <ele>1127.8162972655778</ele>
      </trkpt>
      <trkpt lat="36.85768" lon="138.133403">
        <ele>1125.9618659746377</ele>
      </trkpt>
      <trkpt lat="36.857998" lon="138.133321">
        <ele>1126.4795386310675</ele>
      </trkpt>
      <trkpt lat="36.858231" lon="138.133233">
        <ele>1128.6996285751013</ele>
      </trkpt>
      <trkpt lat="36.858388" lon="138.133274">
        <ele>1128.9305743608859</ele>
      </trkpt>
      <trkpt lat="36.858446" lon="138.133259">
        <ele>1129.7825173926055</ele>
      </trkpt>
      <trkpt lat="36.858476" lon="138.133225">
        <ele>1130.6570952085995</ele>
      </trkpt>
      <trkpt lat="36.858497" lon="138.133169">
        <ele>1131.843611336085</ele>
      </trkpt>
      <trkpt lat="36.858501" lon="138.13311">
        <ele>1132.9896764203838</ele>
      </trkpt>
      <trkpt lat="36.858473" lon="138.133032">
        <ele>1134.3744000226234</ele>
      </trkpt>
      <trkpt lat="36.858426" lon="138.132986">
        <ele>1135.2758034387425</ele>
      </trkpt>
      <trkpt lat="36.858119" lon="138.132786">
        <ele>1142.0609943240775</ele>
      </trkpt>
      <trkpt lat="36.858028" lon="138.132682">
        <ele>1143.9565440607355</ele>
      </trkpt>
      <trkpt lat="36.857734" lon="138.132219">
        <ele>1150.832249874516</ele>
      </trkpt>
      <trkpt lat="36.857459" lon="138.131768">
        <ele>1156.253211713723</ele>
      </trkpt>
      <trkpt lat="36.857265" lon="138.131343">
        <ele>1158.2131497311798</ele>
      </trkpt>
      <trkpt lat="36.856891" lon="138.131055">
        <ele>1164.372076917631</ele>
      </trkpt>
      <trkpt lat="36.856894" lon="138.131037">
        <ele>1164.76495792962</ele>
      </trkpt>
      <trkpt lat="36.856917" lon="138.130897">
        <ele>1167.8312811205597</ele>
      </trkpt>
      <trkpt lat="36.857081" lon="138.130867">
        <ele>1168.188500665222</ele>
      </trkpt>
      <trkpt lat="36.857734" lon="138.130953">
        <ele>1169.696307391009</ele>
      </trkpt>
      <trkpt lat="36.858026" lon="138.131125">
        <ele>1171.6939259377784</ele>
      </trkpt>
      <trkpt lat="36.858523" lon="138.131187">
        <ele>1171.526897616231</ele>
      </trkpt>
      <trkpt lat="36.858576" lon="138.131182">
        <ele>1171.9969479667027</ele>
      </trkpt>
      <trkpt lat="36.858628" lon="138.131158">
        <ele>1172.8413326526534</ele>
      </trkpt>
      <trkpt lat="36.858657" lon="138.131117">
        <ele>1173.741298179888</ele>
      </trkpt>
      <trkpt lat="36.858674" lon="138.131061">
        <ele>1174.6935013131126</ele>
      </trkpt>
      <trkpt lat="36.858668" lon="138.130997">
        <ele>1175.4653248821533</ele>
      </trkpt>
      <trkpt lat="36.858635" lon="138.130938">
        <ele>1175.9120640014005</ele>
      </trkpt>
      <trkpt lat="36.858163" lon="138.130588">
        <ele>1180.8567011180348</ele>
      </trkpt>
      <trkpt lat="36.857923" lon="138.130095">
        <ele>1186.247983363457</ele>
      </trkpt>
      <trkpt lat="36.857442" lon="138.12973">
        <ele>1196.6990677471945</ele>
      </trkpt>
      <trkpt lat="36.857184" lon="138.129773">
        <ele>1198.5158326918076</ele>
      </trkpt>
      <trkpt lat="36.856845" lon="138.129656">
        <ele>1199.1871125461405</ele>
      </trkpt>
      <trkpt lat="36.856767" lon="138.129557">
        <ele>1200.6472857643842</ele>
      </trkpt>
      <trkpt lat="36.856773" lon="138.129412">
        <ele>1205.5077670508222</ele>
      </trkpt>
      <trkpt lat="36.856837" lon="138.129322">
        <ele>1208.9418619128292</ele>
      </trkpt>
      <trkpt lat="36.857236" lon="138.129301">
        <ele>1208.8978093800863</ele>
      </trkpt>
      <trkpt lat="36.857596" lon="138.128872">
        <ele>1211.3001096442447</ele>
      </trkpt>
      <trkpt lat="36.857879" lon="138.128854">
        <ele>1208.8761668665802</ele>
      </trkpt>
      <trkpt lat="36.857929" lon="138.128842">
        <ele>1209.0458060020849</ele>
      </trkpt>
      <trkpt lat="36.857967" lon="138.128802">
        <ele>1209.9051517658672</ele>
      </trkpt>
      <trkpt lat="36.857989" lon="138.128733">
        <ele>1211.2209571308963</ele>
      </trkpt>
      <trkpt lat="36.857985" lon="138.128669">
        <ele>1212.3621339049446</ele>
      </trkpt>
      <trkpt lat="36.857963" lon="138.128617">
        <ele>1213.2310803328048</ele>
      </trkpt>
      <trkpt lat="36.857911" lon="138.128574">
        <ele>1213.7987484174864</ele>
      </trkpt>
      <trkpt lat="36.857545" lon="138.128378">
        <ele>1217.8874846480633</ele>
      </trkpt>
      <trkpt lat="36.856696" lon="138.128083">
        <ele>1235.2863282194312</ele>
      </trkpt>
      <trkpt lat="36.856519" lon="138.127421">
        <ele>1237.8608889667985</ele>
      </trkpt>
      <trkpt lat="36.856544" lon="138.127426">
        <ele>1237.7555573420273</ele>
      </trkpt>
      <trkpt lat="36.856519" lon="138.127421">
        <ele>1237.8608889667985</ele>
      </trkpt>
      <trkpt lat="36.856483" lon="138.127159">
        <ele>1237.8589459785424</ele>
      </trkpt>
      <trkpt lat="36.856546" lon="138.126858">
        <ele>1237.2108043188236</ele>
      </trkpt>
      <trkpt lat="36.856547" lon="138.126579">
        <ele>1235.8720381390594</ele>
      </trkpt>
      <trkpt lat="36.85636" lon="138.126082">
        <ele>1244.0855730472174</ele>
      </trkpt>
      <trkpt lat="36.856246" lon="138.126014">
        <ele>1246.2041758989926</ele>
      </trkpt>
      <trkpt lat="36.856" lon="138.126018">
        <ele>1246.2489219202964</ele>
      </trkpt>
      <trkpt lat="36.855914" lon="138.125653">
        <ele>1248.8925135017091</ele>
      </trkpt>
      <trkpt lat="36.856103" lon="138.125203">
        <ele>1255.3896241717277</ele>
      </trkpt>
      <trkpt lat="36.856034" lon="138.124753">
        <ele>1257.7025963623394</ele>
      </trkpt>
      <trkpt lat="36.856034" lon="138.124131">
        <ele>1260.0010432677732</ele>
      </trkpt>
      <trkpt lat="36.856027" lon="138.12412">
        <ele>1259.745526755327</ele>
      </trkpt>
      <trkpt lat="36.85545" lon="138.123186">
        <ele>1261.1227083376648</ele>
      </trkpt>
      <trkpt lat="36.855107" lon="138.122221">
        <ele>1272.3329451822678</ele>
      </trkpt>
      <trkpt lat="36.855042" lon="138.121975">
        <ele>1275.8646364703507</ele>
      </trkpt>
      <trkpt lat="36.85506" lon="138.121718">
        <ele>1278.4245172242809</ele>
      </trkpt>
      <trkpt lat="36.855219" lon="138.121632">
        <ele>1280.2040422315167</ele>
      </trkpt>
      <trkpt lat="36.855571" lon="138.121749">
        <ele>1283.245418852343</ele>
      </trkpt>
      <trkpt lat="36.855837" lon="138.121743">
        <ele>1286.579978016937</ele>
      </trkpt>
      <trkpt lat="36.855941" lon="138.121714">
        <ele>1287.7008969116318</ele>
      </trkpt>
      <trkpt lat="36.856016" lon="138.121652">
        <ele>1289.4612986327334</ele>
      </trkpt>
      <trkpt lat="36.856069" lon="138.121584">
        <ele>1291.2675343822534</ele>
      </trkpt>
      <trkpt lat="36.856099" lon="138.121485">
        <ele>1293.8993887992813</ele>
      </trkpt>
      <trkpt lat="36.856107" lon="138.121388">
        <ele>1296.1570307662437</ele>
      </trkpt>
      <trkpt lat="36.856091" lon="138.1213">
        <ele>1298.0024081964316</ele>
      </trkpt>
      <trkpt lat="36.855811" lon="138.120375">
        <ele>1301.4070335552103</ele>
      </trkpt>
      <trkpt lat="36.855862" lon="138.119989">
        <ele>1300.4012989398466</ele>
      </trkpt>
      <trkpt lat="36.855879" lon="138.119978">
        <ele>1300.5984480727006</ele>
      </trkpt>
      <trkpt lat="36.855879" lon="138.119978">
        <ele>1300.5984480727006</ele>
      </trkpt>
      <trkpt lat="36.855964" lon="138.11992">
        <ele>1301.5925165000563</ele>
      </trkpt>
      <trkpt lat="36.85612" lon="138.119882">
        <ele>1303.225663924994</ele>
      </trkpt>
      <trkpt lat="36.856342" lon="138.119938">
        <ele>1305.268220622763</ele>
      </trkpt>
      <trkpt lat="36.856387" lon="138.119902">
        <ele>1305.5345563402407</ele>
      </trkpt>
      <trkpt lat="36.856772" lon="138.119594">
        <ele>1309.709939220129</ele>
      </trkpt>
      <trkpt lat="36.856944" lon="138.119152">
        <ele>1313.3756133910283</ele>
      </trkpt>
      <trkpt lat="36.856893" lon="138.118873">
        <ele>1314.9997749559293</ele>
      </trkpt>
      <trkpt lat="36.857274" lon="138.118409">
        <ele>1317.6132110640292</ele>
      </trkpt>
      <trkpt lat="36.857226" lon="138.118212">
        <ele>1318.477338880022</ele>
      </trkpt>
      <trkpt lat="36.85704" lon="138.118057">
        <ele>1320.2032611913726</ele>
      </trkpt>
      <trkpt lat="36.856873" lon="138.11801">
        <ele>1321.048802094001</ele>
      </trkpt>
      <trkpt lat="36.856753" lon="138.11804">
        <ele>1320.9691398752861</ele>
      </trkpt>
      <trkpt lat="36.856614" lon="138.11817">
        <ele>1320.4648295522657</ele>
      </trkpt>
      <trkpt lat="36.856538" lon="138.118101">
        <ele>1321.4552559370604</ele>
      </trkpt>
      <trkpt lat="36.856502" lon="138.117968">
        <ele>1323.054661671148</ele>
      </trkpt>
      <trkpt lat="36.856479" lon="138.117657">
        <ele>1327.9938379693676</ele>
      </trkpt>
      <trkpt lat="36.856103" lon="138.116813">
        <ele>1335.7313638557641</ele>
      </trkpt>
      <trkpt lat="36.856071" lon="138.116701">
        <ele>1335.438044226371</ele>
      </trkpt>
      <trkpt lat="36.856104" lon="138.116585">
        <ele>1336.0946699476524</ele>
      </trkpt>
      <trkpt lat="36.856207" lon="138.116321">
        <ele>1338.8402580259374</ele>
      </trkpt>
      <trkpt lat="36.856237" lon="138.116163">
        <ele>1340.3620731059473</ele>
      </trkpt>
      <trkpt lat="36.856236" lon="138.116045">
        <ele>1341.4903380854291</ele>
      </trkpt>
      <trkpt lat="36.856182" lon="138.115873">
        <ele>1342.8787465377272</ele>
      </trkpt>
      <trkpt lat="36.856103" lon="138.115526">
        <ele>1346.4761601443706</ele>
      </trkpt>
      <trkpt lat="36.856126" lon="138.115409">
        <ele>1347.4303262396088</ele>
      </trkpt>
      <trkpt lat="36.856189" lon="138.115097">
        <ele>1348.7103571799123</ele>
      </trkpt>
      <trkpt lat="36.856017" lon="138.114625">
        <ele>1347.5505416426035</ele>
      </trkpt>
      <trkpt lat="36.855937" lon="138.114105">
        <ele>1349.6562676544306</ele>
      </trkpt>
      <trkpt lat="36.855725" lon="138.113831">
        <ele>1352.4720647581876</ele>
      </trkpt>
      <trkpt lat="36.855615" lon="138.113485">
        <ele>1352.352996074948</ele>
      </trkpt>
      <trkpt lat="36.855629" lon="138.113118">
        <ele>1353.9590703216102</ele>
      </trkpt>
      <trkpt lat="36.855753" lon="138.112675">
        <ele>1357.2069660784914</ele>
      </trkpt>
      <trkpt lat="36.855792" lon="138.112386">
        <ele>1358.7315078750728</ele>
      </trkpt>
      <trkpt lat="36.855956" lon="138.111737">
        <ele>1364.9047195320954</ele>
      </trkpt>
      <trkpt lat="36.855948" lon="138.111367">
        <ele>1366.882853746598</ele>
      </trkpt>
      <trkpt lat="36.855894" lon="138.111197">
        <ele>1365.8961655674511</ele>
      </trkpt>
      <trkpt lat="36.855746" lon="138.111004">
        <ele>1364.2670120675418</ele>
      </trkpt>
      <trkpt lat="36.85567" lon="138.110921">
        <ele>1365.3551012803325</ele>
      </trkpt>
      <trkpt lat="36.855551" lon="138.11093">
        <ele>1365.694041744714</ele>
      </trkpt>
      <trkpt lat="36.855361" lon="138.111074">
        <ele>1364.4148701908773</ele>
      </trkpt>
      <trkpt lat="36.85525" lon="138.111113">
        <ele>1365.2619312854952</ele>
      </trkpt>
      <trkpt lat="36.855142" lon="138.111103">
        <ele>1367.308324869825</ele>
      </trkpt>
      <trkpt lat="36.855067" lon="138.111018">
        <ele>1369.9621747090814</ele>
      </trkpt>
      <trkpt lat="36.855025" lon="138.110873">
        <ele>1371.9366695780338</ele>
      </trkpt>
      <trkpt lat="36.855038" lon="138.110741">
        <ele>1372.151088590474</ele>
      </trkpt>
      <trkpt lat="36.855296" lon="138.110398">
        <ele>1372.0703990408438</ele>
      </trkpt>
      <trkpt lat="36.85545" lon="138.109518">
        <ele>1370.4573963785087</ele>
      </trkpt>
      <trkpt lat="36.855141" lon="138.108981">
        <ele>1367.621517066857</ele>
      </trkpt>
      <trkpt lat="36.854896" lon="138.108737">
        <ele>1368.1522399343778</ele>
      </trkpt>
      <trkpt lat="36.85481" lon="138.108682">
        <ele>1368.3980018898453</ele>
      </trkpt>
      <trkpt lat="36.854677" lon="138.10868">
        <ele>1367.227787633614</ele>
      </trkpt>
      <trkpt lat="36.854487" lon="138.108697">
        <ele>1365.394253030523</ele>
      </trkpt>
      <trkpt lat="36.854357" lon="138.108633">
        <ele>1366.2893800923139</ele>
      </trkpt>
      <trkpt lat="36.854311" lon="138.108535">
        <ele>1367.7699443222114</ele>
      </trkpt>
      <trkpt lat="36.854286" lon="138.108356">
        <ele>1369.2373941375959</ele>
      </trkpt>
      <trkpt lat="36.854334" lon="138.107909">
        <ele>1370.2412533459965</ele>
      </trkpt>
      <trkpt lat="36.854118" lon="138.106935">
        <ele>1365.4348862641266</ele>
      </trkpt>
      <trkpt lat="36.854052" lon="138.106199">
        <ele>1361.5079542048713</ele>
      </trkpt>
      <trkpt lat="36.853949" lon="138.105944">
        <ele>1360.113030736185</ele>
      </trkpt>
      <trkpt lat="36.853774" lon="138.104958">
        <ele>1353.0128349507247</ele>
      </trkpt>
      <trkpt lat="36.853771" lon="138.10485">
        <ele>1352.1638670158115</ele>
      </trkpt>
      <trkpt lat="36.853786" lon="138.10474">
        <ele>1351.0659019334487</ele>
      </trkpt>
      <trkpt lat="36.853826" lon="138.104644">
        <ele>1349.7794156736466</ele>
      </trkpt>
      <trkpt lat="36.853903" lon="138.104569">
        <ele>1349.0841549393263</ele>
      </trkpt>
      <trkpt lat="36.854019" lon="138.10452">
        <ele>1349.6896317324197</ele>
      </trkpt>
      <trkpt lat="36.858169" lon="138.102762">
        <ele>1341.8673797621086</ele>
      </trkpt>
      <trkpt lat="36.85853" lon="138.10243">
        <ele>1338.1848691581165</ele>
      </trkpt>
      <trkpt lat="36.859871" lon="138.101687">
        <ele>1340.2526837051475</ele>
      </trkpt>
      <trkpt lat="36.859958" lon="138.101559">
        <ele>1340.0742763062262</ele>
      </trkpt>
      <trkpt lat="36.85997" lon="138.101512">
        <ele>1339.7029159831554</ele>
      </trkpt>
      <trkpt lat="36.859988" lon="138.101407">
        <ele>1338.8542621149995</ele>
      </trkpt>
      <trkpt lat="36.859999" lon="138.101035">
        <ele>1336.6395022366376</ele>
      </trkpt>
      <trkpt lat="36.859991" lon="138.10088">
        <ele>1336.3623411093379</ele>
      </trkpt>
      <trkpt lat="36.859936" lon="138.100534">
        <ele>1338.951016648114</ele>
      </trkpt>
      <trkpt lat="36.8599" lon="138.1002">
        <ele>1340.9431076885676</ele>
      </trkpt>
      <trkpt lat="36.859887" lon="138.099528">
        <ele>1338.002049510089</ele>
      </trkpt>
      <trkpt lat="36.859878" lon="138.099526">
        <ele>1337.830802711566</ele>
      </trkpt>
      <trkpt lat="36.859878" lon="138.099526">
        <ele>1337.830802711566</ele>
      </trkpt>
      <trkpt lat="36.859887" lon="138.099528">
        <ele>1338.002049510089</ele>
      </trkpt>
      <trkpt lat="36.8599" lon="138.1002">
        <ele>1340.9431076885676</ele>
      </trkpt>
      <trkpt lat="36.859936" lon="138.100534">
        <ele>1338.951016648114</ele>
      </trkpt>
      <trkpt lat="36.859991" lon="138.10088">
        <ele>1336.3623411093379</ele>
      </trkpt>
      <trkpt lat="36.859999" lon="138.101035">
        <ele>1336.6395022366376</ele>
      </trkpt>
      <trkpt lat="36.859988" lon="138.101407">
        <ele>1338.8542621149995</ele>
      </trkpt>
      <trkpt lat="36.85997" lon="138.101512">
        <ele>1339.7029159831554</ele>
      </trkpt>
      <trkpt lat="36.859958" lon="138.101559">
        <ele>1340.0742763062262</ele>
      </trkpt>
      <trkpt lat="36.859871" lon="138.101687">
        <ele>1340.2526837051475</ele>
      </trkpt>
      <trkpt lat="36.85853" lon="138.10243">
        <ele>1338.1848691581165</ele>
      </trkpt>
      <trkpt lat="36.858169" lon="138.102762">
        <ele>1341.8673797621086</ele>
      </trkpt>
      <trkpt lat="36.854019" lon="138.10452">
        <ele>1349.6896317324197</ele>
      </trkpt>
      <trkpt lat="36.853903" lon="138.104569">
        <ele>1349.0841549393263</ele>
      </trkpt>
      <trkpt lat="36.853826" lon="138.104644">
        <ele>1349.7794156736466</ele>
      </trkpt>
      <trkpt lat="36.853786" lon="138.10474">
        <ele>1351.0659019334487</ele>
      </trkpt>
      <trkpt lat="36.853771" lon="138.10485">
        <ele>1352.1638670158115</ele>
      </trkpt>
      <trkpt lat="36.853774" lon="138.104958">
        <ele>1353.0128349507247</ele>
      </trkpt>
      <trkpt lat="36.853949" lon="138.105944">
        <ele>1360.113030736185</ele>
      </trkpt>
      <trkpt lat="36.854052" lon="138.106199">
        <ele>1361.5079542048713</ele>
      </trkpt>
      <trkpt lat="36.854118" lon="138.106935">
        <ele>1365.4348862641266</ele>
      </trkpt>
      <trkpt lat="36.854334" lon="138.107909">
        <ele>1370.2412533459965</ele>
      </trkpt>
      <trkpt lat="36.854286" lon="138.108356">
        <ele>1369.2373941375959</ele>
      </trkpt>
      <trkpt lat="36.854311" lon="138.108535">
        <ele>1367.7699443222114</ele>
      </trkpt>
      <trkpt lat="36.854357" lon="138.108633">
        <ele>1366.2893800923139</ele>
      </trkpt>
      <trkpt lat="36.854487" lon="138.108697">
        <ele>1365.394253030523</ele>
      </trkpt>
      <trkpt lat="36.854677" lon="138.10868">
        <ele>1367.227787633614</ele>
      </trkpt>
      <trkpt lat="36.85481" lon="138.108682">
        <ele>1368.3980018898453</ele>
      </trkpt>
      <trkpt lat="36.854896" lon="138.108737">
        <ele>1368.1522399343778</ele>
      </trkpt>
      <trkpt lat="36.855141" lon="138.108981">
        <ele>1367.621517066857</ele>
      </trkpt>
      <trkpt lat="36.85545" lon="138.109518">
        <ele>1370.4573963785087</ele>
      </trkpt>
      <trkpt lat="36.855296" lon="138.110398">
        <ele>1372.0703990408438</ele>
      </trkpt>
      <trkpt lat="36.855038" lon="138.110741">
        <ele>1372.151088590474</ele>
      </trkpt>
      <trkpt lat="36.855025" lon="138.110873">
        <ele>1371.9366695780338</ele>
      </trkpt>
      <trkpt lat="36.855067" lon="138.111018">
        <ele>1369.9621747090814</ele>
      </trkpt>
      <trkpt lat="36.855142" lon="138.111103">
        <ele>1367.308324869825</ele>
      </trkpt>
      <trkpt lat="36.85525" lon="138.111113">
        <ele>1365.2619312854952</ele>
      </trkpt>
      <trkpt lat="36.855361" lon="138.111074">
        <ele>1364.4148701908773</ele>
      </trkpt>
      <trkpt lat="36.855551" lon="138.11093">
        <ele>1365.694041744714</ele>
      </trkpt>
      <trkpt lat="36.85567" lon="138.110921">
        <ele>1365.3551012803325</ele>
      </trkpt>
      <trkpt lat="36.855746" lon="138.111004">
        <ele>1364.2670120675418</ele>
      </trkpt>
      <trkpt lat="36.855894" lon="138.111197">
        <ele>1365.8961655674511</ele>
      </trkpt>
      <trkpt lat="36.855948" lon="138.111367">
        <ele>1366.882853746598</ele>
      </trkpt>
      <trkpt lat="36.855956" lon="138.111737">
        <ele>1364.9047195320954</ele>
      </trkpt>
      <trkpt lat="36.855792" lon="138.112386">
        <ele>1358.7315078750728</ele>
      </trkpt>
      <trkpt lat="36.855753" lon="138.112675">
        <ele>1357.2069660784914</ele>
      </trkpt>
      <trkpt lat="36.855629" lon="138.113118">
        <ele>1353.9590703216102</ele>
      </trkpt>
      <trkpt lat="36.855615" lon="138.113485">
        <ele>1352.352996074948</ele>
      </trkpt>
      <trkpt lat="36.855725" lon="138.113831">
        <ele>1352.4720647581876</ele>
      </trkpt>
      <trkpt lat="36.855937" lon="138.114105">
        <ele>1349.6562676544306</ele>
      </trkpt>
      <trkpt lat="36.856017" lon="138.114625">
        <ele>1347.5505416426035</ele>
      </trkpt>
      <trkpt lat="36.856189" lon="138.115097">
        <ele>1348.7103571799123</ele>
      </trkpt>
      <trkpt lat="36.856126" lon="138.115409">
        <ele>1347.4303262396088</ele>
      </trkpt>
      <trkpt lat="36.856103" lon="138.115526">
        <ele>1346.4761601443706</ele>
      </trkpt>
      <trkpt lat="36.856182" lon="138.115873">
        <ele>1342.8787465377272</ele>
      </trkpt>
      <trkpt lat="36.856236" lon="138.116045">
        <ele>1341.4903380854291</ele>
      </trkpt>
      <trkpt lat="36.856237" lon="138.116163">
        <ele>1340.3620731059473</ele>
      </trkpt>
      <trkpt lat="36.856207" lon="138.116321">
        <ele>1338.8402580259374</ele>
      </trkpt>
      <trkpt lat="36.856104" lon="138.116585">
        <ele>1336.0946699476524</ele>
      </trkpt>
      <trkpt lat="36.856071" lon="138.116701">
        <ele>1335.438044226371</ele>
      </trkpt>
      <trkpt lat="36.856103" lon="138.116813">
        <ele>1335.7313638557641</ele>
      </trkpt>
      <trkpt lat="36.856479" lon="138.117657">
        <ele>1327.9938379693676</ele>
      </trkpt>
      <trkpt lat="36.856502" lon="138.117968">
        <ele>1323.054661671148</ele>
      </trkpt>
      <trkpt lat="36.856538" lon="138.118101">
        <ele>1321.4552559370604</ele>
      </trkpt>
      <trkpt lat="36.856614" lon="138.11817">
        <ele>1320.4648295522657</ele>
      </trkpt>
      <trkpt lat="36.856753" lon="138.11804">
        <ele>1320.9691398752861</ele>
      </trkpt>
      <trkpt lat="36.856873" lon="138.11801">
        <ele>1321.048802094001</ele>
      </trkpt>
      <trkpt lat="36.85704" lon="138.118057">
        <ele>1320.2032611913726</ele>
      </trkpt>
      <trkpt lat="36.857226" lon="138.118212">
        <ele>1318.477338880022</ele>
      </trkpt>
      <trkpt lat="36.857274" lon="138.118409">
        <ele>1317.6132110640292</ele>
      </trkpt>
      <trkpt lat="36.856893" lon="138.118873">
        <ele>1314.9997749559293</ele>
      </trkpt>
      <trkpt lat="36.856944" lon="138.119152">
        <ele>1313.3756133910283</ele>
      </trkpt>
      <trkpt lat="36.856772" lon="138.119594">
        <ele>1309.709939220129</ele>
      </trkpt>
      <trkpt lat="36.856387" lon="138.119902">
        <ele>1305.5345563402407</ele>
      </trkpt>
      <trkpt lat="36.856342" lon="138.119938">
        <ele>1305.268220622763</ele>
      </trkpt>
      <trkpt lat="36.85612" lon="138.119882">
        <ele>1303.225663924994</ele>
      </trkpt>
      <trkpt lat="36.855964" lon="138.11992">
        <ele>1301.5925165000563</ele>
      </trkpt>
      <trkpt lat="36.855879" lon="138.119978">
        <ele>1300.5984480727006</ele>
      </trkpt>
      <trkpt lat="36.855879" lon="138.119978">
        <ele>1300.5984480727006</ele>
      </trkpt>
      <trkpt lat="36.855862" lon="138.119989">
        <ele>1300.4012989398466</ele>
      </trkpt>
      <trkpt lat="36.855811" lon="138.120375">
        <ele>1301.4070335552103</ele>
      </trkpt>
      <trkpt lat="36.856091" lon="138.1213">
        <ele>1298.0024081964316</ele>
      </trkpt>
      <trkpt lat="36.856107" lon="138.121388">
        <ele>1296.1570307662437</ele>
      </trkpt>
      <trkpt lat="36.856099" lon="138.121485">
        <ele>1293.8993887992813</ele>
      </trkpt>
      <trkpt lat="36.856069" lon="138.121584">
        <ele>1291.2675343822534</ele>
      </trkpt>
      <trkpt lat="36.856016" lon="138.121652">
        <ele>1289.4612986327334</ele>
      </trkpt>
      <trkpt lat="36.855941" lon="138.121714">
        <ele>1287.7008969116318</ele>
      </trkpt>
      <trkpt lat="36.855837" lon="138.121743">
        <ele>1286.579978016937</ele>
      </trkpt>
      <trkpt lat="36.855571" lon="138.121749">
        <ele>1283.245418852343</ele>
      </trkpt>
      <trkpt lat="36.855219" lon="138.121632">
        <ele>1280.2040422315167</ele>
      </trkpt>
      <trkpt lat="36.85506" lon="138.121718">
        <ele>1278.4245172242809</ele>
      </trkpt>
      <trkpt lat="36.855042" lon="138.121975">
        <ele>1275.8646364703507</ele>
      </trkpt>
      <trkpt lat="36.855107" lon="138.122221">
        <ele>1272.3329451822678</ele>
      </trkpt>
      <trkpt lat="36.85545" lon="138.123186">
        <ele>1261.1227083376648</ele>
      </trkpt>
      <trkpt lat="36.856027" lon="138.12412">
        <ele>1259.745526755327</ele>
      </trkpt>
      <trkpt lat="36.856034" lon="138.124131">
        <ele>1260.0010432677732</ele>
      </trkpt>
      <trkpt lat="36.856034" lon="138.124753">
        <ele>1257.7025963623394</ele>
      </trkpt>
      <trkpt lat="36.856103" lon="138.125203">
        <ele>1255.3896241717277</ele>
      </trkpt>
      <trkpt lat="36.855914" lon="138.125653">
        <ele>1248.8925135017091</ele>
      </trkpt>
      <trkpt lat="36.856" lon="138.126018">
        <ele>1246.2489219202964</ele>
      </trkpt>
      <trkpt lat="36.856246" lon="138.126014">
        <ele>1246.2041758989926</ele>
      </trkpt>
      <trkpt lat="36.85636" lon="138.126082">
        <ele>1244.0855730472174</ele>
      </trkpt>
      <trkpt lat="36.856547" lon="138.126579">
        <ele>1235.8720381390594</ele>
      </trkpt>
      <trkpt lat="36.856546" lon="138.126858">
        <ele>1237.2108043188236</ele>
      </trkpt>
      <trkpt lat="36.856483" lon="138.127159">
        <ele>1237.8589459785424</ele>
      </trkpt>
      <trkpt lat="36.856519" lon="138.127421">
        <ele>1237.8608889667985</ele>
      </trkpt>
      <trkpt lat="36.856544" lon="138.127426">
        <ele>1237.7555573420273</ele>
      </trkpt>
      <trkpt lat="36.856519" lon="138.127421">
        <ele>1237.8608889667985</ele>
      </trkpt>
      <trkpt lat="36.856696" lon="138.128083">
        <ele>1235.2863282194312</ele>
      </trkpt>
      <trkpt lat="36.857545" lon="138.128378">
        <ele>1217.8874846480633</ele>
      </trkpt>
      <trkpt lat="36.857911" lon="138.128574">
        <ele>1213.7987484174864</ele>
      </trkpt>
      <trkpt lat="36.857963" lon="138.128617">
        <ele>1213.2310803328048</ele>
      </trkpt>
      <trkpt lat="36.857985" lon="138.128669">
        <ele>1212.3621339049446</ele>
      </trkpt>
      <trkpt lat="36.857989" lon="138.128733">
        <ele>1211.2209571308963</ele>
      </trkpt>
      <trkpt lat="36.857967" lon="138.128802">
        <ele>1209.9051517658672</ele>
      </trkpt>
      <trkpt lat="36.857929" lon="138.128842">
        <ele>1209.0458060020849</ele>
      </trkpt>
      <trkpt lat="36.857879" lon="138.128854">
        <ele>1208.8761668665802</ele>
      </trkpt>
      <trkpt lat="36.857596" lon="138.128872">
        <ele>1211.3001096442447</ele>
      </trkpt>
      <trkpt lat="36.857236" lon="138.129301">
        <ele>1208.8978093800863</ele>
      </trkpt>
      <trkpt lat="36.856837" lon="138.129322">
        <ele>1208.9418619128292</ele>
      </trkpt>
      <trkpt lat="36.856773" lon="138.129412">
        <ele>1205.5077670508222</ele>
      </trkpt>
      <trkpt lat="36.856767" lon="138.129557">
        <ele>1200.6472857643842</ele>
      </trkpt>
      <trkpt lat="36.856845" lon="138.129656">
        <ele>1199.1871125461405</ele>
      </trkpt>
      <trkpt lat="36.857184" lon="138.129773">
        <ele>1198.5158326918076</ele>
      </trkpt>
      <trkpt lat="36.857442" lon="138.12973">
        <ele>1196.6990677471945</ele>
      </trkpt>
      <trkpt lat="36.857923" lon="138.130095">
        <ele>1186.247983363457</ele>
      </trkpt>
      <trkpt lat="36.858163" lon="138.130588">
        <ele>1180.8567011180348</ele>
      </trkpt>
      <trkpt lat="36.858635" lon="138.130938">
        <ele>1175.9120640014005</ele>
      </trkpt>
      <trkpt lat="36.858668" lon="138.130997">
        <ele>1175.4653248821533</ele>
      </trkpt>
      <trkpt lat="36.858674" lon="138.131061">
        <ele>1174.6935013131126</ele>
      </trkpt>
      <trkpt lat="36.858657" lon="138.131117">
        <ele>1173.741298179888</ele>
      </trkpt>
      <trkpt lat="36.858628" lon="138.131158">
        <ele>1172.8413326526534</ele>
      </trkpt>
      <trkpt lat="36.858576" lon="138.131182">
        <ele>1171.9969479667027</ele>
      </trkpt>
      <trkpt lat="36.858523" lon="138.131187">
        <ele>1171.526897616231</ele>
      </trkpt>
      <trkpt lat="36.858026" lon="138.131125">
        <ele>1171.6939259377784</ele>
      </trkpt>
      <trkpt lat="36.857734" lon="138.130953">
        <ele>1169.696307391009</ele>
      </trkpt>
      <trkpt lat="36.857081" lon="138.130867">
        <ele>1168.188500665222</ele>
      </trkpt>
      <trkpt lat="36.856917" lon="138.130897">
        <ele>1167.8312811205597</ele>
      </trkpt>
      <trkpt lat="36.856894" lon="138.131037">
        <ele>1164.76495792962</ele>
      </trkpt>
      <trkpt lat="36.856891" lon="138.131055">
        <ele>1164.372076917631</ele>
      </trkpt>
      <trkpt lat="36.857265" lon="138.131343">
        <ele>1158.2131497311798</ele>
      </trkpt>
      <trkpt lat="36.857459" lon="138.131768">
        <ele>1156.253211713723</ele>
      </trkpt>
      <trkpt lat="36.857734" lon="138.132219">
        <ele>1150.832249874516</ele>
      </trkpt>
      <trkpt lat="36.858028" lon="138.132682">
        <ele>1143.9565440607355</ele>
      </trkpt>
      <trkpt lat="36.858119" lon="138.132786">
        <ele>1142.0609943240775</ele>
      </trkpt>
      <trkpt lat="36.858426" lon="138.132986">
        <ele>1135.2758034387425</ele>
      </trkpt>
      <trkpt lat="36.858473" lon="138.133032">
        <ele>1134.3744000226234</ele>
      </trkpt>
      <trkpt lat="36.858501" lon="138.13311">
        <ele>1132.9896764203838</ele>
      </trkpt>
      <trkpt lat="36.858497" lon="138.133169">
        <ele>1131.843611336085</ele>
      </trkpt>
      <trkpt lat="36.858476" lon="138.133225">
        <ele>1130.6570952085995</ele>
      </trkpt>
      <trkpt lat="36.858446" lon="138.133259">
        <ele>1129.7825173926055</ele>
      </trkpt>
      <trkpt lat="36.858388" lon="138.133274">
        <ele>1128.9305743608859</ele>
      </trkpt>
      <trkpt lat="36.858231" lon="138.133233">
        <ele>1128.6996285751013</ele>
      </trkpt>
      <trkpt lat="36.857998" lon="138.133321">
        <ele>1126.4795386310675</ele>
      </trkpt>
      <trkpt lat="36.85768" lon="138.133403">
        <ele>1125.9618659746377</ele>
      </trkpt>
      <trkpt lat="36.857569" lon="138.133284">
        <ele>1127.8162972655778</ele>
      </trkpt>
      <trkpt lat="36.857439" lon="138.133108">
        <ele>1132.585900150867</ele>
      </trkpt>
      <trkpt lat="36.857229" lon="138.133182">
        <ele>1129.9122039859649</ele>
      </trkpt>
      <trkpt lat="36.856927" lon="138.13312">
        <ele>1128.0207047056633</ele>
      </trkpt>
      <trkpt lat="36.856802" lon="138.133083">
        <ele>1126.6366520519323</ele>
      </trkpt>
      <trkpt lat="36.856755" lon="138.133249">
        <ele>1123.7047687180525</ele>
      </trkpt>
      <trkpt lat="36.857116" lon="138.133764">
        <ele>1117.7374239053788</ele>
      </trkpt>
      <trkpt lat="36.857113" lon="138.13378">
        <ele>1117.4559327425438</ele>
      </trkpt>
      <trkpt lat="36.857037" lon="138.134333">
        <ele>1108.4681615716493</ele>
      </trkpt>
      <trkpt lat="36.857047" lon="138.134536">
        <ele>1105.1601232766648</ele>
      </trkpt>
      <trkpt lat="36.857079" lon="138.134639">
        <ele>1102.9510079982929</ele>
      </trkpt>
      <trkpt lat="36.85717" lon="138.134702">
        <ele>1100.5009040046864</ele>
      </trkpt>
      <trkpt lat="36.857405" lon="138.134761">
        <ele>1096.9240738858866</ele>
      </trkpt>
      <trkpt lat="36.857472" lon="138.134831">
        <ele>1095.3654681724558</ele>
      </trkpt>
      <trkpt lat="36.857525" lon="138.134913">
        <ele>1094.0355575671902</ele>
      </trkpt>
      <trkpt lat="36.857564" lon="138.135032">
        <ele>1092.3349321556282</ele>
      </trkpt>
      <trkpt lat="36.857525" lon="138.135151">
        <ele>1090.307275501218</ele>
      </trkpt>
      <trkpt lat="36.857471" lon="138.135183">
        <ele>1089.4832109288318</ele>
      </trkpt>
      <trkpt lat="36.857418" lon="138.135169">
        <ele>1089.3957303978145</ele>
      </trkpt>
      <trkpt lat="36.857302" lon="138.13509">
        <ele>1090.5505100218295</ele>
      </trkpt>
      <trkpt lat="36.857232" lon="138.13509">
        <ele>1090.831597527461</ele>
      </trkpt>
      <trkpt lat="36.856992" lon="138.135264">
        <ele>1087.9043367528025</ele>
      </trkpt>
      <trkpt lat="36.856857" lon="138.135332">
        <ele>1086.5876490482838</ele>
      </trkpt>
      <trkpt lat="36.856732" lon="138.135356">
        <ele>1085.9195086532188</ele>
      </trkpt>
      <trkpt lat="36.856601" lon="138.135267">
        <ele>1087.5178454441234</ele>
      </trkpt>
      <trkpt lat="36.85652" lon="138.135116">
        <ele>1089.3838417427228</ele>
      </trkpt>
      <trkpt lat="36.856346" lon="138.134968">
        <ele>1087.060850726798</ele>
      </trkpt>
      <trkpt lat="36.856225" lon="138.134906">
        <ele>1085.0857596908663</ele>
      </trkpt>
      <trkpt lat="36.855839" lon="138.13458">
        <ele>1083.7903957694393</ele>
      </trkpt>
      <trkpt lat="36.85561" lon="138.134249">
        <ele>1088.8458393358665</ele>
      </trkpt>
      <trkpt lat="36.85553" lon="138.13424">
        <ele>1088.2373366534769</ele>
      </trkpt>
      <trkpt lat="36.855481" lon="138.1343">
        <ele>1086.8229236174193</ele>
      </trkpt>
      <trkpt lat="36.855456" lon="138.134418">
        <ele>1084.9492622815683</ele>
      </trkpt>
      <trkpt lat="36.855541" lon="138.134651">
        <ele>1081.6612717049977</ele>
      </trkpt>
      <trkpt lat="36.855597" lon="138.134806">
        <ele>1079.8427678045182</ele>
      </trkpt>
      <trkpt lat="36.855671" lon="138.135096">
        <ele>1077.8507416185791</ele>
      </trkpt>
      <trkpt lat="36.8557" lon="138.135517">
        <ele>1076.837566242595</ele>
      </trkpt>
      <trkpt lat="36.855849" lon="138.135883">
        <ele>1073.371915570088</ele>
      </trkpt>
      <trkpt lat="36.85587" lon="138.136416">
        <ele>1067.2654781080323</ele>
      </trkpt>
      <trkpt lat="36.855855" lon="138.136773">
        <ele>1058.9631921083474</ele>
      </trkpt>
      <trkpt lat="36.855876" lon="138.136924">
        <ele>1054.6844298866101</ele>
      </trkpt>
      <trkpt lat="36.855965" lon="138.137135">
        <ele>1050.71006642797</ele>
      </trkpt>
      <trkpt lat="36.855985" lon="138.137251">
        <ele>1049.2799808017996</ele>
      </trkpt>
      <trkpt lat="36.855919" lon="138.137424">
        <ele>1047.0569046118308</ele>
      </trkpt>
      <trkpt lat="36.855803" lon="138.137476">
        <ele>1046.0043895418776</ele>
      </trkpt>
      <trkpt lat="36.855711" lon="138.137466">
        <ele>1046.358199798294</ele>
      </trkpt>
      <trkpt lat="36.85521" lon="138.13709">
        <ele>1053.832543729386</ele>
      </trkpt>
      <trkpt lat="36.854888" lon="138.136693">
        <ele>1055.300032593699</ele>
      </trkpt>
      <trkpt lat="36.854721" lon="138.136614">
        <ele>1053.6722339789562</ele>
      </trkpt>
      <trkpt lat="36.854396" lon="138.136461">
        <ele>1048.1690248040486</ele>
      </trkpt>
      <trkpt lat="36.854224" lon="138.136126">
        <ele>1047.55573079526</ele>
      </trkpt>
      <trkpt lat="36.854137" lon="138.136006">
        <ele>1046.5663996699295</ele>
      </trkpt>
      <trkpt lat="36.853375" lon="138.135334">
        <ele>1037.406182882004</ele>
      </trkpt>
      <trkpt lat="36.853167" lon="138.135245">
        <ele>1034.4027241271342</ele>
      </trkpt>
      <trkpt lat="36.853032" lon="138.13527">
        <ele>1031.7874871111485</ele>
      </trkpt>
      <trkpt lat="36.852995" lon="138.135352">
        <ele>1029.7575592919727</ele>
      </trkpt>
      <trkpt lat="36.853007" lon="138.135458">
        <ele>1027.5522708531341</ele>
      </trkpt>
      <trkpt lat="36.853233" lon="138.135592">
        <ele>1029.8589519180416</ele>
      </trkpt>
      <trkpt lat="36.853338" lon="138.13576">
        <ele>1030.4017831811323</ele>
      </trkpt>
      <trkpt lat="36.853433" lon="138.135989">
        <ele>1030.2398773892787</ele>
      </trkpt>
      <trkpt lat="36.853466" lon="138.136202">
        <ele>1028.4974883470175</ele>
      </trkpt>
      <trkpt lat="36.853483" lon="138.136388">
        <ele>1026.5043132026685</ele>
      </trkpt>
      <trkpt lat="36.853297" lon="138.137178">
        <ele>1010.5959206292418</ele>
      </trkpt>
      <trkpt lat="36.853265" lon="138.137523">
        <ele>1009.2128411519934</ele>
      </trkpt>
      <trkpt lat="36.853302" lon="138.137881">
        <ele>1007.9200745045218</ele>
      </trkpt>
      <trkpt lat="36.85337" lon="138.138193">
        <ele>1004.1171537490574</ele>
      </trkpt>
      <trkpt lat="36.853387" lon="138.138271">
        <ele>1003.0991665108336</ele>
      </trkpt>
      <trkpt lat="36.853561" lon="138.138613">
        <ele>1000.8048982511282</ele>
      </trkpt>
      <trkpt lat="36.853587" lon="138.138796">
        <ele>999.4333717323972</ele>
      </trkpt>
      <trkpt lat="36.85357" lon="138.138964">
        <ele>997.9692784458408</ele>
      </trkpt>
      <trkpt lat="36.853501" lon="138.139142">
        <ele>996.0802942136772</ele>
      </trkpt>
      <trkpt lat="36.853453" lon="138.139409">
        <ele>994.063418058469</ele>
      </trkpt>
      <trkpt lat="36.853467" lon="138.139896">
        <ele>989.774642417487</ele>
      </trkpt>
      <trkpt lat="36.853445" lon="138.139946">
        <ele>988.9015628342986</ele>
      </trkpt>
      <trkpt lat="36.85342" lon="138.139967">
        <ele>988.3048189235624</ele>
      </trkpt>
      <trkpt lat="36.853372" lon="138.139985">
        <ele>987.5097180565697</ele>
      </trkpt>
      <trkpt lat="36.853335" lon="138.139988">
        <ele>987.1195650068337</ele>
      </trkpt>
      <trkpt lat="36.853296" lon="138.13997">
        <ele>987.1034767126644</ele>
      </trkpt>
      <trkpt lat="36.853257" lon="138.139928">
        <ele>987.4151246629663</ele>
      </trkpt>
      <trkpt lat="36.853212" lon="138.139846">
        <ele>988.085783617344</ele>
      </trkpt>
      <trkpt lat="36.853209" lon="138.139813">
        <ele>988.389520925678</ele>
      </trkpt>
      <trkpt lat="36.853231" lon="138.139597">
        <ele>990.3763207479016</ele>
      </trkpt>
      <trkpt lat="36.853218" lon="138.1395">
        <ele>990.7799631412236</ele>
      </trkpt>
      <trkpt lat="36.85316" lon="138.139204">
        <ele>990.2958862807577</ele>
      </trkpt>
      <trkpt lat="36.853141" lon="138.138903">
        <ele>990.1680086904305</ele>
      </trkpt>
      <trkpt lat="36.853064" lon="138.138495">
        <ele>990.941937193787</ele>
      </trkpt>
      <trkpt lat="36.852969" lon="138.138388">
        <ele>989.4181860001628</ele>
      </trkpt>
      <trkpt lat="36.852651" lon="138.138198">
        <ele>983.0550224960155</ele>
      </trkpt>
      <trkpt lat="36.852506" lon="138.138195">
        <ele>980.8398208540691</ele>
      </trkpt>
      <trkpt lat="36.852454" lon="138.138377">
        <ele>979.030183219957</ele>
      </trkpt>
      <trkpt lat="36.852523" lon="138.138603">
        <ele>978.4167687997697</ele>
      </trkpt>
      <trkpt lat="36.852669" lon="138.138828">
        <ele>978.959372623237</ele>
      </trkpt>
      <trkpt lat="36.852754" lon="138.139046">
        <ele>978.5337719563508</ele>
      </trkpt>
      <trkpt lat="36.852755" lon="138.139279">
        <ele>977.0750042952081</ele>
      </trkpt>
      <trkpt lat="36.852626" lon="138.139826">
        <ele>971.7376778063041</ele>
      </trkpt>
      <trkpt lat="36.85236" lon="138.140373">
        <ele>966.3156035405684</ele>
      </trkpt>
      <trkpt lat="36.852085" lon="138.140899">
        <ele>964.1153194795093</ele>
      </trkpt>
      <trkpt lat="36.852048" lon="138.140987">
        <ele>963.098778971844</ele>
      </trkpt>
      <trkpt lat="36.851981" lon="138.141149">
        <ele>960.4662517907573</ele>
      </trkpt>
      <trkpt lat="36.85181" lon="138.141499">
        <ele>953.2787803380849</ele>
      </trkpt>
      <trkpt lat="36.851467" lon="138.142873">
        <ele>944.0530711540971</ele>
      </trkpt>
      <trkpt lat="36.851484" lon="138.143044">
        <ele>944.6900418460372</ele>
      </trkpt>
      <trkpt lat="36.851655" lon="138.143284">
        <ele>943.6122872204982</ele>
      </trkpt>
      <trkpt lat="36.851845" lon="138.143463">
        <ele>937.6852804595612</ele>
      </trkpt>
      <trkpt lat="36.852032" lon="138.143595">
        <ele>933.2727223847071</ele>
      </trkpt>
      <trkpt lat="36.852186" lon="138.14385">
        <ele>931.615727866395</ele>
      </trkpt>
      <trkpt lat="36.852461" lon="138.14405">
        <ele>932.5983424937001</ele>
      </trkpt>
      <trkpt lat="36.85284" lon="138.144593">
        <ele>923.5210539695457</ele>
      </trkpt>
      <trkpt lat="36.853038" lon="138.14475">
        <ele>920.1399113306315</ele>
      </trkpt>
      <trkpt lat="36.853097" lon="138.144882">
        <ele>919.4518936916501</ele>
      </trkpt>
      <trkpt lat="36.852977" lon="138.144995">
        <ele>918.9995726933482</ele>
      </trkpt>
      <trkpt lat="36.852162" lon="138.144858">
        <ele>930.2254259688789</ele>
      </trkpt>
      <trkpt lat="36.85199" lon="138.144775">
        <ele>927.4743138985918</ele>
      </trkpt>
      <trkpt lat="36.851818" lon="138.144378">
        <ele>925.890505848356</ele>
      </trkpt>
      <trkpt lat="36.851681" lon="138.144314">
        <ele>924.7408117878776</ele>
      </trkpt>
      <trkpt lat="36.85145" lon="138.144353">
        <ele>917.7199831381358</ele>
      </trkpt>
      <trkpt lat="36.851354" lon="138.14455">
        <ele>910.6974121002954</ele>
      </trkpt>
      <trkpt lat="36.851441" lon="138.144772">
        <ele>910.4580262661245</ele>
      </trkpt>
      <trkpt lat="36.851547" lon="138.144942">
        <ele>911.3894934200907</ele>
      </trkpt>
      <trkpt lat="36.851567" lon="138.145086">
        <ele>909.4679835833489</ele>
      </trkpt>
      <trkpt lat="36.851589" lon="138.145543">
        <ele>905.1698379597632</ele>
      </trkpt>
      <trkpt lat="36.851544" lon="138.145802">
        <ele>900.3925759735298</ele>
      </trkpt>
      <trkpt lat="36.851629" lon="138.146052">
        <ele>901.806555988178</ele>
      </trkpt>
      <trkpt lat="36.851647" lon="138.146065">
        <ele>902.3214249123165</ele>
      </trkpt>
      <trkpt lat="36.851888" lon="138.146242">
        <ele>903.1237902453414</ele>
      </trkpt>
      <trkpt lat="36.852101" lon="138.146427">
        <ele>898.5607360869205</ele>
      </trkpt>
      <trkpt lat="36.852196" lon="138.14676">
        <ele>890.7102184263518</ele>
      </trkpt>
      <trkpt lat="36.852351" lon="138.147593">
        <ele>873.0421382776906</ele>
      </trkpt>
      <trkpt lat="36.852513" lon="138.147908">
        <ele>875.0257030296196</ele>
      </trkpt>
      <trkpt lat="36.852797" lon="138.148197">
        <ele>877.2862705060155</ele>
      </trkpt>
      <trkpt lat="36.852912" lon="138.148368">
        <ele>877.3253922744975</ele>
      </trkpt>
      <trkpt lat="36.852999" lon="138.148855">
        <ele>869.1443679104681</ele>
      </trkpt>
      <trkpt lat="36.852846" lon="138.148905">
        <ele>867.6556777333524</ele>
      </trkpt>
      <trkpt lat="36.852532" lon="138.149044">
        <ele>869.927024589215</ele>
      </trkpt>
      <trkpt lat="36.8523" lon="138.149094">
        <ele>867.6180495319732</ele>
      </trkpt>
      <trkpt lat="36.852005" lon="138.149104">
        <ele>858.6132336428642</ele>
      </trkpt>
      <trkpt lat="36.85174" lon="138.149084">
        <ele>851.9499994168502</ele>
      </trkpt>
      <trkpt lat="36.851647" lon="138.148945">
        <ele>852.8004100922042</ele>
      </trkpt>
      <trkpt lat="36.851622" lon="138.148881">
        <ele>853.337229702293</ele>
      </trkpt>
      <trkpt lat="36.851552" lon="138.148702">
        <ele>854.3566110590731</ele>
      </trkpt>
      <trkpt lat="36.851536" lon="138.148119">
        <ele>858.1443599828932</ele>
      </trkpt>
      <trkpt lat="36.851493" lon="138.147787">
        <ele>860.3320667082182</ele>
      </trkpt>
      <trkpt lat="36.851354" lon="138.147715">
        <ele>857.4347469112843</ele>
      </trkpt>
      <trkpt lat="36.851245" lon="138.147838">
        <ele>851.6033838650221</ele>
      </trkpt>
      <trkpt lat="36.85132" lon="138.148133">
        <ele>851.9947032185803</ele>
      </trkpt>
      <trkpt lat="36.85133" lon="138.148323">
        <ele>851.9189731920815</ele>
      </trkpt>
      <trkpt lat="36.851269" lon="138.14853">
        <ele>851.0458340933654</ele>
      </trkpt>
      <trkpt lat="36.851174" lon="138.148734">
        <ele>850.1160366027161</ele>
      </trkpt>
      <trkpt lat="36.850633" lon="138.149281">
        <ele>839.6084554336712</ele>
      </trkpt>
      <trkpt lat="36.849972" lon="138.150343">
        <ele>823.4968606170014</ele>
      </trkpt>
      <trkpt lat="36.84975" lon="138.15107">
        <ele>816.7406153646341</ele>
      </trkpt>
      <trkpt lat="36.849528" lon="138.151756">
        <ele>811.6886390136759</ele>
      </trkpt>
      <trkpt lat="36.849439" lon="138.152068">
        <ele>809.3228050655791</ele>
      </trkpt>
      <trkpt lat="36.849418" lon="138.152141">
        <ele>808.9082185336938</ele>
      </trkpt>
      <trkpt lat="36.84944" lon="138.15226">
        <ele>810.8284872925262</ele>
      </trkpt>
      <trkpt lat="36.849515" lon="138.152378">
        <ele>813.3103585342757</ele>
      </trkpt>
      <trkpt lat="36.849628" lon="138.152405">
        <ele>814.5502036744715</ele>
      </trkpt>
      <trkpt lat="36.850088" lon="138.152162">
        <ele>810.9294672180372</ele>
      </trkpt>
      <trkpt lat="36.850293" lon="138.152103">
        <ele>803.9674289200929</ele>
      </trkpt>
      <trkpt lat="36.850463" lon="138.152286">
        <ele>794.4217782168982</ele>
      </trkpt>
      <trkpt lat="36.85051" lon="138.152493">
        <ele>793.0360881584659</ele>
      </trkpt>
      <trkpt lat="36.850384" lon="138.152823">
        <ele>791.678937749345</ele>
      </trkpt>
      <trkpt lat="36.850421" lon="138.153019">
        <ele>792.6105858352021</ele>
      </trkpt>
      <trkpt lat="36.850551" lon="138.153319">
        <ele>795.9975390280805</ele>
      </trkpt>
      <trkpt lat="36.850621" lon="138.153852">
        <ele>792.3830768363089</ele>
      </trkpt>
      <trkpt lat="36.850627" lon="138.153894">
        <ele>792.335698976822</ele>
      </trkpt>
      <trkpt lat="36.850558" lon="138.154023">
        <ele>787.7295870944484</ele>
      </trkpt>
      <trkpt lat="36.850064" lon="138.15443">
        <ele>767.0687856567617</ele>
      </trkpt>
      <trkpt lat="36.850012" lon="138.154832">
        <ele>767.2554487127014</ele>
      </trkpt>
      <trkpt lat="36.849876" lon="138.155192">
        <ele>766.6206116307458</ele>
      </trkpt>
      <trkpt lat="36.849803" lon="138.155291">
        <ele>765.3818618789188</ele>
      </trkpt>
      <trkpt lat="36.849594" lon="138.155576">
        <ele>763.9311869182171</ele>
      </trkpt>
      <trkpt lat="36.849196" lon="138.155948">
        <ele>758.6678306095937</ele>
      </trkpt>
      <trkpt lat="36.848771" lon="138.156451">
        <ele>752.6712050739914</ele>
      </trkpt>
      <trkpt lat="36.848645" lon="138.156626">
        <ele>748.6175139918647</ele>
      </trkpt>
      <trkpt lat="36.84855" lon="138.156823">
        <ele>748.4562061234436</ele>
      </trkpt>
      <trkpt lat="36.848488" lon="138.157004">
        <ele>749.4746470614849</ele>
      </trkpt>
      <trkpt lat="36.848454" lon="138.157171">
        <ele>750.0522047627853</ele>
      </trkpt>
      <trkpt lat="36.848443" lon="138.157294">
        <ele>750.0940390177115</ele>
      </trkpt>
      <trkpt lat="36.848404" lon="138.157718">
        <ele>746.4916677589931</ele>
      </trkpt>
      <trkpt lat="36.848407" lon="138.157829">
        <ele>744.4004739812051</ele>
      </trkpt>
      <trkpt lat="36.848468" lon="138.158432">
        <ele>735.4704822201512</ele>
      </trkpt>
      <trkpt lat="36.848493" lon="138.158559">
        <ele>734.6661606422591</ele>
      </trkpt>
      <trkpt lat="36.848585" lon="138.158832">
        <ele>734.820165669343</ele>
      </trkpt>
      <trkpt lat="36.848607" lon="138.158928">
        <ele>733.7049877785834</ele>
      </trkpt>
      <trkpt lat="36.848657" lon="138.159215">
        <ele>728.9225831681102</ele>
      </trkpt>
      <trkpt lat="36.848672" lon="138.159352">
        <ele>727.290537570499</ele>
      </trkpt>
      <trkpt lat="36.848671" lon="138.159401">
        <ele>726.6949018097662</ele>
      </trkpt>
      <trkpt lat="36.848621" lon="138.159809">
        <ele>722.9176071317218</ele>
      </trkpt>
      <trkpt lat="36.848626" lon="138.159843">
        <ele>722.7627774698736</ele>
      </trkpt>
      <trkpt lat="36.848738" lon="138.160307">
        <ele>722.5939670828183</ele>
      </trkpt>
      <trkpt lat="36.84869" lon="138.161544">
        <ele>719.1239027923034</ele>
      </trkpt>
      <trkpt lat="36.848706" lon="138.161541">
        <ele>719.5147382671843</ele>
      </trkpt>
      <trkpt lat="36.84869" lon="138.161544">
        <ele>719.1239027923034</ele>
      </trkpt>
      <trkpt lat="36.8487" lon="138.161819">
        <ele>720.518619645783</ele>
      </trkpt>
      <trkpt lat="36.848727" lon="138.161928">
        <ele>721.2852234419897</ele>
      </trkpt>
      <trkpt lat="36.848776" lon="138.16206">
        <ele>721.4528291830686</ele>
      </trkpt>
      <trkpt lat="36.848834" lon="138.162147">
        <ele>721.5820282599053</ele>
      </trkpt>
      <trkpt lat="36.849242" lon="138.162564">
        <ele>723.2373964593934</ele>
      </trkpt>
      <trkpt lat="36.849294" lon="138.162639">
        <ele>723.5747636017168</ele>
      </trkpt>
      <trkpt lat="36.849337" lon="138.16273">
        <ele>723.8006925340289</ele>
      </trkpt>
      <trkpt lat="36.84947" lon="138.163126">
        <ele>723.1373178724344</ele>
      </trkpt>
      <trkpt lat="36.849512" lon="138.163205">
        <ele>722.8494445369548</ele>
      </trkpt>
      <trkpt lat="36.849644" lon="138.163379">
        <ele>721.5851868374743</ele>
      </trkpt>
      <trkpt lat="36.84985" lon="138.163649">
        <ele>720.1941002589442</ele>
      </trkpt>
      <trkpt lat="36.850033" lon="138.163923">
        <ele>719.7250585599811</ele>
      </trkpt>
      <trkpt lat="36.850148" lon="138.164172">
        <ele>719.8483096104702</ele>
      </trkpt>
      <trkpt lat="36.850199" lon="138.164383">
        <ele>720.4658442315734</ele>
      </trkpt>
      <trkpt lat="36.850262" lon="138.164747">
        <ele>721.1206556569159</ele>
      </trkpt>
      <trkpt lat="36.850311" lon="138.164942">
        <ele>721.4790751733957</ele>
      </trkpt>
      <trkpt lat="36.850377" lon="138.165135">
        <ele>721.6341687188453</ele>
      </trkpt>
    </trkseg>
  </trk>
</gpx>
