<?xml version="1.0" encoding="UTF-8"?>
<gpx creator="https://gpx.studio" version="1.1" xmlns="http://www.topografix.com/GPX/1/1" xmlns:xsi="http://www.w3.org/2001/XMLSchema-instance" xsi:schemaLocation="http://www.topografix.com/GPX/1/1 http://www.topografix.com/GPX/1/1/gpx.xsd http://www.garmin.com/xmlschemas/GpxExtensions/v3 http://www.garmin.com/xmlschemas/GpxExtensionsv3.xsd http://www.garmin.com/xmlschemas/TrackPointExtension/v1 http://www.garmin.com/xmlschemas/TrackPointExtensionv1.xsd http://www.garmin.com/xmlschemas/PowerExtension/v1 http://www.garmin.com/xmlschemas/PowerExtensionv1.xsd http://www.topografix.com/GPX/gpx_style/0/2 http://www.topografix.com/GPX/gpx_style/0/2/gpx_style.xsd" xmlns:gpxtpx="http://www.garmin.com/xmlschemas/TrackPointExtension/v1" xmlns:gpxx="http://www.garmin.com/xmlschemas/GpxExtensions/v3" xmlns:gpxpx="http://www.garmin.com/xmlschemas/PowerExtension/v1" xmlns:gpx_style="http://www.topografix.com/GPX/gpx_style/0/2">
  <metadata>
    <name>池の平ロード</name>
    <author>
      <name>gpx.studio</name>
      <link href="https://gpx.studio"/>
    </author>
  </metadata>
  <trk>
    <name>池の平ロード</name>
    <extensions>
      <gpx_style:line>
        <gpx_style:color>0095b3</gpx_style:color>
        <gpx_style:opacity>1</gpx_style:opacity>
        <gpx_style:width>6</gpx_style:width>
      </gpx_style:line>
    </extensions>
    <trkseg>
      <trkpt lat="36.86846" lon="138.17711">
        <ele>748.0942428443585</ele>
      </trkpt>
      <trkpt lat="36.86818" lon="138.17698">
        <ele>748.924967003894</ele>
      </trkpt>
      <trkpt lat="36.86799" lon="138.17689">
        <ele>749.5725498242679</ele>
      </trkpt>
      <trkpt lat="36.86779" lon="138.17674">
        <ele>749.3687894351324</ele>
      </trkpt>
      <trkpt lat="36.86761" lon="138.17664">
        <ele>748.9106076957967</ele>
      </trkpt>
      <trkpt lat="36.86753" lon="138.17661">
        <ele>748.845022313057</ele>
      </trkpt>
      <trkpt lat="36.86736" lon="138.17659">
        <ele>749.2220894656152</ele>
      </trkpt>
      <trkpt lat="36.86717" lon="138.17661">
        <ele>749.5729617977815</ele>
      </trkpt>
      <trkpt lat="36.86673" lon="138.17677">
        <ele>747.6659620407505</ele>
      </trkpt>
      <trkpt lat="36.86661" lon="138.17679">
        <ele>747.0029191485297</ele>
      </trkpt>
      <trkpt lat="36.86647" lon="138.17677">
        <ele>746.7419434688994</ele>
      </trkpt>
      <trkpt lat="36.86601" lon="138.17653">
        <ele>747.1033445041165</ele>
      </trkpt>
      <trkpt lat="36.86526" lon="138.17613">
        <ele>748.8215981566356</ele>
      </trkpt>
      <trkpt lat="36.86499" lon="138.17597">
        <ele>745.734213143845</ele>
      </trkpt>
      <trkpt lat="36.86489" lon="138.17589">
        <ele>745.4295854937395</ele>
      </trkpt>
      <trkpt lat="36.86474" lon="138.17572">
        <ele>746.8095647271496</ele>
      </trkpt>
      <trkpt lat="36.86472" lon="138.17577">
        <ele>746.565259072554</ele>
      </trkpt>
      <trkpt lat="36.86473" lon="138.17574">
        <ele>746.7150067165505</ele>
      </trkpt>
      <trkpt lat="36.8652" lon="138.17453">
        <ele>746.4426043516495</ele>
      </trkpt>
      <trkpt lat="36.8654" lon="138.17406">
        <ele>747.7823395845487</ele>
      </trkpt>
      <trkpt lat="36.86555" lon="138.17366">
        <ele>750.7255428363108</ele>
      </trkpt>
      <trkpt lat="36.86564" lon="138.17326">
        <ele>753.4084510880397</ele>
      </trkpt>
      <trkpt lat="36.86566" lon="138.17311">
        <ele>754.2431129725733</ele>
      </trkpt>
      <trkpt lat="36.86565" lon="138.173">
        <ele>754.6265503437935</ele>
      </trkpt>
      <trkpt lat="36.86561" lon="138.17278">
        <ele>755.3625264025629</ele>
      </trkpt>
      <trkpt lat="36.86559" lon="138.17261">
        <ele>756.5942064032273</ele>
      </trkpt>
      <trkpt lat="36.86563" lon="138.17255">
        <ele>756.9866971414216</ele>
      </trkpt>
      <trkpt lat="36.86569" lon="138.17251">
        <ele>756.7971129667252</ele>
      </trkpt>
      <trkpt lat="36.86591" lon="138.17236">
        <ele>754.9366210571966</ele>
      </trkpt>
      <trkpt lat="36.8661" lon="138.17223">
        <ele>756.5690693959601</ele>
      </trkpt>
      <trkpt lat="36.86618" lon="138.1722">
        <ele>757.9935628506369</ele>
      </trkpt>
      <trkpt lat="36.86638" lon="138.17214">
        <ele>761.8725176217733</ele>
      </trkpt>
      <trkpt lat="36.86647" lon="138.17212">
        <ele>762.9356579642749</ele>
      </trkpt>
      <trkpt lat="36.86681" lon="138.17211">
        <ele>765.8127102307002</ele>
      </trkpt>
      <trkpt lat="36.86788" lon="138.1722">
        <ele>767.0163840000519</ele>
      </trkpt>
      <trkpt lat="36.86811" lon="138.17221">
        <ele>766.4256752393226</ele>
      </trkpt>
      <trkpt lat="36.86848" lon="138.17234">
        <ele>767.8221699940983</ele>
      </trkpt>
      <trkpt lat="36.86881" lon="138.17245">
        <ele>769.0669439426812</ele>
      </trkpt>
      <trkpt lat="36.86943" lon="138.1726">
        <ele>764.4311407524017</ele>
      </trkpt>
      <trkpt lat="36.87002" lon="138.17274">
        <ele>765.9492869094599</ele>
      </trkpt>
      <trkpt lat="36.87077" lon="138.173">
        <ele>761.3577093197742</ele>
      </trkpt>
      <trkpt lat="36.87097" lon="138.17305">
        <ele>760.9134912692884</ele>
      </trkpt>
      <trkpt lat="36.87121" lon="138.17308">
        <ele>759.8871344123972</ele>
      </trkpt>
      <trkpt lat="36.87144" lon="138.17309">
        <ele>758.8082182674243</ele>
      </trkpt>
      <trkpt lat="36.87144" lon="138.17309">
        <ele>758.8082182674243</ele>
      </trkpt>
      <trkpt lat="36.8716" lon="138.17311">
        <ele>757.395613231674</ele>
      </trkpt>
      <trkpt lat="36.87157" lon="138.17358">
        <ele>754.4515273202921</ele>
      </trkpt>
      <trkpt lat="36.87155" lon="138.17402">
        <ele>753.7408310358688</ele>
      </trkpt>
      <trkpt lat="36.87153" lon="138.17456">
        <ele>750.5159454132906</ele>
      </trkpt>
      <trkpt lat="36.87149" lon="138.17547">
        <ele>743.8429421287185</ele>
      </trkpt>
      <trkpt lat="36.87132" lon="138.17971">
        <ele>727.8426463712942</ele>
      </trkpt>
      <trkpt lat="36.87133" lon="138.17972">
        <ele>727.670794510935</ele>
      </trkpt>
      <trkpt lat="36.87111" lon="138.17957">
        <ele>731.0410404065633</ele>
      </trkpt>
      <trkpt lat="36.87093" lon="138.17941">
        <ele>732.2289418020137</ele>
      </trkpt>
      <trkpt lat="36.87035" lon="138.17888">
        <ele>736.1622177535942</ele>
      </trkpt>
      <trkpt lat="36.86992" lon="138.17845">
        <ele>739.9925079921004</ele>
      </trkpt>
      <trkpt lat="36.86895" lon="138.17751">
        <ele>747.0386683964646</ele>
      </trkpt>
      <trkpt lat="36.86869" lon="138.17726">
        <ele>747.8516594336376</ele>
      </trkpt>
      <trkpt lat="36.86852" lon="138.17715">
        <ele>747.9562230671405</ele>
      </trkpt>
      <trkpt lat="36.86846" lon="138.17711">
        <ele>748.0942428443585</ele>
      </trkpt>
    </trkseg>
  </trk>
</gpx>
