<?xml version="1.0" encoding="UTF-8"?>
<gpx creator="https://gpx.studio" version="1.1" xmlns="http://www.topografix.com/GPX/1/1" xmlns:xsi="http://www.w3.org/2001/XMLSchema-instance" xsi:schemaLocation="http://www.topografix.com/GPX/1/1 http://www.topografix.com/GPX/1/1/gpx.xsd http://www.garmin.com/xmlschemas/GpxExtensions/v3 http://www.garmin.com/xmlschemas/GpxExtensionsv3.xsd http://www.garmin.com/xmlschemas/TrackPointExtension/v1 http://www.garmin.com/xmlschemas/TrackPointExtensionv1.xsd http://www.garmin.com/xmlschemas/PowerExtension/v1 http://www.garmin.com/xmlschemas/PowerExtensionv1.xsd http://www.topografix.com/GPX/gpx_style/0/2 http://www.topografix.com/GPX/gpx_style/0/2/gpx_style.xsd" xmlns:gpxtpx="http://www.garmin.com/xmlschemas/TrackPointExtension/v1" xmlns:gpxx="http://www.garmin.com/xmlschemas/GpxExtensions/v3" xmlns:gpxpx="http://www.garmin.com/xmlschemas/PowerExtension/v1" xmlns:gpx_style="http://www.topografix.com/GPX/gpx_style/0/2">
  <metadata>
    <name>野尻湖一周ロード</name>
    <author>
      <name>gpx.studio</name>
      <link href="https://gpx.studio"/>
    </author>
  </metadata>
  <trk>
    <name>野尻湖一周ロード</name>
    <extensions>
      <gpx_style:line>
        <gpx_style:color>ff007b</gpx_style:color>
        <gpx_style:opacity>1</gpx_style:opacity>
        <gpx_style:width>6</gpx_style:width>
      </gpx_style:line>
    </extensions>
    <trkseg>
      <trkpt lat="36.836877" lon="138.211881">
        <ele>661.5717428021072</ele>
      </trkpt>
      <trkpt lat="36.836893" lon="138.21144">
        <ele>659.0110282778206</ele>
      </trkpt>
      <trkpt lat="36.83694" lon="138.210989">
        <ele>658.8565520869106</ele>
      </trkpt>
      <trkpt lat="36.836942" lon="138.210807">
        <ele>658.9253312379128</ele>
      </trkpt>
      <trkpt lat="36.836925" lon="138.210663">
        <ele>658.8943834179684</ele>
      </trkpt>
      <trkpt lat="36.836911" lon="138.210609">
        <ele>658.956445463032</ele>
      </trkpt>
      <trkpt lat="36.836882" lon="138.210496">
        <ele>659.3435059741577</ele>
      </trkpt>
      <trkpt lat="36.836816" lon="138.210345">
        <ele>660.5580984771858</ele>
      </trkpt>
      <trkpt lat="36.836718" lon="138.210185">
        <ele>661.91393802689</ele>
      </trkpt>
      <trkpt lat="36.83656" lon="138.20997">
        <ele>662.6465864382104</ele>
      </trkpt>
      <trkpt lat="36.836475" lon="138.209846">
        <ele>662.8298380766541</ele>
      </trkpt>
      <trkpt lat="36.836343" lon="138.209616">
        <ele>662.7737272138172</ele>
      </trkpt>
      <trkpt lat="36.836202" lon="138.209257">
        <ele>664.5981829166567</ele>
      </trkpt>
      <trkpt lat="36.836077" lon="138.20894">
        <ele>664.0363239781199</ele>
      </trkpt>
      <trkpt lat="36.836" lon="138.208788">
        <ele>663.0458679584216</ele>
      </trkpt>
      <trkpt lat="36.835918" lon="138.208656">
        <ele>661.9591950957173</ele>
      </trkpt>
      <trkpt lat="36.835824" lon="138.208554">
        <ele>660.5554397452562</ele>
      </trkpt>
      <trkpt lat="36.835697" lon="138.208451">
        <ele>658.8698557371855</ele>
      </trkpt>
      <trkpt lat="36.835449" lon="138.208302">
        <ele>657.0317856448164</ele>
      </trkpt>
      <trkpt lat="36.834657" lon="138.207854">
        <ele>658.1149865507541</ele>
      </trkpt>
      <trkpt lat="36.834667" lon="138.207841">
        <ele>658.103248922015</ele>
      </trkpt>
      <trkpt lat="36.834657" lon="138.207854">
        <ele>658.1149865507541</ele>
      </trkpt>
      <trkpt lat="36.834226" lon="138.207951">
        <ele>658.7983940096117</ele>
      </trkpt>
      <trkpt lat="36.834065" lon="138.208004">
        <ele>659.4676565581478</ele>
      </trkpt>
      <trkpt lat="36.833702" lon="138.208065">
        <ele>658.9171095066874</ele>
      </trkpt>
      <trkpt lat="36.833588" lon="138.208064">
        <ele>658.5781724907465</ele>
      </trkpt>
      <trkpt lat="36.833389" lon="138.208013">
        <ele>657.9989206291516</ele>
      </trkpt>
      <trkpt lat="36.833157" lon="138.20792">
        <ele>658.2144779650637</ele>
      </trkpt>
      <trkpt lat="36.832696" lon="138.207705">
        <ele>658.6668616862128</ele>
      </trkpt>
      <trkpt lat="36.832381" lon="138.207511">
        <ele>659.2085190578837</ele>
      </trkpt>
      <trkpt lat="36.831617" lon="138.207084">
        <ele>658.4086684846164</ele>
      </trkpt>
      <trkpt lat="36.830382" lon="138.206365">
        <ele>660.5140152888839</ele>
      </trkpt>
      <trkpt lat="36.829345" lon="138.205803">
        <ele>662.3607794795982</ele>
      </trkpt>
      <trkpt lat="36.828873" lon="138.205591">
        <ele>667.2836469725762</ele>
      </trkpt>
      <trkpt lat="36.828432" lon="138.205447">
        <ele>670.3420252600322</ele>
      </trkpt>
      <trkpt lat="36.828342" lon="138.205397">
        <ele>671.3050523857354</ele>
      </trkpt>
      <trkpt lat="36.828294" lon="138.205371">
        <ele>671.9133357914632</ele>
      </trkpt>
      <trkpt lat="36.828094" lon="138.205165">
        <ele>679.0564568452513</ele>
      </trkpt>
      <trkpt lat="36.827874" lon="138.205078">
        <ele>681.3654550529288</ele>
      </trkpt>
      <trkpt lat="36.827436" lon="138.204945">
        <ele>680.6363157186199</ele>
      </trkpt>
      <trkpt lat="36.826835" lon="138.204772">
        <ele>676.0453745759619</ele>
      </trkpt>
      <trkpt lat="36.826558" lon="138.204853">
        <ele>673.9928824440352</ele>
      </trkpt>
      <trkpt lat="36.826359" lon="138.204921">
        <ele>672.9589606499403</ele>
      </trkpt>
      <trkpt lat="36.826221" lon="138.204909">
        <ele>672.711744806714</ele>
      </trkpt>
      <trkpt lat="36.826188" lon="138.204906">
        <ele>672.6370073628088</ele>
      </trkpt>
      <trkpt lat="36.826084" lon="138.204861">
        <ele>673.5260458670564</ele>
      </trkpt>
      <trkpt lat="36.825938" lon="138.204779">
        <ele>675.3313946179125</ele>
      </trkpt>
      <trkpt lat="36.825886" lon="138.204718">
        <ele>676.1530551078462</ele>
      </trkpt>
      <trkpt lat="36.825794" lon="138.204611">
        <ele>676.0268724722046</ele>
      </trkpt>
      <trkpt lat="36.825699" lon="138.204326">
        <ele>675.5261008796684</ele>
      </trkpt>
      <trkpt lat="36.82564" lon="138.203967">
        <ele>677.691967575855</ele>
      </trkpt>
      <trkpt lat="36.825531" lon="138.203644">
        <ele>679.6131104044622</ele>
      </trkpt>
      <trkpt lat="36.825322" lon="138.203403">
        <ele>682.0526421184342</ele>
      </trkpt>
      <trkpt lat="36.825" lon="138.202981">
        <ele>688.4326137798724</ele>
      </trkpt>
      <trkpt lat="36.824687" lon="138.202647">
        <ele>690.0886450285122</ele>
      </trkpt>
      <trkpt lat="36.8243" lon="138.202343">
        <ele>692.147357491451</ele>
      </trkpt>
      <trkpt lat="36.824057" lon="138.202163">
        <ele>696.9185297109462</ele>
      </trkpt>
      <trkpt lat="36.823814" lon="138.202002">
        <ele>702.1827459277847</ele>
      </trkpt>
      <trkpt lat="36.823751" lon="138.201869">
        <ele>705.3673154982422</ele>
      </trkpt>
      <trkpt lat="36.823814" lon="138.202002">
        <ele>702.1827459277847</ele>
      </trkpt>
      <trkpt lat="36.823537" lon="138.201841">
        <ele>704.3365687522454</ele>
      </trkpt>
      <trkpt lat="36.823358" lon="138.201643">
        <ele>706.9302648155109</ele>
      </trkpt>
      <trkpt lat="36.823224" lon="138.201444">
        <ele>710.4727068424379</ele>
      </trkpt>
      <trkpt lat="36.823075" lon="138.20111">
        <ele>715.9646533738696</ele>
      </trkpt>
      <trkpt lat="36.822921" lon="138.200825">
        <ele>719.7386772573545</ele>
      </trkpt>
      <trkpt lat="36.822807" lon="138.200657">
        <ele>720.9468729912114</ele>
      </trkpt>
      <trkpt lat="36.82251" lon="138.200304">
        <ele>721.4380669023155</ele>
      </trkpt>
      <trkpt lat="36.822162" lon="138.199963">
        <ele>720.078554472378</ele>
      </trkpt>
      <trkpt lat="36.821964" lon="138.199846">
        <ele>719.069995086548</ele>
      </trkpt>
      <trkpt lat="36.821746" lon="138.199852">
        <ele>717.7777663323542</ele>
      </trkpt>
      <trkpt lat="36.821369" lon="138.200093">
        <ele>717.5777948355538</ele>
      </trkpt>
      <trkpt lat="36.82118" lon="138.200317">
        <ele>715.722756898905</ele>
      </trkpt>
      <trkpt lat="36.820987" lon="138.200565">
        <ele>710.8875974423262</ele>
      </trkpt>
      <trkpt lat="36.820842" lon="138.200753">
        <ele>707.6903856722798</ele>
      </trkpt>
      <trkpt lat="36.820743" lon="138.200862">
        <ele>706.4521182290285</ele>
      </trkpt>
      <trkpt lat="36.820307" lon="138.2016">
        <ele>713.0037316141422</ele>
      </trkpt>
      <trkpt lat="36.820124" lon="138.201943">
        <ele>708.5191194453041</ele>
      </trkpt>
      <trkpt lat="36.819831" lon="138.202672">
        <ele>701.0654950048638</ele>
      </trkpt>
      <trkpt lat="36.819702" lon="138.203074">
        <ele>702.1680800050112</ele>
      </trkpt>
      <trkpt lat="36.819657" lon="138.203273">
        <ele>704.3241755713871</ele>
      </trkpt>
      <trkpt lat="36.819543" lon="138.203967">
        <ele>710.6012042865752</ele>
      </trkpt>
      <trkpt lat="36.819505" lon="138.204298">
        <ele>710.1049295332678</ele>
      </trkpt>
      <trkpt lat="36.819469" lon="138.204483">
        <ele>708.5799895170203</ele>
      </trkpt>
      <trkpt lat="36.819456" lon="138.204547">
        <ele>708.2920440267152</ele>
      </trkpt>
      <trkpt lat="36.819401" lon="138.205439">
        <ele>711.4619533482395</ele>
      </trkpt>
      <trkpt lat="36.819361" lon="138.205742">
        <ele>711.645657347982</ele>
      </trkpt>
      <trkpt lat="36.819347" lon="138.205851">
        <ele>712.3053913042254</ele>
      </trkpt>
      <trkpt lat="36.819309" lon="138.205976">
        <ele>712.2732135621193</ele>
      </trkpt>
      <trkpt lat="36.818981" lon="138.206827">
        <ele>712.783092144831</ele>
      </trkpt>
      <trkpt lat="36.818769" lon="138.207408">
        <ele>710.9264890257317</ele>
      </trkpt>
      <trkpt lat="36.818648" lon="138.207762">
        <ele>710.2223165461572</ele>
      </trkpt>
      <trkpt lat="36.818574" lon="138.208025">
        <ele>708.6971879735737</ele>
      </trkpt>
      <trkpt lat="36.818525" lon="138.208273">
        <ele>706.0780361153658</ele>
      </trkpt>
      <trkpt lat="36.818496" lon="138.208571">
        <ele>704.1654099139391</ele>
      </trkpt>
      <trkpt lat="36.818494" lon="138.208694">
        <ele>704.0899080142844</ele>
      </trkpt>
      <trkpt lat="36.818491" lon="138.208931">
        <ele>703.8456410682917</ele>
      </trkpt>
      <trkpt lat="36.818506" lon="138.209346">
        <ele>704.1453975226743</ele>
      </trkpt>
      <trkpt lat="36.818551" lon="138.210115">
        <ele>704.870522696153</ele>
      </trkpt>
      <trkpt lat="36.81858" lon="138.210939">
        <ele>715.6933813755568</ele>
      </trkpt>
      <trkpt lat="36.818605" lon="138.211304">
        <ele>718.4678738856632</ele>
      </trkpt>
      <trkpt lat="36.81861" lon="138.211515">
        <ele>716.7375712666008</ele>
      </trkpt>
      <trkpt lat="36.818556" lon="138.211844">
        <ele>713.6739751067852</ele>
      </trkpt>
      <trkpt lat="36.818461" lon="138.212141">
        <ele>714.0625382163801</ele>
      </trkpt>
      <trkpt lat="36.818372" lon="138.21255">
        <ele>713.3717119999707</ele>
      </trkpt>
      <trkpt lat="36.818294" lon="138.212777">
        <ele>709.378053365866</ele>
      </trkpt>
      <trkpt lat="36.818281" lon="138.212892">
        <ele>707.061655039947</ele>
      </trkpt>
      <trkpt lat="36.818242" lon="138.212918">
        <ele>706.588253866743</ele>
      </trkpt>
      <trkpt lat="36.817856" lon="138.213176">
        <ele>710.7941357168252</ele>
      </trkpt>
      <trkpt lat="36.817211" lon="138.213548">
        <ele>718.4062259854722</ele>
      </trkpt>
      <trkpt lat="36.816985" lon="138.213712">
        <ele>718.6955421927391</ele>
      </trkpt>
      <trkpt lat="36.81631" lon="138.21438">
        <ele>727.580588777424</ele>
      </trkpt>
      <trkpt lat="36.816028" lon="138.214741">
        <ele>733.1824803086009</ele>
      </trkpt>
      <trkpt lat="36.815793" lon="138.215141">
        <ele>732.2385300521895</ele>
      </trkpt>
      <trkpt lat="36.815644" lon="138.215534">
        <ele>727.8389827550311</ele>
      </trkpt>
      <trkpt lat="36.815566" lon="138.215948">
        <ele>728.1301186876376</ele>
      </trkpt>
      <trkpt lat="36.815526" lon="138.216315">
        <ele>726.9421183160156</ele>
      </trkpt>
      <trkpt lat="36.815419" lon="138.216619">
        <ele>725.4006864344246</ele>
      </trkpt>
      <trkpt lat="36.815378" lon="138.216781">
        <ele>724.8336486511785</ele>
      </trkpt>
      <trkpt lat="36.815394" lon="138.216947">
        <ele>723.6977326560848</ele>
      </trkpt>
      <trkpt lat="36.815512" lon="138.217229">
        <ele>722.6717155893831</ele>
      </trkpt>
      <trkpt lat="36.815527" lon="138.217264">
        <ele>722.9310961702438</ele>
      </trkpt>
      <trkpt lat="36.815564" lon="138.217396">
        <ele>724.474942008552</ele>
      </trkpt>
      <trkpt lat="36.815569" lon="138.217885">
        <ele>730.3368695644896</ele>
      </trkpt>
      <trkpt lat="36.815535" lon="138.217995">
        <ele>731.406221955346</ele>
      </trkpt>
      <trkpt lat="36.815392" lon="138.218211">
        <ele>731.7706573850419</ele>
      </trkpt>
      <trkpt lat="36.815273" lon="138.218372">
        <ele>731.3783885362564</ele>
      </trkpt>
      <trkpt lat="36.815137" lon="138.218633">
        <ele>732.2337620690034</ele>
      </trkpt>
      <trkpt lat="36.815014" lon="138.21901">
        <ele>733.3736850335063</ele>
      </trkpt>
      <trkpt lat="36.814829" lon="138.21952">
        <ele>732.5904594666</ele>
      </trkpt>
      <trkpt lat="36.814729" lon="138.219659">
        <ele>731.4901821480303</ele>
      </trkpt>
      <trkpt lat="36.814477" lon="138.219869">
        <ele>730.663895758233</ele>
      </trkpt>
      <trkpt lat="36.814326" lon="138.22001">
        <ele>730.4323726432137</ele>
      </trkpt>
      <trkpt lat="36.81414" lon="138.220223">
        <ele>729.8895908346284</ele>
      </trkpt>
      <trkpt lat="36.813948" lon="138.220467">
        <ele>728.4851718083332</ele>
      </trkpt>
      <trkpt lat="36.813751" lon="138.220745">
        <ele>727.0953938098426</ele>
      </trkpt>
      <trkpt lat="36.813319" lon="138.221454">
        <ele>721.7921223253326</ele>
      </trkpt>
      <trkpt lat="36.813176" lon="138.221673">
        <ele>719.7559063520185</ele>
      </trkpt>
      <trkpt lat="36.813025" lon="138.221937">
        <ele>718.6900453728842</ele>
      </trkpt>
      <trkpt lat="36.812948" lon="138.222093">
        <ele>718.6795656081596</ele>
      </trkpt>
      <trkpt lat="36.812706" lon="138.222982">
        <ele>719.6438486852222</ele>
      </trkpt>
      <trkpt lat="36.812609" lon="138.223291">
        <ele>720.0039983150461</ele>
      </trkpt>
      <trkpt lat="36.812539" lon="138.223636">
        <ele>720.7418031892661</ele>
      </trkpt>
      <trkpt lat="36.812462" lon="138.223853">
        <ele>720.7518279135236</ele>
      </trkpt>
      <trkpt lat="36.812441" lon="138.223911">
        <ele>720.8827397113674</ele>
      </trkpt>
      <trkpt lat="36.812369" lon="138.224001">
        <ele>720.471509384411</ele>
      </trkpt>
      <trkpt lat="36.812296" lon="138.224053">
        <ele>719.7886263802043</ele>
      </trkpt>
      <trkpt lat="36.812101" lon="138.224168">
        <ele>717.8037501528869</ele>
      </trkpt>
      <trkpt lat="36.811877" lon="138.224368">
        <ele>717.7720211980995</ele>
      </trkpt>
      <trkpt lat="36.811752" lon="138.224409">
        <ele>716.9988001752811</ele>
      </trkpt>
      <trkpt lat="36.811321" lon="138.22432">
        <ele>717.5894391496046</ele>
      </trkpt>
      <trkpt lat="36.810994" lon="138.224356">
        <ele>725.4260998353028</ele>
      </trkpt>
      <trkpt lat="36.810836" lon="138.224356">
        <ele>726.9622694825082</ele>
      </trkpt>
      <trkpt lat="36.810677" lon="138.224307">
        <ele>726.3353702514723</ele>
      </trkpt>
      <trkpt lat="36.810513" lon="138.224387">
        <ele>726.5723579806869</ele>
      </trkpt>
      <trkpt lat="36.810503" lon="138.224415">
        <ele>726.7831156541165</ele>
      </trkpt>
      <trkpt lat="36.810449" lon="138.224567">
        <ele>728.1440362155853</ele>
      </trkpt>
      <trkpt lat="36.810434" lon="138.22484">
        <ele>730.9350182941217</ele>
      </trkpt>
      <trkpt lat="36.810404" lon="138.225137">
        <ele>732.7024110343544</ele>
      </trkpt>
      <trkpt lat="36.810419" lon="138.225323">
        <ele>733.6069803899165</ele>
      </trkpt>
      <trkpt lat="36.810513" lon="138.225546">
        <ele>735.5278965378595</ele>
      </trkpt>
      <trkpt lat="36.810657" lon="138.225608">
        <ele>737.7244174537885</ele>
      </trkpt>
      <trkpt lat="36.810831" lon="138.225651">
        <ele>739.2653423440574</ele>
      </trkpt>
      <trkpt lat="36.811059" lon="138.225664">
        <ele>741.0167368012087</ele>
      </trkpt>
      <trkpt lat="36.811193" lon="138.225689">
        <ele>742.1920203547469</ele>
      </trkpt>
      <trkpt lat="36.811342" lon="138.225763">
        <ele>743.0885097526092</ele>
      </trkpt>
      <trkpt lat="36.811421" lon="138.225912">
        <ele>741.8969921543189</ele>
      </trkpt>
      <trkpt lat="36.81154" lon="138.226073">
        <ele>740.8904600976986</ele>
      </trkpt>
      <trkpt lat="36.811652" lon="138.226208">
        <ele>740.0490417797592</ele>
      </trkpt>
      <trkpt lat="36.811689" lon="138.226253">
        <ele>739.6990243054939</ele>
      </trkpt>
      <trkpt lat="36.811735" lon="138.226251">
        <ele>740.5465943657798</ele>
      </trkpt>
      <trkpt lat="36.81208" lon="138.226574">
        <ele>740.433438019851</ele>
      </trkpt>
      <trkpt lat="36.812121" lon="138.226705">
        <ele>738.5903275114808</ele>
      </trkpt>
      <trkpt lat="36.812173" lon="138.226931">
        <ele>736.2698298861653</ele>
      </trkpt>
      <trkpt lat="36.812172" lon="138.227142">
        <ele>734.7402226134388</ele>
      </trkpt>
      <trkpt lat="36.812205" lon="138.22743">
        <ele>734.4567592091903</ele>
      </trkpt>
      <trkpt lat="36.812269" lon="138.227666">
        <ele>733.698554379678</ele>
      </trkpt>
      <trkpt lat="36.812374" lon="138.227951">
        <ele>731.2447418012715</ele>
      </trkpt>
      <trkpt lat="36.812499" lon="138.228144">
        <ele>728.2267507968656</ele>
      </trkpt>
      <trkpt lat="36.812632" lon="138.228329">
        <ele>726.1520657547269</ele>
      </trkpt>
      <trkpt lat="36.812726" lon="138.228422">
        <ele>725.873808275928</ele>
      </trkpt>
      <trkpt lat="36.812735" lon="138.228441">
        <ele>725.8167472325728</ele>
      </trkpt>
      <trkpt lat="36.812826" lon="138.22863">
        <ele>726.0902231863408</ele>
      </trkpt>
      <trkpt lat="36.812835" lon="138.22879">
        <ele>725.9760846880702</ele>
      </trkpt>
      <trkpt lat="36.81281" lon="138.229474">
        <ele>724.2136312910379</ele>
      </trkpt>
      <trkpt lat="36.812756" lon="138.229921">
        <ele>724.4515081752231</ele>
      </trkpt>
      <trkpt lat="36.812761" lon="138.230349">
        <ele>723.2061371916911</ele>
      </trkpt>
      <trkpt lat="36.812715" lon="138.231205">
        <ele>718.8012728208191</ele>
      </trkpt>
      <trkpt lat="36.812725" lon="138.231466">
        <ele>717.0946052681702</ele>
      </trkpt>
      <trkpt lat="36.812748" lon="138.231576">
        <ele>717.1682255109779</ele>
      </trkpt>
      <trkpt lat="36.81279" lon="138.231676">
        <ele>717.1668595927313</ele>
      </trkpt>
      <trkpt lat="36.812844" lon="138.231759">
        <ele>717.0235066404585</ele>
      </trkpt>
      <trkpt lat="36.812944" lon="138.231857">
        <ele>716.2636650828422</ele>
      </trkpt>
      <trkpt lat="36.813059" lon="138.23194">
        <ele>714.8364606169696</ele>
      </trkpt>
      <trkpt lat="36.813137" lon="138.232013">
        <ele>713.4904780015555</ele>
      </trkpt>
      <trkpt lat="36.813416" lon="138.232543">
        <ele>713.7174007039328</ele>
      </trkpt>
      <trkpt lat="36.813548" lon="138.232709">
        <ele>714.3211050218063</ele>
      </trkpt>
      <trkpt lat="36.813681" lon="138.232757">
        <ele>713.6426259213848</ele>
      </trkpt>
      <trkpt lat="36.813859" lon="138.232804">
        <ele>711.8735455258761</ele>
      </trkpt>
      <trkpt lat="36.813931" lon="138.23285">
        <ele>711.8066472124107</ele>
      </trkpt>
      <trkpt lat="36.814064" lon="138.233022">
        <ele>714.2380509036001</ele>
      </trkpt>
      <trkpt lat="36.814064" lon="138.233022">
        <ele>714.2380509036001</ele>
      </trkpt>
      <trkpt lat="36.814095" lon="138.233061">
        <ele>714.7803624711465</ele>
      </trkpt>
      <trkpt lat="36.814178" lon="138.233122">
        <ele>715.1282522554789</ele>
      </trkpt>
      <trkpt lat="36.814673" lon="138.23344">
        <ele>712.5131196208747</ele>
      </trkpt>
      <trkpt lat="36.814956" lon="138.233609">
        <ele>712.7689305642873</ele>
      </trkpt>
      <trkpt lat="36.815193" lon="138.233724">
        <ele>715.3887683012009</ele>
      </trkpt>
      <trkpt lat="36.815193" lon="138.233724">
        <ele>715.3887683012009</ele>
      </trkpt>
      <trkpt lat="36.815193" lon="138.233724">
        <ele>715.3887683012009</ele>
      </trkpt>
      <trkpt lat="36.815193" lon="138.233724">
        <ele>715.3887683012009</ele>
      </trkpt>
      <trkpt lat="36.815193" lon="138.233724">
        <ele>715.3887683012009</ele>
      </trkpt>
      <trkpt lat="36.815193" lon="138.233724">
        <ele>715.3887683012009</ele>
      </trkpt>
      <trkpt lat="36.815193" lon="138.233724">
        <ele>715.3887683012009</ele>
      </trkpt>
      <trkpt lat="36.815193" lon="138.233724">
        <ele>715.3887683012009</ele>
      </trkpt>
      <trkpt lat="36.815193" lon="138.233724">
        <ele>715.3887683012009</ele>
      </trkpt>
      <trkpt lat="36.815193" lon="138.233724">
        <ele>715.3887683012009</ele>
      </trkpt>
      <trkpt lat="36.815193" lon="138.233724">
        <ele>715.3887683012009</ele>
      </trkpt>
      <trkpt lat="36.815193" lon="138.233724">
        <ele>715.3887683012009</ele>
      </trkpt>
      <trkpt lat="36.815193" lon="138.233724">
        <ele>715.3887683012009</ele>
      </trkpt>
      <trkpt lat="36.815193" lon="138.233724">
        <ele>715.3887683012009</ele>
      </trkpt>
      <trkpt lat="36.815193" lon="138.233724">
        <ele>715.3887683012009</ele>
      </trkpt>
      <trkpt lat="36.815193" lon="138.233724">
        <ele>715.3887683012009</ele>
      </trkpt>
      <trkpt lat="36.815193" lon="138.233724">
        <ele>715.3887683012009</ele>
      </trkpt>
      <trkpt lat="36.815193" lon="138.233724">
        <ele>715.3887683012009</ele>
      </trkpt>
      <trkpt lat="36.815193" lon="138.233724">
        <ele>715.3887683012009</ele>
      </trkpt>
      <trkpt lat="36.815193" lon="138.233724">
        <ele>715.3887683012009</ele>
      </trkpt>
      <trkpt lat="36.815193" lon="138.233724">
        <ele>715.3887683012009</ele>
      </trkpt>
      <trkpt lat="36.815193" lon="138.233724">
        <ele>715.3887683012009</ele>
      </trkpt>
      <trkpt lat="36.81562330325097" lon="138.2338870244381">
        <ele>718.2615773182451</ele>
      </trkpt>
      <trkpt lat="36.816053606501946" lon="138.2340500488762">
        <ele>711.5278017643459</ele>
      </trkpt>
      <trkpt lat="36.81618635474213" lon="138.23410034179688">
        <ele>708.1062500000007</ele>
      </trkpt>
      <trkpt lat="36.81639678739435" lon="138.23459386825562">
        <ele>717.2624999994594</ele>
      </trkpt>
      <trkpt lat="36.81674537969892" lon="138.23494866872815">
        <ele>717.0404917996423</ele>
      </trkpt>
      <trkpt lat="36.81686059609524" lon="138.23506593704224">
        <ele>716.4250000000011</ele>
      </trkpt>
      <trkpt lat="36.817261316663874" lon="138.23532076502138">
        <ele>710.6129506010899</ele>
      </trkpt>
      <trkpt lat="36.81733299095717" lon="138.2353663444519">
        <ele>710.846874999622</ele>
      </trkpt>
      <trkpt lat="36.817694596947184" lon="138.23570020822393">
        <ele>718.1805869998352</ele>
      </trkpt>
      <trkpt lat="36.81772808260274" lon="138.23573112487793">
        <ele>719.1124999999771</ele>
      </trkpt>
      <trkpt lat="36.81805446111953" lon="138.2357633113861">
        <ele>724.0015625000011</ele>
      </trkpt>
      <trkpt lat="36.81805446111953" lon="138.2357633113861">
        <ele>724.0015625000011</ele>
      </trkpt>
      <trkpt lat="36.8181403499716" lon="138.2356560230255">
        <ele>723.9640625005096</ele>
      </trkpt>
      <trkpt lat="36.818217649856024" lon="138.2354199886322">
        <ele>722.2375000000006</ele>
      </trkpt>
      <trkpt lat="36.818217649856024" lon="138.2354199886322">
        <ele>722.2375000000006</ele>
      </trkpt>
      <trkpt lat="36.818325023366064" lon="138.23487454159746">
        <ele>714.7927697107551</ele>
      </trkpt>
      <trkpt lat="36.81834648282329" lon="138.23476552963257">
        <ele>712.3937500007104</ele>
      </trkpt>
      <trkpt lat="36.818561203953465" lon="138.2344651222229">
        <ele>712.1250000008565</ele>
      </trkpt>
      <trkpt lat="36.818750158049696" lon="138.23415398597717">
        <ele>709.3999999991391</ele>
      </trkpt>
      <trkpt lat="36.81895628925905" lon="138.23381066322327">
        <ele>703.5750000000012</ele>
      </trkpt>
      <trkpt lat="36.81917100867844" lon="138.2335638999939">
        <ele>705.0406250010428</ele>
      </trkpt>
      <trkpt lat="36.81936855001224" lon="138.2331669330597">
        <ele>705.6656250000003</ele>
      </trkpt>
      <trkpt lat="36.819540324670655" lon="138.23286652565002">
        <ele>704.8843750000009</ele>
      </trkpt>
      <trkpt lat="36.819540324670655" lon="138.23286652565002">
        <ele>704.8843750000009</ele>
      </trkpt>
      <trkpt lat="36.819617623141184" lon="138.2326304912567">
        <ele>696.0875000000012</ele>
      </trkpt>
      <trkpt lat="36.819617623141184" lon="138.2326304912567">
        <ele>696.0875000000012</ele>
      </trkpt>
      <trkpt lat="36.81995258227792" lon="138.23252320289612">
        <ele>696.3125000000009</ele>
      </trkpt>
      <trkpt lat="36.820090000986866" lon="138.23254466056824">
        <ele>698.2843749999859</ele>
      </trkpt>
      <trkpt lat="36.820257479704765" lon="138.23267340660095">
        <ele>704.2710937500015</ele>
      </trkpt>
      <trkpt lat="36.82052372716852" lon="138.23261976242065">
        <ele>695.3421875006356</ele>
      </trkpt>
      <trkpt lat="36.82069120493729" lon="138.23266804218292">
        <ele>688.0625000000003</ele>
      </trkpt>
      <trkpt lat="36.82074703077876" lon="138.2328987121582">
        <ele>688.5437500000007</ele>
      </trkpt>
      <trkpt lat="36.82082862231999" lon="138.2331669330597">
        <ele>688.4000000000008</ele>
      </trkpt>
      <trkpt lat="36.82095315660993" lon="138.23333859443665">
        <ele>686.060156250001</ele>
      </trkpt>
      <trkpt lat="36.82097892229979" lon="138.2336390018463">
        <ele>692.1320312500011</ele>
      </trkpt>
      <trkpt lat="36.821244538121384" lon="138.234092246417">
        <ele>692.790800221637</ele>
      </trkpt>
      <trkpt lat="36.82151015394298" lon="138.23454549098764">
        <ele>693.0088255379353</ele>
      </trkpt>
      <trkpt lat="36.82177576976458" lon="138.23499873555832">
        <ele>697.0041036538506</ele>
      </trkpt>
      <trkpt lat="36.82181200826389" lon="138.2350605726242">
        <ele>697.2644531244433</ele>
      </trkpt>
      <trkpt lat="36.822039602336645" lon="138.23523223400116">
        <ele>691.6406250000005</ele>
      </trkpt>
      <trkpt lat="36.82240890448617" lon="138.23514103889465">
        <ele>687.6500000000008</ele>
      </trkpt>
      <trkpt lat="36.82255490716999" lon="138.2350391149521">
        <ele>691.3390625000001</ele>
      </trkpt>
      <trkpt lat="36.822638" lon="138.234657">
        <ele>694.6982919718143</ele>
      </trkpt>
      <trkpt lat="36.822733" lon="138.233766">
        <ele>691.9193947168769</ele>
      </trkpt>
      <trkpt lat="36.822765" lon="138.233591">
        <ele>690.8655841917935</ele>
      </trkpt>
      <trkpt lat="36.822819" lon="138.233411">
        <ele>690.6902293920436</ele>
      </trkpt>
      <trkpt lat="36.823039" lon="138.232909">
        <ele>692.09841170752</ele>
      </trkpt>
      <trkpt lat="36.823234" lon="138.232464">
        <ele>687.8959713257796</ele>
      </trkpt>
      <trkpt lat="36.823288" lon="138.232417">
        <ele>688.9164653768303</ele>
      </trkpt>
      <trkpt lat="36.823341" lon="138.23239">
        <ele>690.5884959750201</ele>
      </trkpt>
      <trkpt lat="36.823534" lon="138.23232">
        <ele>695.7342154021919</ele>
      </trkpt>
      <trkpt lat="36.823731" lon="138.232151">
        <ele>693.8031486862764</ele>
      </trkpt>
      <trkpt lat="36.823877" lon="138.231998">
        <ele>690.4234967469245</ele>
      </trkpt>
      <trkpt lat="36.824093" lon="138.231905">
        <ele>693.4984062700835</ele>
      </trkpt>
      <trkpt lat="36.824365" lon="138.231639">
        <ele>687.6407989560828</ele>
      </trkpt>
      <trkpt lat="36.824492" lon="138.231541">
        <ele>688.2369618172703</ele>
      </trkpt>
      <trkpt lat="36.824692" lon="138.231347">
        <ele>687.8504353930533</ele>
      </trkpt>
      <trkpt lat="36.82476" lon="138.231293">
        <ele>688.0498538811669</ele>
      </trkpt>
      <trkpt lat="36.825171" lon="138.231072">
        <ele>687.8403156005888</ele>
      </trkpt>
      <trkpt lat="36.825413" lon="138.230927">
        <ele>683.6123629692985</ele>
      </trkpt>
      <trkpt lat="36.825474" lon="138.230904">
        <ele>683.3455264156274</ele>
      </trkpt>
      <trkpt lat="36.825635" lon="138.230886">
        <ele>684.4159191401977</ele>
      </trkpt>
      <trkpt lat="36.825695" lon="138.230897">
        <ele>685.047420624059</ele>
      </trkpt>
      <trkpt lat="36.825734" lon="138.230918">
        <ele>685.6341173494183</ele>
      </trkpt>
      <trkpt lat="36.825757" lon="138.230956">
        <ele>686.3328652196325</ele>
      </trkpt>
      <trkpt lat="36.825767" lon="138.231002">
        <ele>687.2146567156484</ele>
      </trkpt>
      <trkpt lat="36.825763" lon="138.231067">
        <ele>688.3295972692746</ele>
      </trkpt>
      <trkpt lat="36.825603" lon="138.231469">
        <ele>696.8637502583125</ele>
      </trkpt>
      <trkpt lat="36.82556" lon="138.231621">
        <ele>698.7055724848162</ele>
      </trkpt>
      <trkpt lat="36.825538" lon="138.231857">
        <ele>700.31849056963</ele>
      </trkpt>
      <trkpt lat="36.825507" lon="138.232716">
        <ele>704.2025186669773</ele>
      </trkpt>
      <trkpt lat="36.825492" lon="138.232828">
        <ele>703.9067867503901</ele>
      </trkpt>
      <trkpt lat="36.825477" lon="138.232884">
        <ele>703.9381714343815</ele>
      </trkpt>
      <trkpt lat="36.825453" lon="138.232929">
        <ele>704.9802723796855</ele>
      </trkpt>
      <trkpt lat="36.825143" lon="138.233407">
        <ele>711.1415690610556</ele>
      </trkpt>
      <trkpt lat="36.825122" lon="138.233461">
        <ele>711.0241625574855</ele>
      </trkpt>
      <trkpt lat="36.82511" lon="138.233527">
        <ele>710.4068448424148</ele>
      </trkpt>
      <trkpt lat="36.825101" lon="138.234087">
        <ele>707.951884233766</ele>
      </trkpt>
      <trkpt lat="36.825084" lon="138.234218">
        <ele>707.7722864394001</ele>
      </trkpt>
      <trkpt lat="36.825028" lon="138.234402">
        <ele>706.8953224160148</ele>
      </trkpt>
      <trkpt lat="36.824868" lon="138.234782">
        <ele>701.1440386126357</ele>
      </trkpt>
      <trkpt lat="36.824818" lon="138.23493">
        <ele>699.2075286931761</ele>
      </trkpt>
      <trkpt lat="36.82479" lon="138.235078">
        <ele>697.3961617707678</ele>
      </trkpt>
      <trkpt lat="36.82479" lon="138.235481">
        <ele>695.2863645906625</ele>
      </trkpt>
      <trkpt lat="36.824839" lon="138.23584">
        <ele>698.5364396983542</ele>
      </trkpt>
      <trkpt lat="36.824922" lon="138.23615">
        <ele>699.6956644498051</ele>
      </trkpt>
      <trkpt lat="36.825188" lon="138.23671">
        <ele>696.4293514938604</ele>
      </trkpt>
      <trkpt lat="36.825212" lon="138.236795">
        <ele>696.1617619896787</ele>
      </trkpt>
      <trkpt lat="36.825235" lon="138.23718">
        <ele>698.5450394460472</ele>
      </trkpt>
      <trkpt lat="36.82523" lon="138.23739">
        <ele>700.9895378497262</ele>
      </trkpt>
      <trkpt lat="36.82521" lon="138.237537">
        <ele>704.0306697557105</ele>
      </trkpt>
      <trkpt lat="36.825209" lon="138.237617">
        <ele>705.3450434211064</ele>
      </trkpt>
      <trkpt lat="36.825219" lon="138.237679">
        <ele>705.8865796626608</ele>
      </trkpt>
      <trkpt lat="36.825247" lon="138.237753">
        <ele>706.0201108733189</ele>
      </trkpt>
      <trkpt lat="36.825313" lon="138.237856">
        <ele>705.443422451921</ele>
      </trkpt>
      <trkpt lat="36.825564" lon="138.238084">
        <ele>702.453279475808</ele>
      </trkpt>
      <trkpt lat="36.825895" lon="138.23831">
        <ele>698.5517710606892</ele>
      </trkpt>
      <trkpt lat="36.825928" lon="138.238353">
        <ele>698.8527216252398</ele>
      </trkpt>
      <trkpt lat="36.825957" lon="138.238414">
        <ele>699.7949344383429</ele>
      </trkpt>
      <trkpt lat="36.826003" lon="138.238683">
        <ele>705.481083153076</ele>
      </trkpt>
      <trkpt lat="36.826022" lon="138.238748">
        <ele>705.9662564743318</ele>
      </trkpt>
      <trkpt lat="36.826054" lon="138.238806">
        <ele>705.5895762878008</ele>
      </trkpt>
      <trkpt lat="36.826459" lon="138.239283">
        <ele>703.156444705219</ele>
      </trkpt>
      <trkpt lat="36.826591" lon="138.239397">
        <ele>703.6462924061938</ele>
      </trkpt>
      <trkpt lat="36.826911" lon="138.239597">
        <ele>706.5405900427301</ele>
      </trkpt>
      <trkpt lat="36.827337" lon="138.239948">
        <ele>705.5374620807305</ele>
      </trkpt>
      <trkpt lat="36.827404" lon="138.239986">
        <ele>705.6303864878828</ele>
      </trkpt>
      <trkpt lat="36.82747" lon="138.240011">
        <ele>705.8143919794185</ele>
      </trkpt>
      <trkpt lat="36.827597" lon="138.24003">
        <ele>706.248782400651</ele>
      </trkpt>
      <trkpt lat="36.827704" lon="138.240024">
        <ele>706.9458257826321</ele>
      </trkpt>
      <trkpt lat="36.827751" lon="138.240004">
        <ele>706.8892809183807</ele>
      </trkpt>
      <trkpt lat="36.82804" lon="138.239827">
        <ele>707.8060161829579</ele>
      </trkpt>
      <trkpt lat="36.828333" lon="138.239527">
        <ele>701.8696905640305</ele>
      </trkpt>
      <trkpt lat="36.828404" lon="138.239477">
        <ele>702.0745223809678</ele>
      </trkpt>
      <trkpt lat="36.828639" lon="138.23938">
        <ele>706.4809281539482</ele>
      </trkpt>
      <trkpt lat="36.828677" lon="138.239365">
        <ele>707.250935930004</ele>
      </trkpt>
      <trkpt lat="36.828969" lon="138.239125">
        <ele>709.2575203893099</ele>
      </trkpt>
      <trkpt lat="36.829027" lon="138.239109">
        <ele>709.2263298389828</ele>
      </trkpt>
      <trkpt lat="36.82909" lon="138.239114">
        <ele>708.6384588547487</ele>
      </trkpt>
      <trkpt lat="36.829185" lon="138.23919">
        <ele>706.3627675407088</ele>
      </trkpt>
      <trkpt lat="36.829214" lon="138.239248">
        <ele>705.2824842662003</ele>
      </trkpt>
      <trkpt lat="36.829211" lon="138.239386">
        <ele>704.750422982017</ele>
      </trkpt>
      <trkpt lat="36.829194" lon="138.239526">
        <ele>704.6807858745921</ele>
      </trkpt>
      <trkpt lat="36.829205" lon="138.239738">
        <ele>702.1434157744078</ele>
      </trkpt>
      <trkpt lat="36.829201" lon="138.239796">
        <ele>701.3104145860372</ele>
      </trkpt>
      <trkpt lat="36.828832" lon="138.240853">
        <ele>699.4206242030876</ele>
      </trkpt>
      <trkpt lat="36.828799" lon="138.241034">
        <ele>698.6949940127995</ele>
      </trkpt>
      <trkpt lat="36.828798" lon="138.241123">
        <ele>697.9545999262491</ele>
      </trkpt>
      <trkpt lat="36.828828" lon="138.241277">
        <ele>695.133759804792</ele>
      </trkpt>
      <trkpt lat="36.828865" lon="138.241379">
        <ele>692.5813003958637</ele>
      </trkpt>
      <trkpt lat="36.829452" lon="138.242346">
        <ele>667.2812716091055</ele>
      </trkpt>
      <trkpt lat="36.829504" lon="138.2424">
        <ele>665.7716765958578</ele>
      </trkpt>
      <trkpt lat="36.829637" lon="138.242477">
        <ele>663.4324671509685</ele>
      </trkpt>
      <trkpt lat="36.829762" lon="138.2425">
        <ele>662.410106534185</ele>
      </trkpt>
      <trkpt lat="36.829927" lon="138.242529">
        <ele>662.0979304048938</ele>
      </trkpt>
      <trkpt lat="36.830524" lon="138.242755">
        <ele>663.2793363547177</ele>
      </trkpt>
      <trkpt lat="36.83058" lon="138.242764">
        <ele>663.2458829442378</ele>
      </trkpt>
      <trkpt lat="36.830644" lon="138.242761">
        <ele>663.0996556786959</ele>
      </trkpt>
      <trkpt lat="36.830692" lon="138.242741">
        <ele>662.6362733311728</ele>
      </trkpt>
      <trkpt lat="36.830764" lon="138.242662">
        <ele>661.2937014196294</ele>
      </trkpt>
      <trkpt lat="36.830961" lon="138.242514">
        <ele>659.324553655741</ele>
      </trkpt>
      <trkpt lat="36.831076" lon="138.242467">
        <ele>659.350218582499</ele>
      </trkpt>
      <trkpt lat="36.831483" lon="138.242431">
        <ele>667.2737860434165</ele>
      </trkpt>
      <trkpt lat="36.831515" lon="138.242416">
        <ele>667.3668985292181</ele>
      </trkpt>
      <trkpt lat="36.831606" lon="138.242375">
        <ele>667.5647561562994</ele>
      </trkpt>
      <trkpt lat="36.832057" lon="138.242087">
        <ele>667.1020770167881</ele>
      </trkpt>
      <trkpt lat="36.832126" lon="138.24207">
        <ele>667.237967098313</ele>
      </trkpt>
      <trkpt lat="36.832233" lon="138.242078">
        <ele>668.8180921514603</ele>
      </trkpt>
      <trkpt lat="36.832666" lon="138.242214">
        <ele>665.9221572181389</ele>
      </trkpt>
      <trkpt lat="36.833111" lon="138.24246">
        <ele>673.839001905285</ele>
      </trkpt>
      <trkpt lat="36.833568" lon="138.242744">
        <ele>680.8242661651655</ele>
      </trkpt>
      <trkpt lat="36.833815" lon="138.242851">
        <ele>677.3962393469418</ele>
      </trkpt>
      <trkpt lat="36.833897" lon="138.242872">
        <ele>676.5980037715295</ele>
      </trkpt>
      <trkpt lat="36.833907" lon="138.242875">
        <ele>676.5678212695763</ele>
      </trkpt>
      <trkpt lat="36.833964" lon="138.242777">
        <ele>669.294252645034</ele>
      </trkpt>
      <trkpt lat="36.834222" lon="138.242413">
        <ele>656.5743027414669</ele>
      </trkpt>
      <trkpt lat="36.834588" lon="138.241934">
        <ele>654.6644354129708</ele>
      </trkpt>
      <trkpt lat="36.83465" lon="138.241811">
        <ele>654.638110725582</ele>
      </trkpt>
      <trkpt lat="36.834695" lon="138.241602">
        <ele>654.2632332897599</ele>
      </trkpt>
      <trkpt lat="36.834703" lon="138.241476">
        <ele>653.8712142976248</ele>
      </trkpt>
      <trkpt lat="36.834719" lon="138.241429">
        <ele>653.8497552283118</ele>
      </trkpt>
      <trkpt lat="36.834773" lon="138.241389">
        <ele>654.0709766527642</ele>
      </trkpt>
      <trkpt lat="36.834831" lon="138.241389">
        <ele>654.4152732460627</ele>
      </trkpt>
      <trkpt lat="36.836295" lon="138.242234">
        <ele>662.2887132688172</ele>
      </trkpt>
      <trkpt lat="36.836337" lon="138.242259">
        <ele>663.0683614422085</ele>
      </trkpt>
      <trkpt lat="36.83635" lon="138.24211">
        <ele>664.5980925941202</ele>
      </trkpt>
      <trkpt lat="36.836398" lon="138.24186">
        <ele>668.468943271368</ele>
      </trkpt>
      <trkpt lat="36.836484" lon="138.241502">
        <ele>675.4423984301853</ele>
      </trkpt>
      <trkpt lat="36.836592" lon="138.241101">
        <ele>692.2304924700387</ele>
      </trkpt>
      <trkpt lat="36.836574" lon="138.240994">
        <ele>694.8851027339892</ele>
      </trkpt>
      <trkpt lat="36.836504" lon="138.240837">
        <ele>697.2693796687865</ele>
      </trkpt>
      <trkpt lat="36.836419" lon="138.240731">
        <ele>698.185646653025</ele>
      </trkpt>
      <trkpt lat="36.836052" lon="138.240505">
        <ele>696.1133277567598</ele>
      </trkpt>
      <trkpt lat="36.835922" lon="138.240398">
        <ele>693.9289169592554</ele>
      </trkpt>
      <trkpt lat="36.835797" lon="138.240263">
        <ele>690.8205795864264</ele>
      </trkpt>
      <trkpt lat="36.835761" lon="138.240166">
        <ele>689.6404938744386</ele>
      </trkpt>
      <trkpt lat="36.835746" lon="138.240009">
        <ele>687.8045580292128</ele>
      </trkpt>
      <trkpt lat="36.835791" lon="138.239878">
        <ele>687.4513517335059</ele>
      </trkpt>
      <trkpt lat="36.835891" lon="138.239759">
        <ele>688.7826670332165</ele>
      </trkpt>
      <trkpt lat="36.836077" lon="138.239671">
        <ele>693.8420208502016</ele>
      </trkpt>
      <trkpt lat="36.836268" lon="138.239627">
        <ele>699.1440083645292</ele>
      </trkpt>
      <trkpt lat="36.836509" lon="138.23952">
        <ele>704.0467904796826</ele>
      </trkpt>
      <trkpt lat="36.836705" lon="138.239401">
        <ele>706.6730440574033</ele>
      </trkpt>
      <trkpt lat="36.836948" lon="138.239202">
        <ele>708.8752495818168</ele>
      </trkpt>
      <trkpt lat="36.837006" lon="138.23915">
        <ele>709.9281806308223</ele>
      </trkpt>
      <trkpt lat="36.837141" lon="138.238975">
        <ele>712.1828534960666</ele>
      </trkpt>
      <trkpt lat="36.837237" lon="138.238774">
        <ele>712.2296654673171</ele>
      </trkpt>
      <trkpt lat="36.837307" lon="138.238604">
        <ele>711.86340647656</ele>
      </trkpt>
      <trkpt lat="36.837438" lon="138.238429">
        <ele>714.7600956456397</ele>
      </trkpt>
      <trkpt lat="36.837618" lon="138.238222">
        <ele>720.7735256982211</ele>
      </trkpt>
      <trkpt lat="36.837668" lon="138.23814">
        <ele>723.4688605116667</ele>
      </trkpt>
      <trkpt lat="36.837673" lon="138.238065">
        <ele>725.5198978798622</ele>
      </trkpt>
      <trkpt lat="36.837628" lon="138.237977">
        <ele>727.4026014872404</ele>
      </trkpt>
      <trkpt lat="36.837513" lon="138.237889">
        <ele>728.5863420746989</ele>
      </trkpt>
      <trkpt lat="36.837377" lon="138.237802">
        <ele>730.0270632296341</ele>
      </trkpt>
      <trkpt lat="36.837066" lon="138.237714">
        <ele>729.5325087069306</ele>
      </trkpt>
      <trkpt lat="36.836915" lon="138.237726">
        <ele>726.6844614643143</ele>
      </trkpt>
      <trkpt lat="36.83676" lon="138.237726">
        <ele>724.4628241043546</ele>
      </trkpt>
      <trkpt lat="36.83667" lon="138.237695">
        <ele>724.3630072191404</ele>
      </trkpt>
      <trkpt lat="36.836599" lon="138.237613">
        <ele>726.288429321911</ele>
      </trkpt>
      <trkpt lat="36.836479" lon="138.237268">
        <ele>734.6388505693483</ele>
      </trkpt>
      <trkpt lat="36.836178" lon="138.236917">
        <ele>736.6851985081341</ele>
      </trkpt>
      <trkpt lat="36.835856" lon="138.23671">
        <ele>727.9920657320027</ele>
      </trkpt>
      <trkpt lat="36.835731" lon="138.236648">
        <ele>723.4988570973514</ele>
      </trkpt>
      <trkpt lat="36.83564" lon="138.236572">
        <ele>721.2865622257435</ele>
      </trkpt>
      <trkpt lat="36.83564" lon="138.236447">
        <ele>722.6466121066293</ele>
      </trkpt>
      <trkpt lat="36.835671" lon="138.236346">
        <ele>724.0128579311722</ele>
      </trkpt>
      <trkpt lat="36.835901" lon="138.236133">
        <ele>733.1238753747518</ele>
      </trkpt>
      <trkpt lat="36.835977" lon="138.236008">
        <ele>735.9216068363133</ele>
      </trkpt>
      <trkpt lat="36.836007" lon="138.235625">
        <ele>734.6288443142562</ele>
      </trkpt>
      <trkpt lat="36.836012" lon="138.235205">
        <ele>739.1602760648042</ele>
      </trkpt>
      <trkpt lat="36.835962" lon="138.235061">
        <ele>740.0848775382842</ele>
      </trkpt>
      <trkpt lat="36.835841" lon="138.234885">
        <ele>738.3172235462816</ele>
      </trkpt>
      <trkpt lat="36.835716" lon="138.234722">
        <ele>734.8542516863274</ele>
      </trkpt>
      <trkpt lat="36.83562" lon="138.234609">
        <ele>731.6059648804322</ele>
      </trkpt>
      <trkpt lat="36.835575" lon="138.234477">
        <ele>729.9049059405262</ele>
      </trkpt>
      <trkpt lat="36.835565" lon="138.234364">
        <ele>728.7999945253736</ele>
      </trkpt>
      <trkpt lat="36.835611" lon="138.234283">
        <ele>728.6763798864038</ele>
      </trkpt>
      <trkpt lat="36.835712" lon="138.234189">
        <ele>729.4948974313448</ele>
      </trkpt>
      <trkpt lat="36.835847" lon="138.234157">
        <ele>731.5057684737437</ele>
      </trkpt>
      <trkpt lat="36.836033" lon="138.234164">
        <ele>733.7705413044329</ele>
      </trkpt>
      <trkpt lat="36.836072" lon="138.234179">
        <ele>734.4402202131982</ele>
      </trkpt>
      <trkpt lat="36.836398" lon="138.234314">
        <ele>738.0619165453202</ele>
      </trkpt>
      <trkpt lat="36.836554" lon="138.234415">
        <ele>738.0658974706431</ele>
      </trkpt>
      <trkpt lat="36.83671" lon="138.23454">
        <ele>739.6979081723309</ele>
      </trkpt>
      <trkpt lat="36.836835" lon="138.234603">
        <ele>741.1489549606528</ele>
      </trkpt>
      <trkpt lat="36.836981" lon="138.234603">
        <ele>741.4631380320795</ele>
      </trkpt>
      <trkpt lat="36.837282" lon="138.234546">
        <ele>742.7133638954966</ele>
      </trkpt>
      <trkpt lat="36.837668" lon="138.234634">
        <ele>746.9447435046558</ele>
      </trkpt>
      <trkpt lat="36.838065" lon="138.234647">
        <ele>748.2493749209685</ele>
      </trkpt>
      <trkpt lat="36.838236" lon="138.234609">
        <ele>746.7858695668228</ele>
      </trkpt>
      <trkpt lat="36.838693" lon="138.234408">
        <ele>741.9548070413996</ele>
      </trkpt>
      <trkpt lat="36.838838" lon="138.234427">
        <ele>742.5129643490086</ele>
      </trkpt>
      <trkpt lat="36.838994" lon="138.234546">
        <ele>747.0373030113476</ele>
      </trkpt>
      <trkpt lat="36.839184" lon="138.234571">
        <ele>746.2291762214483</ele>
      </trkpt>
      <trkpt lat="36.83938" lon="138.234584">
        <ele>746.576805160413</ele>
      </trkpt>
      <trkpt lat="36.839531" lon="138.234559">
        <ele>746.3785816471581</ele>
      </trkpt>
      <trkpt lat="36.839626" lon="138.234502">
        <ele>745.1320202806032</ele>
      </trkpt>
      <trkpt lat="36.839765" lon="138.234294">
        <ele>740.2692982753967</ele>
      </trkpt>
      <trkpt lat="36.839862" lon="138.234257">
        <ele>739.2711548867372</ele>
      </trkpt>
      <trkpt lat="36.840145" lon="138.23428">
        <ele>737.8661002852631</ele>
      </trkpt>
      <trkpt lat="36.840201" lon="138.234251">
        <ele>737.160865934462</ele>
      </trkpt>
      <trkpt lat="36.840353" lon="138.234109">
        <ele>735.9118227005417</ele>
      </trkpt>
      <trkpt lat="36.840485" lon="138.234127">
        <ele>736.2097211587084</ele>
      </trkpt>
      <trkpt lat="36.840595" lon="138.234108">
        <ele>738.3625587025897</ele>
      </trkpt>
      <trkpt lat="36.840594" lon="138.234122">
        <ele>738.0410734379045</ele>
      </trkpt>
      <trkpt lat="36.840569" lon="138.233923">
        <ele>741.4535394992067</ele>
      </trkpt>
      <trkpt lat="36.840497" lon="138.233658">
        <ele>744.3851125166882</ele>
      </trkpt>
      <trkpt lat="36.840379" lon="138.233416">
        <ele>745.8191460294031</ele>
      </trkpt>
      <trkpt lat="36.840208" lon="138.233155">
        <ele>747.4168203101324</ele>
      </trkpt>
      <trkpt lat="36.83996" lon="138.232952">
        <ele>742.9015291028662</ele>
      </trkpt>
      <trkpt lat="36.839712" lon="138.232797">
        <ele>736.6873798374835</ele>
      </trkpt>
      <trkpt lat="36.839474" lon="138.232714">
        <ele>734.0559315986303</ele>
      </trkpt>
      <trkpt lat="36.839255" lon="138.232464">
        <ele>740.2308703281984</ele>
      </trkpt>
      <trkpt lat="36.839131" lon="138.232226">
        <ele>742.6927414054686</ele>
      </trkpt>
      <trkpt lat="36.83896" lon="138.232071">
        <ele>742.5520088552965</ele>
      </trkpt>
      <trkpt lat="36.838674" lon="138.231905">
        <ele>743.7876448411154</ele>
      </trkpt>
      <trkpt lat="36.83814" lon="138.231738">
        <ele>737.3531917018418</ele>
      </trkpt>
      <trkpt lat="36.837626" lon="138.231536">
        <ele>730.542834930154</ele>
      </trkpt>
      <trkpt lat="36.837435" lon="138.231309">
        <ele>730.8750805630525</ele>
      </trkpt>
      <trkpt lat="36.837283" lon="138.231036">
        <ele>732.4800975610592</ele>
      </trkpt>
      <trkpt lat="36.837268" lon="138.230833">
        <ele>736.5523712379631</ele>
      </trkpt>
      <trkpt lat="36.837194" lon="138.230602">
        <ele>736.5353872970913</ele>
      </trkpt>
      <trkpt lat="36.837135" lon="138.230368">
        <ele>739.1475929685776</ele>
      </trkpt>
      <trkpt lat="36.837083" lon="138.230312">
        <ele>739.0325233948764</ele>
      </trkpt>
      <trkpt lat="36.836816" lon="138.230262">
        <ele>737.1158786333496</ele>
      </trkpt>
      <trkpt lat="36.836753" lon="138.23026">
        <ele>737.281616353348</ele>
      </trkpt>
      <trkpt lat="36.836656" lon="138.230152">
        <ele>742.9830094842123</ele>
      </trkpt>
      <trkpt lat="36.836067" lon="138.229792">
        <ele>747.0299572353281</ele>
      </trkpt>
      <trkpt lat="36.835942" lon="138.229786">
        <ele>743.8188956104688</ele>
      </trkpt>
      <trkpt lat="36.83578" lon="138.229751">
        <ele>739.5128472456247</ele>
      </trkpt>
      <trkpt lat="36.83549" lon="138.229265">
        <ele>744.7701873207475</ele>
      </trkpt>
      <trkpt lat="36.835208" lon="138.22897">
        <ele>743.4491561841712</ele>
      </trkpt>
      <trkpt lat="36.834778" lon="138.228762">
        <ele>730.7735474058195</ele>
      </trkpt>
      <trkpt lat="36.834695" lon="138.228677">
        <ele>729.9070999063089</ele>
      </trkpt>
      <trkpt lat="36.834706" lon="138.228535">
        <ele>730.3932411710367</ele>
      </trkpt>
      <trkpt lat="36.834956" lon="138.228261">
        <ele>737.1587030910664</ele>
      </trkpt>
      <trkpt lat="36.834964" lon="138.228057">
        <ele>738.6100911420923</ele>
      </trkpt>
      <trkpt lat="36.83492" lon="138.227871">
        <ele>739.807744697641</ele>
      </trkpt>
      <trkpt lat="36.834795" lon="138.227503">
        <ele>737.9404995973885</ele>
      </trkpt>
      <trkpt lat="36.834768" lon="138.227191">
        <ele>737.3724249740139</ele>
      </trkpt>
      <trkpt lat="36.834825" lon="138.226929">
        <ele>742.8071524418896</ele>
      </trkpt>
      <trkpt lat="36.834638" lon="138.226461">
        <ele>742.024006963009</ele>
      </trkpt>
      <trkpt lat="36.834568" lon="138.226286">
        <ele>743.7972954797533</ele>
      </trkpt>
      <trkpt lat="36.83432" lon="138.226048">
        <ele>743.8507782625076</ele>
      </trkpt>
      <trkpt lat="36.833777" lon="138.22531">
        <ele>750.328293400421</ele>
      </trkpt>
      <trkpt lat="36.83352" lon="138.225155">
        <ele>747.236683393335</ele>
      </trkpt>
      <trkpt lat="36.833139" lon="138.224774">
        <ele>746.5043949619242</ele>
      </trkpt>
      <trkpt lat="36.832786" lon="138.224548">
        <ele>742.7232568083836</ele>
      </trkpt>
      <trkpt lat="36.832634" lon="138.22425">
        <ele>753.3341900203967</ele>
      </trkpt>
      <trkpt lat="36.832376" lon="138.224096">
        <ele>753.6324693186916</ele>
      </trkpt>
      <trkpt lat="36.832195" lon="138.224108">
        <ele>749.6296276969613</ele>
      </trkpt>
      <trkpt lat="36.831967" lon="138.224012">
        <ele>750.6162801642906</ele>
      </trkpt>
      <trkpt lat="36.831671" lon="138.224036">
        <ele>743.879079033591</ele>
      </trkpt>
      <trkpt lat="36.831481" lon="138.223929">
        <ele>740.4270004179518</ele>
      </trkpt>
      <trkpt lat="36.831357" lon="138.223584">
        <ele>740.2504657953311</ele>
      </trkpt>
      <trkpt lat="36.831204" lon="138.223274">
        <ele>735.9356596391921</ele>
      </trkpt>
      <trkpt lat="36.831061" lon="138.223155">
        <ele>731.7786345613777</ele>
      </trkpt>
      <trkpt lat="36.830909" lon="138.222893">
        <ele>727.0234453348203</ele>
      </trkpt>
      <trkpt lat="36.83088" lon="138.222632">
        <ele>722.245582420101</ele>
      </trkpt>
      <trkpt lat="36.831052" lon="138.222501">
        <ele>720.9954738863482</ele>
      </trkpt>
      <trkpt lat="36.831385" lon="138.22237">
        <ele>719.8788679651267</ele>
      </trkpt>
      <trkpt lat="36.8317" lon="138.222358">
        <ele>720.5971559547281</ele>
      </trkpt>
      <trkpt lat="36.8319" lon="138.222429">
        <ele>724.3462380458787</ele>
      </trkpt>
      <trkpt lat="36.83209" lon="138.222512">
        <ele>728.6019788909051</ele>
      </trkpt>
      <trkpt lat="36.832214" lon="138.222429">
        <ele>728.9847161311924</ele>
      </trkpt>
      <trkpt lat="36.832319" lon="138.222262">
        <ele>728.5812086058372</ele>
      </trkpt>
      <trkpt lat="36.832376" lon="138.222013">
        <ele>727.3290774060649</ele>
      </trkpt>
      <trkpt lat="36.832214" lon="138.221358">
        <ele>716.4208240793675</ele>
      </trkpt>
      <trkpt lat="36.832272" lon="138.221132">
        <ele>713.7885314593683</ele>
      </trkpt>
      <trkpt lat="36.832453" lon="138.221024">
        <ele>711.8768743484</ele>
      </trkpt>
      <trkpt lat="36.832672" lon="138.221132">
        <ele>714.4004212085633</ele>
      </trkpt>
      <trkpt lat="36.832893" lon="138.221331">
        <ele>716.4210127603737</ele>
      </trkpt>
      <trkpt lat="36.833082" lon="138.221524">
        <ele>716.6304091394534</ele>
      </trkpt>
      <trkpt lat="36.833327" lon="138.221837">
        <ele>717.1664641560062</ele>
      </trkpt>
      <trkpt lat="36.833444" lon="138.221916">
        <ele>716.4924782958125</ele>
      </trkpt>
      <trkpt lat="36.833612" lon="138.221901">
        <ele>716.3898254886968</ele>
      </trkpt>
      <trkpt lat="36.833702" lon="138.221772">
        <ele>716.8261363224741</ele>
      </trkpt>
      <trkpt lat="36.833787" lon="138.221329">
        <ele>713.4127498793052</ele>
      </trkpt>
      <trkpt lat="36.833764" lon="138.2211">
        <ele>707.7010030380727</ele>
      </trkpt>
      <trkpt lat="36.833778" lon="138.220996">
        <ele>706.5529174832166</ele>
      </trkpt>
      <trkpt lat="36.833948" lon="138.220786">
        <ele>710.4789336478282</ele>
      </trkpt>
      <trkpt lat="36.834026" lon="138.220669">
        <ele>711.6082293443928</ele>
      </trkpt>
      <trkpt lat="36.833948" lon="138.220501">
        <ele>704.5437298709529</ele>
      </trkpt>
      <trkpt lat="36.833884" lon="138.220408">
        <ele>699.4206986846407</ele>
      </trkpt>
      <trkpt lat="36.833837" lon="138.220287">
        <ele>694.647199305584</ele>
      </trkpt>
      <trkpt lat="36.83385" lon="138.22018">
        <ele>693.260860897322</ele>
      </trkpt>
      <trkpt lat="36.833948" lon="138.219989">
        <ele>692.9246435248295</ele>
      </trkpt>
      <trkpt lat="36.834125" lon="138.219895">
        <ele>696.6575367514174</ele>
      </trkpt>
      <trkpt lat="36.834302" lon="138.219822">
        <ele>699.2878706548821</ele>
      </trkpt>
      <trkpt lat="36.834443" lon="138.219596">
        <ele>687.4840914233505</ele>
      </trkpt>
      <trkpt lat="36.834634" lon="138.219501">
        <ele>682.1383006938681</ele>
      </trkpt>
      <trkpt lat="36.834873" lon="138.219477">
        <ele>680.6102899901875</ele>
      </trkpt>
      <trkpt lat="36.835074" lon="138.21955">
        <ele>683.9716754641854</ele>
      </trkpt>
      <trkpt lat="36.835286" lon="138.219698">
        <ele>692.573546839439</ele>
      </trkpt>
      <trkpt lat="36.835498" lon="138.219786">
        <ele>700.6369245894407</ele>
      </trkpt>
      <trkpt lat="36.835615" lon="138.219774">
        <ele>701.9924682834949</ele>
      </trkpt>
      <trkpt lat="36.835682" lon="138.219679">
        <ele>699.449884149613</ele>
      </trkpt>
      <trkpt lat="36.835637" lon="138.219543">
        <ele>692.4197114357689</ele>
      </trkpt>
      <trkpt lat="36.83533" lon="138.219382">
        <ele>677.8807967813016</ele>
      </trkpt>
      <trkpt lat="36.835328" lon="138.219292">
        <ele>673.0349383203717</ele>
      </trkpt>
      <trkpt lat="36.835387" lon="138.219239">
        <ele>670.5683202099061</ele>
      </trkpt>
      <trkpt lat="36.835498" lon="138.219202">
        <ele>669.8748408857842</ele>
      </trkpt>
      <trkpt lat="36.835724" lon="138.219177">
        <ele>673.953223260875</ele>
      </trkpt>
      <trkpt lat="36.835968" lon="138.219072">
        <ele>678.2974982244274</ele>
      </trkpt>
      <trkpt lat="36.836092" lon="138.218917">
        <ele>678.0028935246198</ele>
      </trkpt>
      <trkpt lat="36.836302" lon="138.218572">
        <ele>677.6973721770802</ele>
      </trkpt>
      <trkpt lat="36.836416" lon="138.218251">
        <ele>676.5749737688811</ele>
      </trkpt>
      <trkpt lat="36.836549" lon="138.217358">
        <ele>671.5444986292773</ele>
      </trkpt>
      <trkpt lat="36.836654" lon="138.216894">
        <ele>668.6416086630813</ele>
      </trkpt>
      <trkpt lat="36.836759" lon="138.216501">
        <ele>664.4972039879592</ele>
      </trkpt>
      <trkpt lat="36.836864" lon="138.215942">
        <ele>658.3573440652812</ele>
      </trkpt>
      <trkpt lat="36.837054" lon="138.215144">
        <ele>657.3827364926706</ele>
      </trkpt>
      <trkpt lat="36.837182" lon="138.214435">
        <ele>657.8723149613487</ele>
      </trkpt>
      <trkpt lat="36.837188" lon="138.214161">
        <ele>659.2550324541355</ele>
      </trkpt>
      <trkpt lat="36.837169" lon="138.213867">
        <ele>660.5032111075284</ele>
      </trkpt>
      <trkpt lat="36.837156" lon="138.213653">
        <ele>662.2529424075843</ele>
      </trkpt>
      <trkpt lat="36.837001" lon="138.213133">
        <ele>664.8225186827202</ele>
      </trkpt>
      <trkpt lat="36.836924" lon="138.212753">
        <ele>665.8671969431459</ele>
      </trkpt>
      <trkpt lat="36.836884" lon="138.212157">
        <ele>665.0354341773688</ele>
      </trkpt>
      <trkpt lat="36.836877" lon="138.211881">
        <ele>661.5717428021072</ele>
      </trkpt>
    </trkseg>
  </trk>
</gpx>
