<?xml version="1.0" encoding="UTF-8"?>
<gpx creator="https://gpx.studio" version="1.1" xmlns="http://www.topografix.com/GPX/1/1" xmlns:xsi="http://www.w3.org/2001/XMLSchema-instance" xsi:schemaLocation="http://www.topografix.com/GPX/1/1 http://www.topografix.com/GPX/1/1/gpx.xsd http://www.garmin.com/xmlschemas/GpxExtensions/v3 http://www.garmin.com/xmlschemas/GpxExtensionsv3.xsd http://www.garmin.com/xmlschemas/TrackPointExtension/v1 http://www.garmin.com/xmlschemas/TrackPointExtensionv1.xsd http://www.garmin.com/xmlschemas/PowerExtension/v1 http://www.garmin.com/xmlschemas/PowerExtensionv1.xsd http://www.topografix.com/GPX/gpx_style/0/2 http://www.topografix.com/GPX/gpx_style/0/2/gpx_style.xsd" xmlns:gpxtpx="http://www.garmin.com/xmlschemas/TrackPointExtension/v1" xmlns:gpxx="http://www.garmin.com/xmlschemas/GpxExtensions/v3" xmlns:gpxpx="http://www.garmin.com/xmlschemas/PowerExtension/v1" xmlns:gpx_style="http://www.topografix.com/GPX/gpx_style/0/2">
  <metadata>
    <name>駅伝ロード</name>
    <author>
      <name>gpx.studio</name>
      <link href="https://gpx.studio"/>
    </author>
  </metadata>
  <wpt lat="0" lon="0">
    <ele>0</ele>
    <name>STRIDE LAB妙高店</name>
    <sym>Department Store</sym>
  </wpt>
  <trk>
    <name>駅伝ロード</name>
    <extensions>
      <gpx_style:line>
        <gpx_style:color>8250f7</gpx_style:color>
        <gpx_style:opacity>1</gpx_style:opacity>
        <gpx_style:width>6</gpx_style:width>
      </gpx_style:line>
    </extensions>
    <trkseg>
      <trkpt lat="36.850377" lon="138.165136">
        <ele>721.6340097652402</ele>
      </trkpt>
      <trkpt lat="36.849999" lon="138.165017">
        <ele>718.8665340274731</ele>
      </trkpt>
      <trkpt lat="36.849839" lon="138.164939">
        <ele>715.611275050252</ele>
      </trkpt>
      <trkpt lat="36.849683" lon="138.164835">
        <ele>713.7317028226169</ele>
      </trkpt>
      <trkpt lat="36.849391" lon="138.164584">
        <ele>712.8024845998717</ele>
      </trkpt>
      <trkpt lat="36.849196" lon="138.164361">
        <ele>711.7488709749191</ele>
      </trkpt>
      <trkpt lat="36.84899" lon="138.164094">
        <ele>711.2751200253151</ele>
      </trkpt>
      <trkpt lat="36.848862" lon="138.163851">
        <ele>711.615579338119</ele>
      </trkpt>
      <trkpt lat="36.848668" lon="138.163321">
        <ele>710.2457295067004</ele>
      </trkpt>
      <trkpt lat="36.848578" lon="138.163015">
        <ele>710.2458918764645</ele>
      </trkpt>
      <trkpt lat="36.848442" lon="138.16275">
        <ele>710.0932419944567</ele>
      </trkpt>
      <trkpt lat="36.848335" lon="138.162579">
        <ele>709.9929409412491</ele>
      </trkpt>
      <trkpt lat="36.848192" lon="138.162488">
        <ele>709.1118806890659</ele>
      </trkpt>
      <trkpt lat="36.847996" lon="138.162446">
        <ele>708.2156937091598</ele>
      </trkpt>
      <trkpt lat="36.84742" lon="138.162412">
        <ele>706.0856813296679</ele>
      </trkpt>
      <trkpt lat="36.847145" lon="138.162405">
        <ele>705.1485205686423</ele>
      </trkpt>
      <trkpt lat="36.847018" lon="138.162389">
        <ele>704.7452785121284</ele>
      </trkpt>
      <trkpt lat="36.846932" lon="138.162363">
        <ele>704.618556849575</ele>
      </trkpt>
      <trkpt lat="36.84686" lon="138.162341">
        <ele>704.6280696434862</ele>
      </trkpt>
      <trkpt lat="36.846714" lon="138.162258">
        <ele>704.8291963680658</ele>
      </trkpt>
      <trkpt lat="36.846526" lon="138.162093">
        <ele>703.8432349109031</ele>
      </trkpt>
      <trkpt lat="36.846225" lon="138.161726">
        <ele>701.5802711392321</ele>
      </trkpt>
      <trkpt lat="36.846126" lon="138.161572">
        <ele>701.1511004081678</ele>
      </trkpt>
      <trkpt lat="36.84604" lon="138.161398">
        <ele>701.0048416360281</ele>
      </trkpt>
      <trkpt lat="36.845978" lon="138.161233">
        <ele>700.9466419620428</ele>
      </trkpt>
      <trkpt lat="36.845919" lon="138.161026">
        <ele>700.5397293863124</ele>
      </trkpt>
      <trkpt lat="36.845892" lon="138.160881">
        <ele>700.0456198939318</ele>
      </trkpt>
      <trkpt lat="36.845827" lon="138.160554">
        <ele>700.3080530173155</ele>
      </trkpt>
      <trkpt lat="36.84565" lon="138.159496">
        <ele>699.9034987512855</ele>
      </trkpt>
      <trkpt lat="36.845478" lon="138.158489">
        <ele>702.1794324330764</ele>
      </trkpt>
      <trkpt lat="36.845466" lon="138.158142">
        <ele>703.6378350271469</ele>
      </trkpt>
      <trkpt lat="36.845476" lon="138.15775">
        <ele>703.9383346467341</ele>
      </trkpt>
      <trkpt lat="36.845539" lon="138.157143">
        <ele>706.137417253108</ele>
      </trkpt>
      <trkpt lat="36.845597" lon="138.156905">
        <ele>707.0597528527628</ele>
      </trkpt>
      <trkpt lat="36.845606" lon="138.156843">
        <ele>706.7013322395044</ele>
      </trkpt>
      <trkpt lat="36.845689" lon="138.156266">
        <ele>702.6886951869132</ele>
      </trkpt>
      <trkpt lat="36.845733" lon="138.155885">
        <ele>703.5713747605606</ele>
      </trkpt>
      <trkpt lat="36.845732" lon="138.155757">
        <ele>703.133853652795</ele>
      </trkpt>
      <trkpt lat="36.845705" lon="138.155642">
        <ele>701.8191497270283</ele>
      </trkpt>
      <trkpt lat="36.845673" lon="138.155581">
        <ele>700.7058453106592</ele>
      </trkpt>
      <trkpt lat="36.845653" lon="138.155541">
        <ele>700.0213277713863</ele>
      </trkpt>
      <trkpt lat="36.845582" lon="138.155508">
        <ele>698.5113502608631</ele>
      </trkpt>
      <trkpt lat="36.845165" lon="138.155354">
        <ele>697.3033892345426</ele>
      </trkpt>
      <trkpt lat="36.845122" lon="138.155349">
        <ele>697.8395166127484</ele>
      </trkpt>
      <trkpt lat="36.845116" lon="138.155348">
        <ele>697.920464489144</ele>
      </trkpt>
      <trkpt lat="36.844984" lon="138.155446">
        <ele>699.1224465356213</ele>
      </trkpt>
      <trkpt lat="36.8449" lon="138.155595">
        <ele>699.241387895814</ele>
      </trkpt>
      <trkpt lat="36.844789" lon="138.156038">
        <ele>697.1992124350287</ele>
      </trkpt>
      <trkpt lat="36.844665" lon="138.156382">
        <ele>696.0552781923452</ele>
      </trkpt>
      <trkpt lat="36.844552" lon="138.15657">
        <ele>695.9335368486223</ele>
      </trkpt>
      <trkpt lat="36.844411" lon="138.156737">
        <ele>695.8785295703487</ele>
      </trkpt>
      <trkpt lat="36.844151" lon="138.157012">
        <ele>696.7528251300344</ele>
      </trkpt>
      <trkpt lat="36.843966" lon="138.157243">
        <ele>698.2777472194286</ele>
      </trkpt>
      <trkpt lat="36.84378" lon="138.157568">
        <ele>701.3782817256791</ele>
      </trkpt>
      <trkpt lat="36.843666" lon="138.157845">
        <ele>701.1647244113472</ele>
      </trkpt>
      <trkpt lat="36.84363" lon="138.158046">
        <ele>699.80898443896</ele>
      </trkpt>
      <trkpt lat="36.843456" lon="138.158435">
        <ele>706.8660562566254</ele>
      </trkpt>
      <trkpt lat="36.84334" lon="138.158819">
        <ele>710.7883274517212</ele>
      </trkpt>
      <trkpt lat="36.843313" lon="138.159196">
        <ele>709.1175450060784</ele>
      </trkpt>
      <trkpt lat="36.843324" lon="138.159558">
        <ele>715.1521238001385</ele>
      </trkpt>
      <trkpt lat="36.843324" lon="138.159851">
        <ele>725.291004817837</ele>
      </trkpt>
      <trkpt lat="36.843367" lon="138.160466">
        <ele>730.7710496113414</ele>
      </trkpt>
      <trkpt lat="36.843378" lon="138.160834">
        <ele>727.517014725958</ele>
      </trkpt>
      <trkpt lat="36.843413" lon="138.161243">
        <ele>719.5766214927985</ele>
      </trkpt>
      <trkpt lat="36.843445" lon="138.161486">
        <ele>716.2050713723073</ele>
      </trkpt>
      <trkpt lat="36.84347" lon="138.161798">
        <ele>716.2320784762849</ele>
      </trkpt>
      <trkpt lat="36.843468" lon="138.162032">
        <ele>717.8712221249589</ele>
      </trkpt>
      <trkpt lat="36.843412" lon="138.162237">
        <ele>719.7753305315543</ele>
      </trkpt>
      <trkpt lat="36.843321" lon="138.162443">
        <ele>721.3577950455724</ele>
      </trkpt>
      <trkpt lat="36.843206" lon="138.162627">
        <ele>723.3555846193241</ele>
      </trkpt>
      <trkpt lat="36.843101" lon="138.162735">
        <ele>725.6905265482737</ele>
      </trkpt>
      <trkpt lat="36.842949" lon="138.162838">
        <ele>729.8295118437082</ele>
      </trkpt>
      <trkpt lat="36.842819" lon="138.162947">
        <ele>734.0344541418314</ele>
      </trkpt>
      <trkpt lat="36.842717" lon="138.163166">
        <ele>737.7404505049672</ele>
      </trkpt>
      <trkpt lat="36.842636" lon="138.163458">
        <ele>740.6702590647621</ele>
      </trkpt>
      <trkpt lat="36.842519" lon="138.163943">
        <ele>741.1048028278639</ele>
      </trkpt>
      <trkpt lat="36.842418" lon="138.164205">
        <ele>742.3247140078581</ele>
      </trkpt>
      <trkpt lat="36.842321" lon="138.164361">
        <ele>743.9658765801225</ele>
      </trkpt>
      <trkpt lat="36.842146" lon="138.164589">
        <ele>744.8352301592636</ele>
      </trkpt>
      <trkpt lat="36.841905" lon="138.164856">
        <ele>745.2129312244749</ele>
      </trkpt>
      <trkpt lat="36.841695" lon="138.16506">
        <ele>741.2223212273027</ele>
      </trkpt>
      <trkpt lat="36.841469" lon="138.165264">
        <ele>738.9235235261737</ele>
      </trkpt>
      <trkpt lat="36.841399" lon="138.16531">
        <ele>738.9327940308916</ele>
      </trkpt>
      <trkpt lat="36.841186" lon="138.165449">
        <ele>739.1647580586844</ele>
      </trkpt>
      <trkpt lat="36.840152" lon="138.166046">
        <ele>747.2420930566346</ele>
      </trkpt>
      <trkpt lat="36.839946" lon="138.166245">
        <ele>745.8040736978878</ele>
      </trkpt>
      <trkpt lat="36.839798" lon="138.166449">
        <ele>747.2174883468055</ele>
      </trkpt>
      <trkpt lat="36.839631" lon="138.166716">
        <ele>751.6663219241434</ele>
      </trkpt>
      <trkpt lat="36.839448" lon="138.167034">
        <ele>756.7935763926257</ele>
      </trkpt>
      <trkpt lat="36.839172" lon="138.167348">
        <ele>761.741595640704</ele>
      </trkpt>
      <trkpt lat="36.838923" lon="138.167586">
        <ele>762.792154116426</ele>
      </trkpt>
      <trkpt lat="36.83848" lon="138.168047">
        <ele>757.5834985809528</ele>
      </trkpt>
      <trkpt lat="36.838234" lon="138.168317">
        <ele>756.626453544315</ele>
      </trkpt>
      <trkpt lat="36.838084" lon="138.168455">
        <ele>756.9775655652954</ele>
      </trkpt>
      <trkpt lat="36.837805" lon="138.168642">
        <ele>753.0947913148386</ele>
      </trkpt>
      <trkpt lat="36.837221" lon="138.168858">
        <ele>746.7290744538057</ele>
      </trkpt>
      <trkpt lat="36.836528" lon="138.169087">
        <ele>747.8856403275415</ele>
      </trkpt>
      <trkpt lat="36.836462" lon="138.169108">
        <ele>748.8007196797848</ele>
      </trkpt>
      <trkpt lat="36.836215" lon="138.169248">
        <ele>748.9276776372368</ele>
      </trkpt>
      <trkpt lat="36.836002" lon="138.169291">
        <ele>748.5112649441313</ele>
      </trkpt>
      <trkpt lat="36.835577" lon="138.169333">
        <ele>747.1350583638654</ele>
      </trkpt>
      <trkpt lat="36.835125" lon="138.169404">
        <ele>742.4858257392464</ele>
      </trkpt>
      <trkpt lat="36.834535" lon="138.169465">
        <ele>745.6490547212652</ele>
      </trkpt>
      <trkpt lat="36.834271" lon="138.169439">
        <ele>748.30964812853</ele>
      </trkpt>
      <trkpt lat="36.833957" lon="138.169351">
        <ele>747.1780667369258</ele>
      </trkpt>
      <trkpt lat="36.833813" lon="138.16932">
        <ele>744.9148379133876</ele>
      </trkpt>
      <trkpt lat="36.833638" lon="138.169388">
        <ele>742.1862351919532</ele>
      </trkpt>
      <trkpt lat="36.833423" lon="138.169452">
        <ele>742.3018753742213</ele>
      </trkpt>
      <trkpt lat="36.833299" lon="138.169516">
        <ele>742.9819312459317</ele>
      </trkpt>
      <trkpt lat="36.833185" lon="138.169587">
        <ele>743.5644169839136</ele>
      </trkpt>
      <trkpt lat="36.833016" lon="138.169846">
        <ele>739.2300635232941</ele>
      </trkpt>
      <trkpt lat="36.832948" lon="138.169974">
        <ele>735.1063842098926</ele>
      </trkpt>
      <trkpt lat="36.83267" lon="138.170148">
        <ele>730.5856078635679</ele>
      </trkpt>
      <trkpt lat="36.832441" lon="138.170244">
        <ele>729.3964895593016</ele>
      </trkpt>
      <trkpt lat="36.832159" lon="138.170537">
        <ele>727.1547841252369</ele>
      </trkpt>
      <trkpt lat="36.831917" lon="138.17085">
        <ele>724.7679573332903</ele>
      </trkpt>
      <trkpt lat="36.831867" lon="138.170915">
        <ele>724.4929644739507</ele>
      </trkpt>
      <trkpt lat="36.83174" lon="138.171142">
        <ele>723.5230069716131</ele>
      </trkpt>
      <trkpt lat="36.831718" lon="138.171245">
        <ele>722.9414074844223</ele>
      </trkpt>
      <trkpt lat="36.831717" lon="138.171661">
        <ele>722.3007940270862</ele>
      </trkpt>
      <trkpt lat="36.831732" lon="138.171812">
        <ele>723.1589005144747</ele>
      </trkpt>
      <trkpt lat="36.831764" lon="138.172007">
        <ele>723.5020415594197</ele>
      </trkpt>
      <trkpt lat="36.83174" lon="138.172238">
        <ele>723.3358609611591</ele>
      </trkpt>
      <trkpt lat="36.83162" lon="138.172506">
        <ele>722.9769524379324</ele>
      </trkpt>
      <trkpt lat="36.831341" lon="138.17299">
        <ele>723.4965678229928</ele>
      </trkpt>
      <trkpt lat="36.831309" lon="138.173188">
        <ele>725.2563591165042</ele>
      </trkpt>
      <trkpt lat="36.83131" lon="138.173316">
        <ele>726.2174534182739</ele>
      </trkpt>
      <trkpt lat="36.831327" lon="138.173418">
        <ele>726.9352867280494</ele>
      </trkpt>
      <trkpt lat="36.831372" lon="138.17358">
        <ele>728.1163269110564</ele>
      </trkpt>
      <trkpt lat="36.831471" lon="138.173841">
        <ele>730.2034653735124</ele>
      </trkpt>
      <trkpt lat="36.831558" lon="138.174097">
        <ele>730.1760430980108</ele>
      </trkpt>
      <trkpt lat="36.831751" lon="138.174567">
        <ele>729.6445765397496</ele>
      </trkpt>
      <trkpt lat="36.831854" lon="138.174754">
        <ele>728.6108257641558</ele>
      </trkpt>
      <trkpt lat="36.83206" lon="138.175095">
        <ele>723.3944961482207</ele>
      </trkpt>
      <trkpt lat="36.832351" lon="138.175558">
        <ele>715.1938801647341</ele>
      </trkpt>
      <trkpt lat="36.8326" lon="138.176009">
        <ele>716.4333117411552</ele>
      </trkpt>
      <trkpt lat="36.83265" lon="138.176153">
        <ele>716.4369352817097</ele>
      </trkpt>
      <trkpt lat="36.832687" lon="138.176335">
        <ele>716.5084973794208</ele>
      </trkpt>
      <trkpt lat="36.832756" lon="138.176953">
        <ele>716.0955723972062</ele>
      </trkpt>
      <trkpt lat="36.832793" lon="138.177202">
        <ele>716.1384016698908</ele>
      </trkpt>
      <trkpt lat="36.832927" lon="138.177722">
        <ele>714.3072262078756</ele>
      </trkpt>
      <trkpt lat="36.833109" lon="138.178173">
        <ele>714.1239744951724</ele>
      </trkpt>
      <trkpt lat="36.833235" lon="138.178515">
        <ele>715.7525941814765</ele>
      </trkpt>
      <trkpt lat="36.833297" lon="138.178737">
        <ele>716.2683653691327</ele>
      </trkpt>
      <trkpt lat="36.83334" lon="138.178958">
        <ele>716.5112635431353</ele>
      </trkpt>
      <trkpt lat="36.833374" lon="138.179082">
        <ele>716.3449407551796</ele>
      </trkpt>
      <trkpt lat="36.833399" lon="138.179424">
        <ele>716.9644067971224</ele>
      </trkpt>
      <trkpt lat="36.833396" lon="138.179809">
        <ele>715.4128301691679</ele>
      </trkpt>
      <trkpt lat="36.833376" lon="138.179942">
        <ele>714.2011843669688</ele>
      </trkpt>
      <trkpt lat="36.833204" lon="138.180767">
        <ele>704.0243272240282</ele>
      </trkpt>
      <trkpt lat="36.833163" lon="138.181436">
        <ele>700.3167519898624</ele>
      </trkpt>
      <trkpt lat="36.832507" lon="138.181409">
        <ele>704.4408919098437</ele>
      </trkpt>
      <trkpt lat="36.83193" lon="138.181154">
        <ele>708.0068712865041</ele>
      </trkpt>
      <trkpt lat="36.831353" lon="138.181084">
        <ele>701.6389657500421</ele>
      </trkpt>
      <trkpt lat="36.830948" lon="138.181065">
        <ele>703.8731229597014</ele>
      </trkpt>
      <trkpt lat="36.830948" lon="138.181065">
        <ele>703.8731229597014</ele>
      </trkpt>
      <trkpt lat="36.831353" lon="138.181084">
        <ele>701.6389657500421</ele>
      </trkpt>
      <trkpt lat="36.83193" lon="138.181154">
        <ele>708.0068712865041</ele>
      </trkpt>
      <trkpt lat="36.832507" lon="138.181409">
        <ele>704.4408919098437</ele>
      </trkpt>
      <trkpt lat="36.833163" lon="138.181436">
        <ele>700.3167519898624</ele>
      </trkpt>
      <trkpt lat="36.833204" lon="138.180767">
        <ele>704.0243272240282</ele>
      </trkpt>
      <trkpt lat="36.833376" lon="138.179942">
        <ele>714.2011843669688</ele>
      </trkpt>
      <trkpt lat="36.833396" lon="138.179809">
        <ele>715.4128301691679</ele>
      </trkpt>
      <trkpt lat="36.833399" lon="138.179424">
        <ele>716.9644067971224</ele>
      </trkpt>
      <trkpt lat="36.833374" lon="138.179082">
        <ele>716.3449407551796</ele>
      </trkpt>
      <trkpt lat="36.83334" lon="138.178958">
        <ele>716.5112635431353</ele>
      </trkpt>
      <trkpt lat="36.833297" lon="138.178737">
        <ele>716.2683653691327</ele>
      </trkpt>
      <trkpt lat="36.833235" lon="138.178515">
        <ele>715.7525941814765</ele>
      </trkpt>
      <trkpt lat="36.833109" lon="138.178173">
        <ele>714.1239744951724</ele>
      </trkpt>
      <trkpt lat="36.832927" lon="138.177722">
        <ele>714.3072262078756</ele>
      </trkpt>
      <trkpt lat="36.832793" lon="138.177202">
        <ele>716.1384016698908</ele>
      </trkpt>
      <trkpt lat="36.832756" lon="138.176953">
        <ele>716.0955723972062</ele>
      </trkpt>
      <trkpt lat="36.832687" lon="138.176335">
        <ele>716.5084973794208</ele>
      </trkpt>
      <trkpt lat="36.83265" lon="138.176153">
        <ele>716.4369352817097</ele>
      </trkpt>
      <trkpt lat="36.8326" lon="138.176009">
        <ele>716.4333117411552</ele>
      </trkpt>
      <trkpt lat="36.832351" lon="138.175558">
        <ele>715.1938801647341</ele>
      </trkpt>
      <trkpt lat="36.83206" lon="138.175095">
        <ele>723.3944961482207</ele>
      </trkpt>
      <trkpt lat="36.831854" lon="138.174754">
        <ele>728.6108257641558</ele>
      </trkpt>
      <trkpt lat="36.831751" lon="138.174567">
        <ele>729.6445765397496</ele>
      </trkpt>
      <trkpt lat="36.831558" lon="138.174097">
        <ele>730.1760430980108</ele>
      </trkpt>
      <trkpt lat="36.831471" lon="138.173841">
        <ele>730.2034653735124</ele>
      </trkpt>
      <trkpt lat="36.831372" lon="138.17358">
        <ele>728.1163269110564</ele>
      </trkpt>
      <trkpt lat="36.831327" lon="138.173418">
        <ele>726.9352867280494</ele>
      </trkpt>
      <trkpt lat="36.83131" lon="138.173316">
        <ele>726.2174534182739</ele>
      </trkpt>
      <trkpt lat="36.831309" lon="138.173188">
        <ele>725.2563591165042</ele>
      </trkpt>
      <trkpt lat="36.831341" lon="138.17299">
        <ele>723.4965678229928</ele>
      </trkpt>
      <trkpt lat="36.83162" lon="138.172506">
        <ele>722.9769524379324</ele>
      </trkpt>
      <trkpt lat="36.83174" lon="138.172238">
        <ele>723.3358609611591</ele>
      </trkpt>
      <trkpt lat="36.831764" lon="138.172007">
        <ele>723.5020415594197</ele>
      </trkpt>
      <trkpt lat="36.831732" lon="138.171812">
        <ele>723.1589005144747</ele>
      </trkpt>
      <trkpt lat="36.831717" lon="138.171661">
        <ele>722.3007940270862</ele>
      </trkpt>
      <trkpt lat="36.831718" lon="138.171245">
        <ele>722.9414074844223</ele>
      </trkpt>
      <trkpt lat="36.83174" lon="138.171142">
        <ele>723.5230069716131</ele>
      </trkpt>
      <trkpt lat="36.831867" lon="138.170915">
        <ele>724.4929644739507</ele>
      </trkpt>
      <trkpt lat="36.831917" lon="138.17085">
        <ele>724.7679573332903</ele>
      </trkpt>
      <trkpt lat="36.832159" lon="138.170537">
        <ele>727.1547841252369</ele>
      </trkpt>
      <trkpt lat="36.832441" lon="138.170244">
        <ele>729.3964895593016</ele>
      </trkpt>
      <trkpt lat="36.83267" lon="138.170148">
        <ele>730.5856078635679</ele>
      </trkpt>
      <trkpt lat="36.832948" lon="138.169974">
        <ele>735.1063842098926</ele>
      </trkpt>
      <trkpt lat="36.833016" lon="138.169846">
        <ele>739.2300635232941</ele>
      </trkpt>
      <trkpt lat="36.833185" lon="138.169587">
        <ele>743.5644169839136</ele>
      </trkpt>
      <trkpt lat="36.833299" lon="138.169516">
        <ele>742.9819312459317</ele>
      </trkpt>
      <trkpt lat="36.833423" lon="138.169452">
        <ele>742.3018753742213</ele>
      </trkpt>
      <trkpt lat="36.833638" lon="138.169388">
        <ele>742.1862351919532</ele>
      </trkpt>
      <trkpt lat="36.833813" lon="138.16932">
        <ele>744.9148379133876</ele>
      </trkpt>
      <trkpt lat="36.833957" lon="138.169351">
        <ele>747.1780667369258</ele>
      </trkpt>
      <trkpt lat="36.834271" lon="138.169439">
        <ele>748.30964812853</ele>
      </trkpt>
      <trkpt lat="36.834535" lon="138.169465">
        <ele>745.6490547212652</ele>
      </trkpt>
      <trkpt lat="36.835125" lon="138.169404">
        <ele>742.4858257392464</ele>
      </trkpt>
      <trkpt lat="36.835577" lon="138.169333">
        <ele>747.1350583638654</ele>
      </trkpt>
      <trkpt lat="36.836002" lon="138.169291">
        <ele>748.5112649441313</ele>
      </trkpt>
      <trkpt lat="36.836215" lon="138.169248">
        <ele>748.9276776372368</ele>
      </trkpt>
      <trkpt lat="36.836462" lon="138.169108">
        <ele>748.8007196797848</ele>
      </trkpt>
      <trkpt lat="36.836528" lon="138.169087">
        <ele>747.8856403275415</ele>
      </trkpt>
      <trkpt lat="36.837221" lon="138.168858">
        <ele>746.7290744538057</ele>
      </trkpt>
      <trkpt lat="36.837805" lon="138.168642">
        <ele>753.0947913148386</ele>
      </trkpt>
      <trkpt lat="36.838084" lon="138.168455">
        <ele>756.9775655652954</ele>
      </trkpt>
      <trkpt lat="36.838234" lon="138.168317">
        <ele>756.626453544315</ele>
      </trkpt>
      <trkpt lat="36.83848" lon="138.168047">
        <ele>757.5834985809528</ele>
      </trkpt>
      <trkpt lat="36.838923" lon="138.167586">
        <ele>762.792154116426</ele>
      </trkpt>
      <trkpt lat="36.839172" lon="138.167348">
        <ele>761.741595640704</ele>
      </trkpt>
      <trkpt lat="36.839448" lon="138.167034">
        <ele>756.7935763926257</ele>
      </trkpt>
      <trkpt lat="36.839631" lon="138.166716">
        <ele>751.6663219241434</ele>
      </trkpt>
      <trkpt lat="36.839798" lon="138.166449">
        <ele>747.2174883468055</ele>
      </trkpt>
      <trkpt lat="36.839946" lon="138.166245">
        <ele>745.8040736978878</ele>
      </trkpt>
      <trkpt lat="36.840152" lon="138.166046">
        <ele>747.2420930566346</ele>
      </trkpt>
      <trkpt lat="36.841186" lon="138.165449">
        <ele>739.1647580586844</ele>
      </trkpt>
      <trkpt lat="36.841399" lon="138.16531">
        <ele>738.9327940308916</ele>
      </trkpt>
      <trkpt lat="36.841469" lon="138.165264">
        <ele>738.9235235261737</ele>
      </trkpt>
      <trkpt lat="36.841695" lon="138.16506">
        <ele>741.2223212273027</ele>
      </trkpt>
      <trkpt lat="36.841905" lon="138.164856">
        <ele>745.2129312244749</ele>
      </trkpt>
      <trkpt lat="36.842146" lon="138.164589">
        <ele>744.8352301592636</ele>
      </trkpt>
      <trkpt lat="36.842321" lon="138.164361">
        <ele>743.9658765801225</ele>
      </trkpt>
      <trkpt lat="36.842418" lon="138.164205">
        <ele>742.3247140078581</ele>
      </trkpt>
      <trkpt lat="36.842519" lon="138.163943">
        <ele>741.1048028278639</ele>
      </trkpt>
      <trkpt lat="36.842636" lon="138.163458">
        <ele>740.6702590647621</ele>
      </trkpt>
      <trkpt lat="36.842717" lon="138.163166">
        <ele>737.7404505049672</ele>
      </trkpt>
      <trkpt lat="36.842819" lon="138.162947">
        <ele>734.0344541418314</ele>
      </trkpt>
      <trkpt lat="36.842949" lon="138.162838">
        <ele>729.8295118437082</ele>
      </trkpt>
      <trkpt lat="36.843101" lon="138.162735">
        <ele>725.6905265482737</ele>
      </trkpt>
      <trkpt lat="36.843206" lon="138.162627">
        <ele>723.3555846193241</ele>
      </trkpt>
      <trkpt lat="36.843321" lon="138.162443">
        <ele>721.3577950455724</ele>
      </trkpt>
      <trkpt lat="36.843412" lon="138.162237">
        <ele>719.7753305315543</ele>
      </trkpt>
      <trkpt lat="36.843468" lon="138.162032">
        <ele>717.8712221249589</ele>
      </trkpt>
      <trkpt lat="36.84347" lon="138.161798">
        <ele>716.2320784762849</ele>
      </trkpt>
      <trkpt lat="36.843445" lon="138.161486">
        <ele>716.2050713723073</ele>
      </trkpt>
      <trkpt lat="36.843413" lon="138.161243">
        <ele>719.5766214927985</ele>
      </trkpt>
      <trkpt lat="36.843378" lon="138.160834">
        <ele>727.517014725958</ele>
      </trkpt>
      <trkpt lat="36.843367" lon="138.160466">
        <ele>730.7710496113414</ele>
      </trkpt>
      <trkpt lat="36.843324" lon="138.159851">
        <ele>725.291004817837</ele>
      </trkpt>
      <trkpt lat="36.843324" lon="138.159558">
        <ele>715.1521238001385</ele>
      </trkpt>
      <trkpt lat="36.843313" lon="138.159196">
        <ele>709.1175450060784</ele>
      </trkpt>
      <trkpt lat="36.84334" lon="138.158819">
        <ele>710.7883274517212</ele>
      </trkpt>
      <trkpt lat="36.843456" lon="138.158435">
        <ele>706.8660562566254</ele>
      </trkpt>
      <trkpt lat="36.84363" lon="138.158046">
        <ele>699.80898443896</ele>
      </trkpt>
      <trkpt lat="36.843666" lon="138.157845">
        <ele>701.1647244113472</ele>
      </trkpt>
      <trkpt lat="36.84378" lon="138.157568">
        <ele>701.3782817256791</ele>
      </trkpt>
      <trkpt lat="36.843966" lon="138.157243">
        <ele>698.2777472194286</ele>
      </trkpt>
      <trkpt lat="36.844151" lon="138.157012">
        <ele>696.7528251300344</ele>
      </trkpt>
      <trkpt lat="36.844411" lon="138.156737">
        <ele>695.8785295703487</ele>
      </trkpt>
      <trkpt lat="36.844552" lon="138.15657">
        <ele>695.9335368486223</ele>
      </trkpt>
      <trkpt lat="36.844665" lon="138.156382">
        <ele>696.0552781923452</ele>
      </trkpt>
      <trkpt lat="36.844789" lon="138.156038">
        <ele>697.1992124350287</ele>
      </trkpt>
      <trkpt lat="36.8449" lon="138.155595">
        <ele>699.241387895814</ele>
      </trkpt>
      <trkpt lat="36.844984" lon="138.155446">
        <ele>699.1224465356213</ele>
      </trkpt>
      <trkpt lat="36.845116" lon="138.155348">
        <ele>697.920464489144</ele>
      </trkpt>
      <trkpt lat="36.845122" lon="138.155349">
        <ele>697.8395166127484</ele>
      </trkpt>
      <trkpt lat="36.845165" lon="138.155354">
        <ele>697.3033892345426</ele>
      </trkpt>
      <trkpt lat="36.845582" lon="138.155508">
        <ele>698.5113502608631</ele>
      </trkpt>
      <trkpt lat="36.845653" lon="138.155541">
        <ele>700.0213277713863</ele>
      </trkpt>
      <trkpt lat="36.845673" lon="138.155581">
        <ele>700.7058453106592</ele>
      </trkpt>
      <trkpt lat="36.845705" lon="138.155642">
        <ele>701.8191497270283</ele>
      </trkpt>
      <trkpt lat="36.845732" lon="138.155757">
        <ele>703.133853652795</ele>
      </trkpt>
      <trkpt lat="36.845733" lon="138.155885">
        <ele>703.5713747605606</ele>
      </trkpt>
      <trkpt lat="36.845689" lon="138.156266">
        <ele>702.6886951869132</ele>
      </trkpt>
      <trkpt lat="36.845606" lon="138.156843">
        <ele>706.7013322395044</ele>
      </trkpt>
      <trkpt lat="36.845597" lon="138.156905">
        <ele>707.0597528527628</ele>
      </trkpt>
      <trkpt lat="36.845539" lon="138.157143">
        <ele>706.137417253108</ele>
      </trkpt>
      <trkpt lat="36.845476" lon="138.15775">
        <ele>703.9383346467341</ele>
      </trkpt>
      <trkpt lat="36.845466" lon="138.158142">
        <ele>703.6378350271469</ele>
      </trkpt>
      <trkpt lat="36.845478" lon="138.158489">
        <ele>702.1794324330764</ele>
      </trkpt>
      <trkpt lat="36.84565" lon="138.159496">
        <ele>699.9034987512855</ele>
      </trkpt>
      <trkpt lat="36.845827" lon="138.160554">
        <ele>700.3080530173155</ele>
      </trkpt>
      <trkpt lat="36.845892" lon="138.160881">
        <ele>700.0456198939318</ele>
      </trkpt>
      <trkpt lat="36.845919" lon="138.161026">
        <ele>700.5397293863124</ele>
      </trkpt>
      <trkpt lat="36.845978" lon="138.161233">
        <ele>700.9466419620428</ele>
      </trkpt>
      <trkpt lat="36.84604" lon="138.161398">
        <ele>701.0048416360281</ele>
      </trkpt>
      <trkpt lat="36.846126" lon="138.161572">
        <ele>701.1511004081678</ele>
      </trkpt>
      <trkpt lat="36.846225" lon="138.161726">
        <ele>701.5802711392321</ele>
      </trkpt>
      <trkpt lat="36.846526" lon="138.162093">
        <ele>703.8432349109031</ele>
      </trkpt>
      <trkpt lat="36.846714" lon="138.162258">
        <ele>704.8291963680658</ele>
      </trkpt>
      <trkpt lat="36.84686" lon="138.162341">
        <ele>704.6280696434862</ele>
      </trkpt>
      <trkpt lat="36.846932" lon="138.162363">
        <ele>704.618556849575</ele>
      </trkpt>
      <trkpt lat="36.847018" lon="138.162389">
        <ele>704.7452785121284</ele>
      </trkpt>
      <trkpt lat="36.847145" lon="138.162405">
        <ele>705.1485205686423</ele>
      </trkpt>
      <trkpt lat="36.84742" lon="138.162412">
        <ele>706.0856813296679</ele>
      </trkpt>
      <trkpt lat="36.847996" lon="138.162446">
        <ele>708.2156937091598</ele>
      </trkpt>
      <trkpt lat="36.848192" lon="138.162488">
        <ele>709.1118806890659</ele>
      </trkpt>
      <trkpt lat="36.848335" lon="138.162579">
        <ele>709.9929409412491</ele>
      </trkpt>
      <trkpt lat="36.848442" lon="138.16275">
        <ele>710.0932419944567</ele>
      </trkpt>
      <trkpt lat="36.848578" lon="138.163015">
        <ele>710.2458918764645</ele>
      </trkpt>
      <trkpt lat="36.848668" lon="138.163321">
        <ele>710.2457295067004</ele>
      </trkpt>
      <trkpt lat="36.848862" lon="138.163851">
        <ele>711.615579338119</ele>
      </trkpt>
      <trkpt lat="36.84899" lon="138.164094">
        <ele>711.2751200253151</ele>
      </trkpt>
      <trkpt lat="36.849196" lon="138.164361">
        <ele>711.7488709749191</ele>
      </trkpt>
      <trkpt lat="36.849391" lon="138.164584">
        <ele>712.8024845998717</ele>
      </trkpt>
      <trkpt lat="36.849683" lon="138.164835">
        <ele>713.7317028226169</ele>
      </trkpt>
      <trkpt lat="36.849839" lon="138.164939">
        <ele>715.611275050252</ele>
      </trkpt>
      <trkpt lat="36.849999" lon="138.165017">
        <ele>718.8665340274731</ele>
      </trkpt>
      <trkpt lat="36.850377" lon="138.165136">
        <ele>721.6340097652402</ele>
      </trkpt>
    </trkseg>
  </trk>
</gpx>
